{
"type": "FeatureCollection",
"name": "CCA_LFBP_PY_Labels",
"crs": { "type": "name", "properties": { "name": "urn:ogc:def:crs:OGC:1.3:CRS84" } },
"features": [
{ "type": "Feature", "properties": { "fir": "LFBB", "identifier": "LFBB:PYRENEES PY:025-145", "subsector_id": "", "name": "PY", "level_lower": 0, "level_upper": 145, "callout_x1": -0.075, "callout_y1": 43.404444444444451, "callout_x2": -0.075, "callout_y2": 43.404444444444451, "style": 10, "buffer": null }, "geometry": { "type": "Point", "coordinates": [ 0.004087342182464, 43.449561096563123 ] } },
{ "type": "Feature", "properties": { "fir": "LFBB", "identifier": "MARSAN", "subsector_id": "MARSAN", "name": "MARSAN", "level_lower": 0, "level_upper": 195, "callout_x1": null, "callout_y1": null, "callout_x2": null, "callout_y2": null, "style": 20, "buffer": null }, "geometry": { "type": "Point", "coordinates": [ -0.02728631911541, 43.851981003920947 ] } },
{ "type": "Feature", "properties": { "fir": "LFBB", "identifier": "BZ", "subsector_id": "BZ", "name": "BZ", "level_lower": 0, "level_upper": 145, "callout_x1": null, "callout_y1": null, "callout_x2": null, "callout_y2": null, "style": 20, "buffer": null }, "geometry": { "type": "Point", "coordinates": [ -1.005574121403672, 43.530260772394598 ] } },
{ "type": "Feature", "properties": { "fir": "LFBB", "identifier": "WB", "subsector_id": "WB", "name": "WB", "level_lower": 0, "level_upper": 75, "callout_x1": null, "callout_y1": null, "callout_x2": null, "callout_y2": null, "style": 20, "buffer": null }, "geometry": { "type": "Point", "coordinates": [ 0.873993405441706, 43.397773825901076 ] } },
{ "type": "Feature", "properties": { "fir": "LFBB", "identifier": "AW", "subsector_id": "AW", "name": "AW", "level_lower": 75, "level_upper": 145, "callout_x1": null, "callout_y1": null, "callout_x2": null, "callout_y2": null, "style": 21, "buffer": null }, "geometry": { "type": "Point", "coordinates": [ 0.873993405441706, 43.397773825901076 ] } },
{ "type": "Feature", "properties": { "fir": "LECM", "identifier": "PAL", "subsector_id": "PAL", "name": "PAL", "level_lower": 0, "level_upper": 245, "callout_x1": null, "callout_y1": null, "callout_x2": null, "callout_y2": null, "style": 20, "buffer": null }, "geometry": { "type": "Point", "coordinates": [ -0.783106341291472, 42.902541422494977 ] } },
{ "type": "Feature", "properties": { "fir": "LECB", "identifier": "ZGZ", "subsector_id": "ZGZ", "name": "ZGZ", "level_lower": 0, "level_upper": 245, "callout_x1": null, "callout_y1": null, "callout_x2": null, "callout_y2": null, "style": 20, "buffer": null }, "geometry": { "type": "Point", "coordinates": [ -0.275423458471325, 42.745649562786262 ] } },
{ "type": "Feature", "properties": { "fir": "LECB", "identifier": "DDN", "subsector_id": "DDN", "name": "DDN", "level_lower": 0, "level_upper": 245, "callout_x1": null, "callout_y1": null, "callout_x2": null, "callout_y2": null, "style": 20, "buffer": null }, "geometry": { "type": "Point", "coordinates": [ 0.289302444890412, 42.68907103484247 ] } },
{ "type": "Feature", "properties": { "fir": "LECB", "identifier": "NW4", "subsector_id": "NW4", "name": "NW4", "level_lower": 0, "level_upper": 195, "callout_x1": null, "callout_y1": null, "callout_x2": null, "callout_y2": null, "style": 20, "buffer": null }, "geometry": { "type": "Point", "coordinates": [ 0.799837478737639, 42.772872676660484 ] } }
]
}
