{
"type": "FeatureCollection",
"name": "CCA_LFLC_Labels",
"crs": { "type": "name", "properties": { "name": "urn:ogc:def:crs:OGC:1.3:CRS84" } },
"xy_coordinate_resolution": 1e-15,
"features": [
{ "type": "Feature", "properties": { "fir": "LFLC", "identifier": null, "subsector_id": null, "name": "CF1", "level_lower": "0", "level_upper": "145", "callout_x1": null, "callout_y1": null, "callout_x2": null, "callout_y2": null, "style": 30, "buffer": null }, "geometry": { "type": "Point", "coordinates": [ 3.312706663135513, 45.597869749951265 ] } },
{ "type": "Feature", "properties": { "fir": "LFLC", "identifier": null, "subsector_id": null, "name": "CY1", "level_lower": "0", "level_upper": "115", "callout_x1": "2.5080", "callout_y1": "46.5042", "callout_x2": "3.3787", "callout_y2": "46.4103", "style": 30, "buffer": null }, "geometry": { "type": "Point", "coordinates": [ 2.415705165119017, 46.513256070175103 ] } },
{ "type": "Feature", "properties": { "fir": "LFLC", "identifier": null, "subsector_id": null, "name": "CF2", "level_lower": "115", "level_upper": "145", "callout_x1": null, "callout_y1": null, "callout_x2": null, "callout_y2": null, "style": 31, "buffer": null }, "geometry": { "type": "Point", "coordinates": [ 2.415705165119017, 46.513256070175103 ] } },
{ "type": "Feature", "properties": { "fir": "LFLC", "identifier": null, "subsector_id": null, "name": "CK", "level_lower": "0", "level_upper": "85", "callout_x1": "4.5219", "callout_y1": "45.7054", "callout_x2": "4.1789", "callout_y2": "45.7883", "style": 30, "buffer": null }, "geometry": { "type": "Point", "coordinates": [ 4.746150233495207, 45.708517425513975 ] } },
{ "type": "Feature", "properties": { "fir": "LFLL", "identifier": null, "subsector_id": null, "name": "VW", "level_lower": "85", "level_upper": "145", "callout_x1": null, "callout_y1": null, "callout_x2": null, "callout_y2": null, "style": 31, "buffer": null }, "geometry": { "type": "Point", "coordinates": [ 4.746150233495207, 45.708517425513975 ] } },
{ "type": "Feature", "properties": { "fir": "LFLC", "identifier": null, "subsector_id": null, "name": "CL2", "level_lower": "0", "level_upper": "85", "callout_x1": "4.8341", "callout_y1": "45.0289", "callout_x2": "4.4164", "callout_y2": "44.9636", "style": 30, "buffer": null }, "geometry": { "type": "Point", "coordinates": [ 5.09791552683501, 45.063096370573419 ] } },
{ "type": "Feature", "properties": { "fir": "LFLL", "identifier": null, "subsector_id": null, "name": "VW", "level_lower": "85", "level_upper": "145", "callout_x1": null, "callout_y1": null, "callout_x2": null, "callout_y2": null, "style": 31, "buffer": null }, "geometry": { "type": "Point", "coordinates": [ 5.09791552683501, 45.063096370573419 ] } },
{ "type": "Feature", "properties": { "fir": "LFLC", "identifier": null, "subsector_id": null, "name": "CL1", "level_lower": "0", "level_upper": "145", "callout_x1": null, "callout_y1": null, "callout_x2": null, "callout_y2": null, "style": 30, "buffer": null }, "geometry": { "type": "Point", "coordinates": [ 3.488589309805414, 44.94806741033814 ] } },
{ "type": "Feature", "properties": { "fir": "LFLC", "identifier": null, "subsector_id": null, "name": "CY2", "level_lower": "0", "level_upper": "85", "callout_x1": "4.8033", "callout_y1": "46.0636", "callout_x2": "4.2273", "callout_y2": "46.1824", "style": 30, "buffer": null }, "geometry": { "type": "Point", "coordinates": [ 5.141886188502485, 46.042201173415407 ] } },
{ "type": "Feature", "properties": { "fir": "LFLL", "identifier": null, "subsector_id": null, "name": "VE/VW", "level_lower": "85", "level_upper": "115", "callout_x1": null, "callout_y1": null, "callout_x2": null, "callout_y2": null, "style": 31, "buffer": null }, "geometry": { "type": "Point", "coordinates": [ 5.141886188502485, 46.042201173415407 ] } },
{ "type": "Feature", "properties": { "fir": "LFMM", "identifier": null, "subsector_id": null, "name": "LO", "level_lower": "115", "level_upper": "145", "callout_x1": null, "callout_y1": null, "callout_x2": null, "callout_y2": null, "style": 32, "buffer": null }, "geometry": { "type": "Point", "coordinates": [ 5.141886188502485, 46.042201173415407 ] } },
{ "type": "Feature", "properties": { "fir": "LFLC", "identifier": null, "subsector_id": null, "name": "CY1", "level_lower": "0", "level_upper": "115", "callout_x1": "2.7411", "callout_y1": "46.9593", "callout_x2": "3.5545", "callout_y2": "46.8722", "style": 30, "buffer": null }, "geometry": { "type": "Point", "coordinates": [ 2.635558473456394, 46.974263011530418 ] } },
{ "type": "Feature", "properties": { "fir": "LFFF", "identifier": null, "subsector_id": null, "name": "S", "level_lower": "115", "level_upper": "195", "callout_x1": null, "callout_y1": null, "callout_x2": null, "callout_y2": null, "style": 11, "buffer": null }, "geometry": { "type": "Point", "coordinates": [ 2.635558473456394, 46.974263011530418 ] } },
{ "type": "Feature", "properties": { "fir": "LFLC", "identifier": null, "subsector_id": null, "name": "CY1", "level_lower": "0", "level_upper": "115", "callout_x1": "4.9264", "callout_y1": "46.4254", "callout_x2": "4.0734", "callout_y2": "46.3466", "style": 30, "buffer": null }, "geometry": { "type": "Point", "coordinates": [ 5.124297923835495, 46.407242774060322 ] } },
{ "type": "Feature", "properties": { "fir": "LFMM", "identifier": null, "subsector_id": null, "name": "LO", "level_lower": "115", "level_upper": "145", "callout_x1": null, "callout_y1": null, "callout_x2": null, "callout_y2": null, "style": 31, "buffer": null }, "geometry": { "type": "Point", "coordinates": [ 5.124297923835495, 46.407242774060322 ] } },
{ "type": "Feature", "properties": { "fir": "LFLC", "identifier": null, "subsector_id": null, "name": "CN1", "level_lower": "0", "level_upper": "145", "callout_x1": null, "callout_y1": null, "callout_x2": null, "callout_y2": null, "style": 30, "buffer": null }, "geometry": { "type": "Point", "coordinates": [ 2.345352106451057, 44.736060499210112 ] } },
{ "type": "Feature", "properties": { "fir": "LFLC", "identifier": null, "subsector_id": null, "name": "CN2", "level_lower": "0", "level_upper": "115", "callout_x1": "1.3516", "callout_y1": "44.1774", "callout_x2": "1.5495", "callout_y2": "44.4009", "style": 30, "buffer": null }, "geometry": { "type": "Point", "coordinates": [ 1.259276763264418, 44.120617065296102 ] } },
{ "type": "Feature", "properties": { "fir": "f", "identifier": null, "subsector_id": null, "name": "AE/AW", "level_lower": "115", "level_upper": "145", "callout_x1": null, "callout_y1": null, "callout_x2": null, "callout_y2": null, "style": 31, "buffer": null }, "geometry": { "type": "Point", "coordinates": [ 1.259276763264418, 44.120617065296102 ] } },
{ "type": "Feature", "properties": { "fir": "LFBB", "identifier": null, "subsector_id": null, "name": "LM", "level_lower": "145", "level_upper": "195", "callout_x1": null, "callout_y1": null, "callout_x2": null, "callout_y2": null, "style": 11, "buffer": null }, "geometry": { "type": "Point", "coordinates": [ 2.345352106451057, 44.736060499210112 ] } },
{ "type": "Feature", "properties": { "fir": "LFBB", "identifier": null, "subsector_id": null, "name": "TG", "level_lower": "145", "level_upper": "195", "callout_x1": null, "callout_y1": null, "callout_x2": null, "callout_y2": null, "style": 50, "buffer": null }, "geometry": { "type": "Point", "coordinates": [ 1.259276763264418, 44.120617065296102 ] } },
{ "type": "Feature", "properties": { "fir": "LFBB", "identifier": null, "subsector_id": null, "name": "LM", "level_lower": "145", "level_upper": "195", "callout_x1": null, "callout_y1": null, "callout_x2": null, "callout_y2": null, "style": 11, "buffer": null }, "geometry": { "type": "Point", "coordinates": [ 3.312706663135513, 45.597869749951265 ] } },
{ "type": "Feature", "properties": { "fir": "LFBB", "identifier": null, "subsector_id": null, "name": "LM", "level_lower": "145", "level_upper": "195", "callout_x1": null, "callout_y1": null, "callout_x2": null, "callout_y2": null, "style": 11, "buffer": null }, "geometry": { "type": "Point", "coordinates": [ 3.488589309805414, 44.94806741033814 ] } }
]
}
