{
"type": "FeatureCollection",
"name": "CCA_LFBO_AE_Labels",
"crs": { "type": "name", "properties": { "name": "urn:ogc:def:crs:OGC:1.3:CRS84" } },
"features": [
{ "type": "Feature", "properties": { "fir": "LFBB", "identifier": "LFBB:TOULOUSE AE:000-145", "subsector_id": "", "name": "AE", "level_lower": 0, "level_upper": 145, "callout_x1": null, "callout_y1": null, "callout_x2": null, "callout_y2": null, "style": 10, "buffer": null }, "geometry": { "type": "Point", "coordinates": [ 1.916098086960871, 42.740674817166756 ] } },
{ "type": "Feature", "properties": { "fir": "LFBB", "identifier": "LFBB:TOULOUSE AE:020-075", "subsector_id": "", "name": "AE", "level_lower": 0, "level_upper": 145, "callout_x1": null, "callout_y1": null, "callout_x2": null, "callout_y2": null, "style": 10, "buffer": null }, "geometry": { "type": "Point", "coordinates": [ 1.522501245223903, 43.958067607858482 ] } },
{ "type": "Feature", "properties": { "fir": "LFBB", "identifier": "LFBB:TOULOUSE AE:075-145", "subsector_id": "", "name": "EB", "level_lower": 0, "level_upper": 75, "callout_x1": null, "callout_y1": null, "callout_x2": null, "callout_y2": null, "style": 10, "buffer": null }, "geometry": { "type": "Point", "coordinates": [ 2.301138475616601, 43.698812017197042 ] } },
{ "type": "Feature", "properties": { "fir": "LFBB", "identifier": "LFBB:TOULOUSE AE:115-145", "subsector_id": "", "name": "AE", "level_lower": 115, "level_upper": 145, "callout_x1": null, "callout_y1": null, "callout_x2": null, "callout_y2": null, "style": 11, "buffer": null }, "geometry": { "type": "Point", "coordinates": [ 2.329659985887395, 42.688284858745924 ] } },
{ "type": "Feature", "properties": { "fir": "LFMM", "identifier": "FA3", "subsector_id": "FA3", "name": "FA3", "level_lower": 0, "level_upper": 115, "callout_x1": null, "callout_y1": null, "callout_x2": null, "callout_y2": null, "style": 10, "buffer": null }, "geometry": { "type": "Point", "coordinates": [ 2.329659985887395, 42.688284858745924 ] } },
{ "type": "Feature", "properties": { "fir": "LFBB", "identifier": "AE", "subsector_id": "AE", "name": "AE", "level_lower": 75, "level_upper": 145, "callout_x1": null, "callout_y1": null, "callout_x2": null, "callout_y2": null, "style": 11, "buffer": null }, "geometry": { "type": "Point", "coordinates": [ 2.301138475616601, 43.698812017197042 ] } },
{ "type": "Feature", "properties": { "fir": "LFMM", "identifier": "CN2", "subsector_id": "CN2", "name": "CN2", "level_lower": 0, "level_upper": 115, "callout_x1": "1.8091", "callout_y1": "44.5088", "callout_x2": "1.6066", "callout_y2": "44.3948", "style": 10, "buffer": null }, "geometry": { "type": "Point", "coordinates": [ 1.86475936847344, 44.582998737964687 ] } },
{ "type": "Feature", "properties": { "fir": "LFBB", "identifier": "AE", "subsector_id": "AE", "name": "AE", "level_lower": 115, "level_upper": 145, "callout_x1": null, "callout_y1": null, "callout_x2": null, "callout_y2": null, "style": 11, "buffer": null }, "geometry": { "type": "Point", "coordinates": [ 1.86475936847344, 44.582998737964687 ] } },
{ "type": "Feature", "properties": { "fir": "LFBB", "identifier": "PY", "subsector_id": "PY", "name": "PY", "level_lower": 0, "level_upper": 145, "callout_x1": null, "callout_y1": null, "callout_x2": null, "callout_y2": null, "style": 20, "buffer": null }, "geometry": { "type": "Point", "coordinates": [ 0.612665067585548, 43.49018306481144 ] } },
{ "type": "Feature", "properties": { "fir": "LFBB", "identifier": "MARSAN", "subsector_id": "MARSAN", "name": "MARSAN", "level_lower": 0, "level_upper": 195, "callout_x1": null, "callout_y1": null, "callout_x2": null, "callout_y2": null, "style": 20, "buffer": null }, "geometry": { "type": "Point", "coordinates": [ 0.290372001525567, 44.007321941105104 ] } },
{ "type": "Feature", "properties": { "fir": "LFBB", "identifier": "BE", "subsector_id": "BE", "name": "BE", "level_lower": 0, "level_upper": 145, "callout_x1": null, "callout_y1": null, "callout_x2": null, "callout_y2": null, "style": 20, "buffer": null }, "geometry": { "type": "Point", "coordinates": [ 0.270406944336011, 44.434517414570792 ] } },
{ "type": "Feature", "properties": { "fir": "LFMM", "identifier": "CN1", "subsector_id": "CN1", "name": "CN1", "level_lower": 0, "level_upper": 145, "callout_x1": null, "callout_y1": null, "callout_x2": null, "callout_y2": null, "style": 20, "buffer": null }, "geometry": { "type": "Point", "coordinates": [ 2.172791679398024, 44.436553960498905 ] } },
{ "type": "Feature", "properties": { "fir": "LFMM", "identifier": "FE1", "subsector_id": "FE1", "name": "FE1", "level_lower": 0, "level_upper": 145, "callout_x1": null, "callout_y1": null, "callout_x2": null, "callout_y2": null, "style": 20, "buffer": null }, "geometry": { "type": "Point", "coordinates": [ 2.988506873142756, 43.877942164929905 ] } },
{ "type": "Feature", "properties": { "fir": "LFMM", "identifier": "FA1", "subsector_id": "FA1", "name": "FA1", "level_lower": 0, "level_upper": 145, "callout_x1": null, "callout_y1": null, "callout_x2": null, "callout_y2": null, "style": 20, "buffer": null }, "geometry": { "type": "Point", "coordinates": [ 2.888681587194974, 43.454996189913103 ] } },
{ "type": "Feature", "properties": { "fir": "LFBB", "identifier": "EB", "subsector_id": "EB", "name": "EB", "level_lower": 0, "level_upper": 75, "callout_x1": "2.6833", "callout_y1": "43.0895", "callout_x2": "2.5635", "callout_y2": "43.1811", "style": 10, "buffer": null }, "geometry": { "type": "Point", "coordinates": [ 2.74322188481392, 43.047832913852957 ] } },
{ "type": "Feature", "properties": { "fir": "LFMM", "identifier": "FA2", "subsector_id": "FA2", "name": "FA2", "level_lower": 75, "level_upper": 115, "callout_x1": null, "callout_y1": null, "callout_x2": null, "callout_y2": null, "style": 11, "buffer": null }, "geometry": { "type": "Point", "coordinates": [ 2.74322188481392, 43.047832913852957 ] } },
{ "type": "Feature", "properties": { "fir": "LECB", "identifier": "BL1", "subsector_id": "BL1", "name": "BL1", "level_lower": 0, "level_upper": 195, "callout_x1": null, "callout_y1": null, "callout_x2": null, "callout_y2": null, "style": 20, "buffer": null }, "geometry": { "type": "Point", "coordinates": [ 2.252651908156249, 42.358265270410485 ] } },
{ "type": "Feature", "properties": { "fir": "LECB", "identifier": "NW4", "subsector_id": "NW4", "name": "NW4", "level_lower": 0, "level_upper": 195, "callout_x1": null, "callout_y1": null, "callout_x2": null, "callout_y2": null, "style": 20, "buffer": null }, "geometry": { "type": "Point", "coordinates": [ 1.069009231918265, 42.656829655812807 ] } }
]
}
