{
"type": "FeatureCollection",
"name": "CCA_Overview_Labels",
"crs": { "type": "name", "properties": { "name": "urn:ogc:def:crs:OGC:1.3:CRS84" } },
"xy_coordinate_resolution": 1e-15,
"features": [
{ "type": "Feature", "properties": { "fir": "LFKJ", "identifier": null, "subsector_id": null, "name": "AJACCIO", "level_lower": "0", "level_upper": "145", "callout_x1": null, "callout_y1": null, "callout_x2": null, "callout_y2": null, "style": 10, "buffer": null }, "geometry": { "type": "Point", "coordinates": [ 8.783941928026945, 41.804360527811674 ] } },
{ "type": "Feature", "properties": { "fir": "LFKB", "identifier": null, "subsector_id": null, "name": "BASTIA", "level_lower": null, "level_upper": null, "callout_x1": null, "callout_y1": null, "callout_x2": null, "callout_y2": null, "style": 10, "buffer": null }, "geometry": { "type": "Point", "coordinates": [ 9.171834467709754, 42.699463954224626 ] } },
{ "type": "Feature", "properties": { "fir": "LFMN", "identifier": null, "subsector_id": null, "name": "NICE", "level_lower": null, "level_upper": null, "callout_x1": null, "callout_y1": null, "callout_x2": null, "callout_y2": null, "style": 10, "buffer": null }, "geometry": { "type": "Point", "coordinates": [ 7.306527695999774, 43.33340851948995 ] } },
{ "type": "Feature", "properties": { "fir": "LFML", "identifier": null, "subsector_id": null, "name": "PROVENCE", "level_lower": null, "level_upper": null, "callout_x1": null, "callout_y1": null, "callout_x2": null, "callout_y2": null, "style": 10, "buffer": null }, "geometry": { "type": "Point", "coordinates": [ 5.298256854057433, 43.167302288430314 ] } },
{ "type": "Feature", "properties": { "fir": "LFMT", "identifier": null, "subsector_id": null, "name": "MONTPELLIER", "level_lower": null, "level_upper": null, "callout_x1": null, "callout_y1": null, "callout_x2": null, "callout_y2": null, "style": 10, "buffer": null }, "geometry": { "type": "Point", "coordinates": [ 3.734327374208851, 43.439723797748847 ] } },
{ "type": "Feature", "properties": { "fir": "LFLC", "identifier": null, "subsector_id": null, "name": "CLERMONT-FERRAND", "level_lower": null, "level_upper": null, "callout_x1": null, "callout_y1": null, "callout_x2": null, "callout_y2": null, "style": 10, "buffer": null }, "geometry": { "type": "Point", "coordinates": [ 3.651139635919034, 45.113207384133766 ] } },
{ "type": "Feature", "properties": { "fir": "LFLL", "identifier": null, "subsector_id": null, "name": "LYON", "level_lower": null, "level_upper": null, "callout_x1": null, "callout_y1": null, "callout_x2": null, "callout_y2": null, "style": 10, "buffer": null }, "geometry": { "type": "Point", "coordinates": [ 5.042188888888889, 45.564655555555554 ] } },
{ "type": "Feature", "properties": { "fir": "LFLB", "identifier": null, "subsector_id": null, "name": "CHAMBERY", "level_lower": null, "level_upper": null, "callout_x1": "5.9546", "callout_y1": "46.2788", "callout_x2": "5.8234", "callout_y2": "45.7838", "style": 10, "buffer": null }, "geometry": { "type": "Point", "coordinates": [ 6.159962983113823, 46.322139881180377 ] } }
]
}
