{
"type": "FeatureCollection",
"name": "CCA_LFRR_WS_Labels",
"crs": { "type": "name", "properties": { "name": "urn:ogc:def:crs:OGC:1.3:CRS84" } },
"features": [
{ "type": "Feature", "properties": { "fir": "LFRR", "identifier": "WS1", "subsector_id": "WS1", "name": "WS1", "level_lower": 0, "level_upper": 55, "callout_x1": null, "callout_y1": null, "callout_x2": null, "callout_y2": null, "style": 30, "buffer": null }, "geometry": { "type": "Point", "coordinates": [ -6.762407004049634, 48.135041406454704 ] } },
{ "type": "Feature", "properties": { "fir": "LFRR", "identifier": "WS2", "subsector_id": "WS2", "name": "WS2", "level_lower": 55, "level_upper": 195, "callout_x1": null, "callout_y1": null, "callout_x2": null, "callout_y2": null, "style": 31, "buffer": null }, "geometry": { "type": "Point", "coordinates": [ -6.762407004049634, 48.135041406454704 ] } }
]
}
