{
"type": "FeatureCollection",
"name": "CCA_LFRR_N_Labels",
"crs": { "type": "name", "properties": { "name": "urn:ogc:def:crs:OGC:1.3:CRS84" } },
"features": [
{ "type": "Feature", "properties": { "fir": "LFRR", "identifier": "NS", "subsector_id": "NS", "name": "NS", "level_lower": 195, "level_upper": 325, "callout_x1": null, "callout_y1": null, "callout_x2": null, "callout_y2": null, "style": 30, "buffer": null }, "geometry": { "type": "Point", "coordinates": [ -1.654837562999505, 47.225693055555553 ] } },
{ "type": "Feature", "properties": { "fir": "LFRR", "identifier": "NF", "subsector_id": "NF", "name": "NF", "level_lower": 325, "level_upper": 355, "callout_x1": null, "callout_y1": null, "callout_x2": null, "callout_y2": null, "style": 31, "buffer": null }, "geometry": { "type": "Point", "coordinates": [ -1.654837562999505, 47.225693055555553 ] } },
{ "type": "Feature", "properties": { "fir": "LFRR", "identifier": "NI", "subsector_id": "NI", "name": "NI", "level_lower": 355, "level_upper": 375, "callout_x1": null, "callout_y1": null, "callout_x2": null, "callout_y2": null, "style": 32, "buffer": null }, "geometry": { "type": "Point", "coordinates": [ -1.654837562999505, 47.225693055555553 ] } },
{ "type": "Feature", "properties": { "fir": "LFRR", "identifier": "NU", "subsector_id": "NU", "name": "NU", "level_lower": 375, "level_upper": 660, "callout_x1": null, "callout_y1": null, "callout_x2": null, "callout_y2": null, "style": 33, "buffer": null }, "geometry": { "type": "Point", "coordinates": [ -1.654837562999505, 47.225693055555553 ] } }
]
}
