{
"type": "FeatureCollection",
"name": "CCA_LFRR_K_Labels",
"crs": { "type": "name", "properties": { "name": "urn:ogc:def:crs:OGC:1.3:CRS84" } },
"features": [
{ "type": "Feature", "properties": { "fir": "LFRR", "identifier": "KS", "subsector_id": "KS", "name": "KS", "level_lower": 195, "level_upper": 355, "callout_x1": null, "callout_y1": null, "callout_x2": null, "callout_y2": null, "style": 30, "buffer": null }, "geometry": { "type": "Point", "coordinates": [ -3.557747935967049, 47.992262306703857 ] } },
{ "type": "Feature", "properties": { "fir": "LFRR", "identifier": "KI", "subsector_id": "KI", "name": "KI", "level_lower": 355, "level_upper": 375, "callout_x1": null, "callout_y1": null, "callout_x2": null, "callout_y2": null, "style": 31, "buffer": null }, "geometry": { "type": "Point", "coordinates": [ -3.557747935967049, 47.992262306703857 ] } },
{ "type": "Feature", "properties": { "fir": "LFRR", "identifier": "KU", "subsector_id": "KU", "name": "KU", "level_lower": 375, "level_upper": 660, "callout_x1": null, "callout_y1": null, "callout_x2": null, "callout_y2": null, "style": 32, "buffer": null }, "geometry": { "type": "Point", "coordinates": [ -3.557747935967049, 47.992262306703857 ] } }
]
}
