{
"type": "FeatureCollection",
"name": "CCA_LFRR_Q_Labels",
"crs": { "type": "name", "properties": { "name": "urn:ogc:def:crs:OGC:1.3:CRS84" } },
"features": [
{ "type": "Feature", "properties": { "fir": "LFRR", "identifier": "QS", "subsector_id": "QS", "name": "QS", "level_lower": 295, "level_upper": 345, "callout_x1": "-0.4576", "callout_y1": "50.2119", "callout_x2": "0.1424", "callout_y2": "49.5440", "style": 30, "buffer": null }, "geometry": { "type": "Point", "coordinates": [ -0.648553888345979, 50.42668356229732 ] } },
{ "type": "Feature", "properties": { "fir": "LFRR", "identifier": "QI", "subsector_id": "QI", "name": "QI", "level_lower": 345, "level_upper": 365, "callout_x1": null, "callout_y1": null, "callout_x2": null, "callout_y2": null, "style": 31, "buffer": null }, "geometry": { "type": "Point", "coordinates": [ -0.648553888345979, 50.42668356229732 ] } },
{ "type": "Feature", "properties": { "fir": "LFRR", "identifier": "QU", "subsector_id": "QU", "name": "QU", "level_lower": 365, "level_upper": 660, "callout_x1": null, "callout_y1": null, "callout_x2": null, "callout_y2": null, "style": 32, "buffer": null }, "geometry": { "type": "Point", "coordinates": [ -0.648553888345979, 50.42668356229732 ] } }
]
}
