{
"type": "FeatureCollection",
"name": "CCA_LFRR_Nantes_Labels",
"crs": { "type": "name", "properties": { "name": "urn:ogc:def:crs:OGC:1.3:CRS84" } },
"features": [
{ "type": "Feature", "properties": { "fir": "LFRR", "identifier": "LFRR:NANTES LU", "subsector_id": "", "name": "NANTES", "level_lower": 115, "level_upper": 195, "callout_x1": null, "callout_y1": null, "callout_x2": null, "callout_y2": null, "style": 10, "buffer": null }, "geometry": { "type": "Point", "coordinates": [ -1.144025999581442, 47.198346687550028 ] } }
]
}
