{
"type": "FeatureCollection",
"name": "CCR_LFRR_ACC_Adjacent_Labels",
"crs": { "type": "name", "properties": { "name": "urn:ogc:def:crs:OGC:1.3:CRS84" } },
"xy_coordinate_resolution": 1e-15,
"features": [
{ "type": "Feature", "properties": { "fir": "LFRR", "identifier": null, "subsector_id": null, "name": "BORDEAUX ACC (LFBB)", "level_lower": null, "level_upper": null, "callout_x1": null, "callout_y1": null, "callout_x2": null, "callout_y2": null, "style": 20, "buffer": null }, "geometry": { "type": "Point", "coordinates": [ 1.692438196849101, 45.517013386571413 ] } },
{ "type": "Feature", "properties": { "fir": "LFFF", "identifier": null, "subsector_id": null, "name": "PARIS ACC (LFFF)", "level_lower": null, "level_upper": null, "callout_x1": null, "callout_y1": null, "callout_x2": null, "callout_y2": null, "style": 20, "buffer": null }, "geometry": { "type": "Point", "coordinates": [ 2.144726958940189, 49.187338848223391 ] } },
{ "type": "Feature", "properties": { "fir": "LFMM", "identifier": null, "subsector_id": null, "name": "LONDON ACC (EGTT)", "level_lower": null, "level_upper": null, "callout_x1": null, "callout_y1": null, "callout_x2": null, "callout_y2": null, "style": 20, "buffer": null }, "geometry": { "type": "Point", "coordinates": [ -4.544146542738567, 49.764755777896539 ] } },
{ "type": "Feature", "properties": { "fir": "LECM", "identifier": null, "subsector_id": null, "name": "MADRID ACC (LECM)", "level_lower": null, "level_upper": null, "callout_x1": null, "callout_y1": null, "callout_x2": null, "callout_y2": null, "style": 20, "buffer": null }, "geometry": { "type": "Point", "coordinates": [ -5.444178451221337, 44.065462183012656 ] } },
{ "type": "Feature", "properties": { "fir": "LECB", "identifier": null, "subsector_id": null, "name": "SHANWICK OCA (EGGX)", "level_lower": null, "level_upper": null, "callout_x1": null, "callout_y1": null, "callout_x2": null, "callout_y2": null, "style": 20, "buffer": null }, "geometry": { "type": "Point", "coordinates": [ -8.971576233961883, 46.801535754099795 ] } },
{ "type": "Feature", "properties": { "fir": "EISN", "identifier": null, "subsector_id": null, "name": "SHANNON ACC (EISN)", "level_lower": null, "level_upper": null, "callout_x1": null, "callout_y1": null, "callout_x2": null, "callout_y2": null, "style": 20, "buffer": null }, "geometry": { "type": "Point", "coordinates": [ -8.47610412272642, 48.860948736136542 ] } }
]
}
