{
"type": "FeatureCollection",
"name": "VATSPY_FIR_Boundaries",
"crs": { "type": "name", "properties": { "name": "urn:ogc:def:crs:OGC:1.3:CRS84" } },
"features": [
{ "type": "Feature", "properties": { "id": "DAAA", "oceanic": "0", "label_lon": "1.666666", "label_lat": "28.975", "region": "EMEA", "division": "VATMENA" }, "geometry": { "type": "MultiLineString", "coordinates": [ [ [ 8.0, 39.0 ], [ 8.65, 36.933333 ], [ 8.616667, 36.916667 ], [ 8.616667, 36.816667 ], [ 8.416667, 36.75 ], [ 8.466667, 36.683333 ], [ 8.133333, 36.5 ], [ 8.133333, 36.45 ], [ 8.366667, 36.416667 ], [ 8.3, 36.166667 ], [ 8.25, 35.733333 ], [ 8.316667, 35.666667 ], [ 8.35, 35.483333 ], [ 8.3, 35.383333 ], [ 8.3, 35.266667 ], [ 8.416667, 35.216667 ], [ 8.25, 34.916667 ], [ 8.283333, 34.733333 ], [ 8.233333, 34.7 ], [ 8.233333, 34.633333 ], [ 7.833333, 34.416667 ], [ 7.783333, 34.216667 ], [ 7.633333, 34.216667 ], [ 7.516667, 34.05 ], [ 7.516667, 33.8 ], [ 7.6, 33.6 ], [ 7.733333, 33.433333 ], [ 7.733333, 33.25 ], [ 7.8, 33.15 ], [ 7.9, 33.15 ], [ 8.05, 33.083333 ], [ 8.116667, 33.083333 ], [ 8.333333, 32.816667 ], [ 8.3, 32.816667 ], [ 9.066667, 32.1 ], [ 9.583333, 30.233333 ], [ 9.416667, 30.166667 ], [ 9.416667, 30.066667 ], [ 9.55, 29.916667 ], [ 9.8, 29.416667 ], [ 9.933333, 28.966667 ], [ 9.865203, 28.331858 ], [ 9.967189, 27.868592 ], [ 9.8, 27.266667 ], [ 9.93385, 26.851986 ], [ 9.93385, 26.535336 ], [ 9.533828, 26.368681 ], [ 9.383333, 26.183333 ], [ 10.033847, 25.335408 ], [ 10.033333, 24.883333 ], [ 10.2, 24.783333 ], [ 10.233333, 24.616667 ], [ 10.483333, 24.483333 ], [ 10.683872, 24.568789 ], [ 11.000553, 24.468794 ], [ 11.433906, 24.185478 ], [ 11.600581, 24.252142 ], [ 11.982572, 23.523775 ], [ 11.5, 23.254167 ], [ 9.983333, 22.366667 ], [ 7.366667, 20.8 ], [ 5.816667, 19.4375 ], [ 5.5, 19.383333 ], [ 3.333333, 18.95 ], [ 3.116667, 19.15 ], [ 3.25, 19.366667 ], [ 3.216667, 19.833333 ], [ 2.9, 19.966667 ], [ 2.458333, 20.041667 ], [ 2.2, 20.3 ], [ 2.116667, 20.233333 ], [ 1.95, 20.241667 ], [ 1.683333, 20.383333 ], [ 1.65, 20.566667 ], [ 1.183333, 20.75 ], [ 1.166667, 21.119444 ], [ 0.0, 21.8375 ], [ -0.013333, 21.910833 ], [ -3.582997, 24.165381 ], [ -8.666615, 27.333301 ], [ -8.666667, 27.666667 ], [ -8.666667, 28.666667 ], [ -2.666667, 31.833333 ], [ -2.966667, 32.0 ], [ -2.933333, 32.083333 ], [ -2.833333, 32.133333 ], [ -2.316667, 32.2 ], [ -1.433333, 32.15 ], [ -1.25, 32.116667 ], [ -1.216667, 32.15 ], [ -1.266667, 32.216667 ], [ -1.266667, 32.3 ], [ -1.216667, 32.4 ], [ -1.033333, 32.516667 ], [ -1.4, 32.716667 ], [ -1.583333, 32.966667 ], [ -1.5, 33.0 ], [ -1.5, 33.05 ], [ -1.7, 33.266667 ], [ -1.633333, 33.6 ], [ -1.75, 33.683333 ], [ -1.683333, 34.1 ], [ -1.8, 34.4 ], [ -1.716667, 34.483333 ], [ -1.866667, 34.616667 ], [ -1.783333, 34.75 ], [ -2.216667, 35.033333 ], [ -2.2, 35.083333 ], [ -2.1, 35.833333 ], [ -1.5, 36.25 ], [ 3.75, 38.333333 ], [ 4.666667, 39.0 ], [ 8.0, 39.0 ] ] ] } },
{ "type": "Feature", "properties": { "id": "EBBU", "oceanic": "0", "label_lon": "4.544189", "label_lat": "50.652284", "region": "EMEA", "division": "VATEUD" }, "geometry": { "type": "MultiLineString", "coordinates": [ [ [ 2.0, 51.116667 ], [ 2.0, 51.5 ], [ 2.5, 51.455556 ], [ 2.5, 51.636944 ], [ 3.174634, 51.48077 ], [ 3.407752, 51.427043 ], [ 4.119632, 51.270635 ], [ 4.171264, 51.29444 ], [ 4.242285, 51.354139 ], [ 4.215737, 51.373414 ], [ 4.333359, 51.376891 ], [ 4.341724, 51.359342 ], [ 4.410684, 51.357945 ], [ 4.429878, 51.374101 ], [ 4.386111, 51.42157 ], [ 4.3939, 51.450292 ], [ 4.464417, 51.474428 ], [ 4.544285, 51.479394 ], [ 4.531297, 51.451226 ], [ 4.541548, 51.424427 ], [ 4.581384, 51.434144 ], [ 4.645202, 51.424154 ], [ 4.676607, 51.427999 ], [ 4.672904, 51.446223 ], [ 4.776225, 51.506268 ], [ 4.814808, 51.5005 ], [ 4.840806, 51.483067 ], [ 4.827079, 51.451252 ], [ 4.824371, 51.424683 ], [ 4.771444, 51.432339 ], [ 4.766172, 51.417097 ], [ 4.793388, 51.409592 ], [ 4.893324, 51.417591 ], [ 4.932073, 51.400302 ], [ 5.010822, 51.454827 ], [ 5.009672, 51.473693 ], [ 5.03865, 51.486865 ], [ 5.046162, 51.473357 ], [ 5.079288, 51.471347 ], [ 5.103638, 51.432226 ], [ 5.070707, 51.395073 ], [ 5.13185, 51.349289 ], [ 5.134293, 51.317429 ], [ 5.164855, 51.312504 ], [ 5.201314, 51.323779 ], [ 5.242276, 51.307545 ], [ 5.228333, 51.271302 ], [ 5.240134, 51.263483 ], [ 5.342142, 51.265693 ], [ 5.349655, 51.276999 ], [ 5.421597, 51.265778 ], [ 5.489936, 51.30258 ], [ 5.519031, 51.298187 ], [ 5.561363, 51.268131 ], [ 5.564311, 51.225936 ], [ 5.656595, 51.20243 ], [ 5.664731, 51.189414 ], [ 5.769328, 51.182955 ], [ 5.778784, 51.156051 ], [ 5.826854, 51.167639 ], [ 5.850769, 51.145827 ], [ 5.810443, 51.117908 ], [ 5.830822, 51.106072 ], [ 5.820461, 51.093687 ], [ 5.796173, 51.089223 ], [ 5.800741, 51.061229 ], [ 5.778476, 51.062349 ], [ 5.757625, 51.033491 ], [ 5.775554, 51.023759 ], [ 5.762429, 50.995445 ], [ 5.738097, 50.977596 ], [ 5.721562, 50.960763 ], [ 5.73053, 50.955047 ], [ 5.746789, 50.960498 ], [ 5.757817, 50.949841 ], [ 5.738208, 50.932926 ], [ 5.720584, 50.908414 ], [ 5.697345, 50.904685 ], [ 5.680088, 50.879692 ], [ 5.646154, 50.870005 ], [ 5.650999, 50.825988 ], [ 5.700275, 50.805664 ], [ 5.70289, 50.777584 ], [ 5.686187, 50.75629 ], [ 5.739843, 50.758699 ], [ 5.775206, 50.781252 ], [ 5.812951, 50.753805 ], [ 5.887087, 50.765932 ], [ 5.900983, 50.75136 ], [ 5.960435, 50.759521 ], [ 6.021158, 50.754494 ], [ 6.050031, 50.722338 ], [ 6.118845, 50.718318 ], [ 6.166667, 50.666667 ], [ 6.193006, 50.626964 ], [ 6.277031, 50.623311 ], [ 6.25, 50.583333 ], [ 6.2, 50.55 ], [ 6.25, 50.483333 ], [ 6.35, 50.466667 ], [ 6.383333, 50.433333 ], [ 6.408333, 50.333333 ], [ 6.3, 50.316667 ], [ 6.15, 50.15 ], [ 6.133333, 50.05 ], [ 6.333333, 49.85 ], [ 6.516667, 49.816667 ], [ 6.5, 49.75 ], [ 6.383333, 49.6 ], [ 6.35, 49.466667 ], [ 6.349989682854937, 49.45227929742213 ] ] ] } },
{ "type": "Feature", "properties": { "id": "EDGG", "oceanic": "0", "label_lon": "8.25", "label_lat": "50.28", "region": "EMEA", "division": "VATEUD" }, "geometry": { "type": "MultiLineString", "coordinates": [ [ [ 7.57, 48.083056 ], [ 7.966667, 48.1 ], [ 8.212656, 48.148545 ], [ 8.321389, 48.17 ], [ 8.680556, 48.168889 ], [ 8.882778, 48.166667 ], [ 9.107778, 48.166667 ], [ 9.55, 48.166667 ], [ 9.55, 48.527778 ], [ 9.624444, 48.621389 ], [ 9.776389, 48.810556 ], [ 10.096944, 48.948611 ], [ 10.479167, 49.111111 ], [ 10.587778, 49.178611 ], [ 10.966667, 49.441667 ], [ 10.288889, 50.226944 ], [ 10.521667, 50.5 ], [ 10.564167, 50.537222 ], [ 10.702778, 50.6575 ], [ 10.492778, 51.333333 ], [ 10.3875, 51.333889 ], [ 8.906646, 51.332582 ], [ 8.865098, 51.884137 ], [ 8.576914, 51.893736 ], [ 8.517151, 52.29197 ], [ 8.399648, 52.325799 ], [ 7.998278, 52.280524 ], [ 7.064294, 52.237526 ], [ 7.037551, 52.226687 ], [ 6.99835, 52.227759 ], [ 6.980289, 52.215306 ] ] ] } },
{ "type": "Feature", "properties": { "id": "EGGX", "oceanic": "0", "label_lon": "-22.5", "label_lat": "53.0", "region": "EMEA", "division": "VATUK" }, "geometry": { "type": "MultiLineString", "coordinates": [ [ [ -30.0, 61.0 ], [ -10.0, 61.0 ], [ -10.0, 57.0 ], [ -15.0, 57.0 ], [ -15.0, 49.0 ], [ -8.0, 48.493611 ], [ -8.0, 45.0 ], [ -30.0, 45.0 ], [ -30.0, 61.0 ] ] ] } },
{ "type": "Feature", "properties": { "id": "EGTT", "oceanic": "0", "label_lon": "-1.5", "label_lat": "51.916667", "region": "EMEA", "division": "VATUK" }, "geometry": { "type": "MultiLineString", "coordinates": [ [ [ -1.9338786111111, 54.943971111110997 ], [ -2.0083333333333, 55.035833333333002 ], [ -2.0055555555556, 55.0625 ], [ -1.5188888888889, 55.192777777777998 ], [ -1.3630555555556, 55.227222222221997 ], [ -1.3606622222222, 55.226616944443997 ], [ -1.333235, 55.209465 ], [ -1.3085208333333, 55.191008611111002 ], [ -1.2867077777778, 55.171388888888998 ], [ -1.2679619444444, 55.150753333333 ], [ -1.2524261111111, 55.129260277778002 ], [ -1.2402180555556, 55.107073333332998 ], [ -1.2314311111111, 55.084361111111001 ], [ -1.2243613888889, 55.038055555555999 ], [ -1.2266666666667, 55.030277777777997 ], [ -1.5583333333333, 54.836111111111002 ], [ -1.5724772222222, 54.7864475 ], [ -1.6580555555556, 54.526388888889002 ], [ -1.2725, 54.705277777778001 ], [ -1.2432947222222, 54.696955833333 ], [ -1.2158122222222, 54.686821944443999 ], [ -1.1899555555556, 54.675336111111001 ], [ -1.1659213888889, 54.662585555555999 ], [ -1.1438930555556, 54.6486675 ], [ -1.1240377777778, 54.633687777778 ], [ -1.1065066666667, 54.617760277777997 ], [ -1.0914336111111, 54.601006388888997 ], [ -1.0794444444444, 54.582222222222001 ], [ -1.4136111111111, 54.404722222221999 ], [ -1.5166666666667, 54.380833333333001 ], [ -1.2833161111111, 54.265894166667003 ], [ -0.74873472222222, 54.433189444443997 ], [ -0.28669444444444, 54.029305555556 ], [ 0.10055555555556, 54.029166666667003 ], [ 0.45527777777778, 54.028055555556001 ], [ 2.6683333333333, 53.383888888888997 ], [ 2.7333333333333, 53.303611111111003 ], [ 3.0, 53.268888888889002 ], [ 3.1838888888889, 53.244722222222002 ], [ 3.3661111111111, 53.174722222222002 ], [ 2.89925, 52.617736111111 ], [ 2.7788888888889, 52.471944444443999 ], [ 2.7102777777778, 52.388611111110997 ], [ 2.6438888888889, 52.307222222222002 ], [ 2.4880555555556, 52.114722222221999 ], [ 2.3579611111111, 51.952697222222 ], [ 2.6669083333333, 51.974172222222002 ], [ 3.1718361111111, 52.007513888889001 ], [ 3.1718361111111, 51.965677777777998 ], [ 3.1718361111111, 51.480602777778003 ], [ 2.6669083333333, 51.598477777778001 ], [ 2.5, 51.636830555556003 ], [ 2.5, 51.455588888888997 ], [ 2.0, 51.5 ], [ 2.0, 51.383333333332999 ], [ 2.0, 51.116666666667001 ], [ 1.825, 51.079166666667 ], [ 1.7625, 51.065 ], [ 1.4666666666667, 51.0 ], [ 1.465, 50.905277777777997 ], [ 1.454722222222222, 50.662222222222219 ], [ 0.76972222222222, 50.401388888889002 ], [ 0.76972222222222, 50.401388888889002 ], [ -0.25, 50.0 ], [ -0.53333333333333, 50.0 ], [ -1.1580555555556, 50.0 ], [ -1.7169444444444, 50.0 ], [ -1.7833333333333, 50.0 ], [ -2.0, 50.0 ], [ -3.0, 49.830833333332997 ], [ -3.1712066666667, 49.797341388889002 ], [ -4.1605555555556, 49.621944444443997 ], [ -4.45, 49.566666666666997 ], [ -4.9163888888889, 49.478055555555997 ], [ -7.579444444444444, 48.93611111111111 ], [ -8.0, 48.833333 ], [ -8.0, 49.583333333333002 ], [ -8.0, 51.0 ], [ -7.2308333333333, 51.424444444443999 ], [ -6.1222222222222, 52.013611111110997 ], [ -5.8422222222222, 52.158611111111 ], [ -5.5007022222222, 52.333518055555999 ], [ -5.5, 52.773333333332999 ], [ -5.5, 52.951388888888999 ], [ -5.5, 53.196666666666999 ], [ -5.5, 53.398055555555999 ], [ -5.5, 53.813055555555998 ], [ -5.1641666666667, 53.803611111111003 ], [ -5.1113888888889, 54.0275 ], [ -5.0525, 54.051111111110998 ], [ -5.0516472222222, 54.061440833333002 ], [ -5.0482472222222, 54.073651388888997 ], [ -5.0444444444444, 54.081944444443998 ], [ -5.1688888888889, 54.133055555555998 ], [ -5.0058333333333, 54.269166666666997 ], [ -4.8127777777778, 54.189444444444 ], [ -4.4452777777778, 54.238055555556002 ], [ -4.4225466666667, 54.240355833332998 ], [ -4.4015013888889, 54.241326944443998 ], [ -4.3803911111111, 54.241218888889001 ], [ -4.3593780555556, 54.2400325 ], [ -4.3387430555556, 54.237776666667003 ], [ -4.3182886111111, 54.234692222222002 ], [ -4.2985277777778, 54.230134722221997 ], [ -4.2794927777778, 54.224807222221997 ], [ -4.2611111111111, 54.218333333333 ], [ -3.5930555555556, 54.502777777778 ], [ -3.5513888888889, 54.25 ], [ -3.0830619444444, 54.25 ], [ -2.1666666666667, 54.25 ], [ -1.9338786111111, 54.943971111110997 ] ] ] } },
{ "type": "Feature", "properties": { "id": "EISN", "oceanic": "0", "label_lon": "-11", "label_lat": "53", "region": "EMEA", "division": "VATEUD" }, "geometry": { "type": "MultiLineString", "coordinates": [ [ [ -15.0, 57.0 ], [ -10.0, 57.0 ], [ -10.0, 56.584722222221998 ], [ -9.999999992273182, 54.566666668083577 ], [ -9.0, 54.75 ], [ -8.25, 55.333333333333002 ], [ -7.791487482853224, 55.375016289437582 ], [ -7.333333333333333, 55.416666666666664 ], [ -7.125, 55.375 ], [ -6.916666666667032, 55.333333333333066 ], [ -6.916667034869612, 55.333333063317532 ], [ -7.092704722222222, 55.204238611111116 ], [ -7.244735, 55.092749722222223 ], [ -7.488205, 54.914205 ], [ -7.555547222222222, 54.864820833333333 ], [ -8.166666666666311, 54.416666666666927 ], [ -6.77566, 54.15596 ], [ -5.5, 53.916666666666998 ], [ -5.5007022222222, 52.333518055555999 ], [ -6.122222222182352, 52.013611111131631 ], [ -7.2308333333333, 51.424444444443999 ], [ -7.517281608204674, 51.266375479473616 ], [ -8.0, 51.0 ], [ -8.0, 49.583333333333002 ], [ -8.0, 48.833333 ], [ -8.0, 48.493611 ], [ -15.0, 49.0 ], [ -15.0, 57.0 ] ] ] } },
{ "type": "Feature", "properties": { "id": "LECB", "oceanic": "0", "label_lon": "1.45", "label_lat": "40.3", "region": "EMEA", "division": "VATEUD" }, "geometry": { "type": "MultiLineString", "coordinates": [ [ [ 4.666667, 39.0 ], [ 3.75, 38.333333 ], [ -1.00702, 36.448075 ], [ -1.498889, 36.637778 ], [ -1.774958, 37.119862 ], [ -1.333333, 38.833333 ], [ -1.28, 39.031389 ], [ -1.25, 39.15 ], [ -1.1, 39.733333 ], [ -0.066667, 42.7 ] ] ] } },
{ "type": "Feature", "properties": { "id": "LECM", "oceanic": "0", "label_lon": "-3.5", "label_lat": "41.5", "region": "EMEA", "division": "VATEUD" }, "geometry": { "type": "MultiLineString", "coordinates": [ [ [ -6.952222, 39.031389 ], [ -7.016667, 39.116667 ], [ -7.098567, 39.100714 ], [ -7.166667, 39.116667 ], [ -7.133333, 39.133333 ], [ -7.133333, 39.169444 ], [ -7.225, 39.2 ], [ -7.241667, 39.25 ], [ -7.227778, 39.277778 ], [ -7.3, 39.333333 ], [ -7.327778, 39.388889 ], [ -7.3, 39.408333 ], [ -7.291667, 39.458333 ], [ -7.375, 39.488889 ], [ -7.397222, 39.536111 ], [ -7.433333, 39.544444 ], [ -7.455556, 39.575 ], [ -7.491667, 39.594444 ], [ -7.526389, 39.661111 ], [ -7.083333, 39.661111 ], [ -7.0, 39.686111 ], [ -6.983333, 39.8 ], [ -6.902778, 39.866667 ], [ -6.863889, 40.013889 ], [ -6.925, 40.1 ], [ -7.005556, 40.133333 ], [ -7.0, 40.230556 ], [ -6.855556, 40.266667 ], [ -6.858333, 40.297222 ], [ -6.788889, 40.333333 ], [ -6.775, 40.366667 ], [ -6.838889, 40.45 ], [ -6.7875, 40.533333 ], [ -6.836111, 40.569444 ], [ -6.791667, 40.65 ], [ -6.808333, 40.7 ], [ -6.825, 40.752778 ], [ -6.813889, 40.808333 ], [ -6.833333, 40.833333 ], [ -6.797222, 40.85 ], [ -6.808333, 40.883333 ], [ -6.933333, 41.033333 ], [ -6.8, 41.05 ], [ -6.75, 41.109722 ], [ -6.766667, 41.127778 ], [ -6.633333, 41.244444 ], [ -6.566667, 41.238889 ], [ -6.380556, 41.361111 ], [ -6.391667, 41.383333 ], [ -6.366667, 41.397222 ], [ -6.341667, 41.386111 ], [ -6.2, 41.583333 ], [ -6.283333, 41.661111 ], [ -6.433333, 41.688889 ], [ -6.488889, 41.661111 ], [ -6.544444, 41.691667 ], [ -6.566667, 41.75 ], [ -6.516667, 41.872222 ], [ -6.561111, 41.886111 ], [ -6.541667, 41.933333 ], [ -6.579167, 41.969444 ], [ -6.586111, 41.95 ], [ -6.625, 41.941667 ], [ -6.733333, 41.941667 ], [ -6.766667, 41.9875 ], [ -6.8, 41.9875 ], [ -6.808333, 41.95 ], [ -6.930556, 41.944444 ], [ -6.959722, 41.973611 ], [ -6.997222, 41.952778 ], [ -7.063889, 41.952778 ], [ -7.116667, 41.986111 ], [ -7.166667, 41.986111 ], [ -7.183333, 41.9 ], [ -7.325, 41.841667 ], [ -7.366667, 41.847222 ], [ -7.420833, 41.8125 ], [ -7.45, 41.863889 ], [ -7.5, 41.869444 ], [ -7.508333, 41.85 ], [ -7.566667, 41.830556 ], [ -7.606944, 41.843056 ], [ -7.575, 41.880556 ], [ -7.644444, 41.880556 ], [ -7.691667, 41.905556 ], [ -7.830556, 41.877778 ], [ -7.834722, 41.863889 ], [ -7.884722, 41.854167 ], [ -7.875, 41.925 ], [ -7.905556, 41.925 ], [ -7.911111, 41.883333 ], [ -7.975, 41.866667 ], [ -8.066667, 41.802778 ], [ -8.15, 41.816667 ], [ -8.166667, 41.883333 ], [ -8.191667, 41.883333 ], [ -8.208333, 41.905556 ], [ -8.15, 41.983333 ], [ -8.083333, 42.016667 ], [ -8.083333, 42.061111 ], [ -8.133333, 42.077778 ], [ -8.183333, 42.066667 ], [ -8.186111, 42.147222 ], [ -8.333333, 42.091667 ], [ -8.505556, 42.080556 ], [ -8.527778, 42.058333 ], [ -8.622222, 42.05 ], [ -8.658333, 42.002778 ], [ -8.7, 41.980556 ], [ -8.716667, 41.933333 ], [ -8.933333, 41.866667 ], [ -10.0, 42.0 ], [ -13.0, 43.0 ], [ -13.0, 45.0 ], [ -8.0, 45.0 ] ] ] } },
{ "type": "Feature", "properties": { "id": "LECP", "oceanic": "0", "label_lon": "2.05", "label_lat": "39.4", "region": "EMEA", "division": "VATEUD" }, "geometry": { "type": "MultiLineString", "coordinates": [ [ [ 4.666666666666667, 40.5 ], [ 4.366666666666666, 40.5 ], [ 4.255591666666667, 40.5 ], [ 4.189338888888889, 40.5 ], [ 3.991469444444444, 40.501333333333335 ], [ 3.783333333333333, 40.5 ], [ 3.69, 40.5 ], [ 2.358333333333333, 40.5 ], [ 2.097, 40.279 ], [ 1.413299722222222, 39.699999722222216 ], [ 0.2275, 39.649166666666666 ], [ 0.26, 39.6 ], [ 0.298611111111111, 39.538611111111109 ], [ 0.364166666666667, 39.435277777777777 ], [ 0.470833333333333, 39.269444444444446 ], [ 0.483333333333333, 39.25 ], [ 0.483333333333333, 39.136111111111113 ], [ 0.483330555555556, 39.0641 ], [ 0.483333333333333, 38.941944444444438 ], [ 0.483333333333333, 38.920555555555552 ], [ 0.483333333333333, 38.819722222222225 ], [ 0.483333333333333, 38.60830277777778 ], [ 0.483333333333333, 38.5 ], [ 0.426111111111111, 38.41 ], [ 1.054722222222222, 38.608333333333334 ], [ 1.118055555555556, 38.608333333333334 ], [ 1.466666666666667, 38.43333333333333 ], [ 1.884444444444444, 38.608611111111109 ], [ 2.185652777777777, 38.7335 ], [ 2.228111111111111, 38.750972222222224 ], [ 3.403016666666666, 39.052291666666662 ], [ 3.513888888888889, 39.08 ], [ 3.957094722222223, 39.276674444444446 ], [ 4.083416666666666, 39.332222222222228 ], [ 4.338333333333333, 39.44361111111111 ], [ 4.338055555555555, 39.511111111111113 ], [ 4.666666666666667, 39.716388888888893 ], [ 4.666666666666667, 40.5 ] ] ] } },
{ "type": "Feature", "properties": { "id": "LIMM", "oceanic": "0", "label_lon": "9.1240", "label_lat": "44.0923", "region": "EMEA", "division": "VATEUD" }, "geometry": { "type": "MultiLineString", "coordinates": [ [ [ 9.75, 43.166667 ], [ 10.078889, 43.620556 ], [ 10.370278, 43.925833 ], [ 10.427129, 43.966172 ], [ 10.573333, 44.098333 ], [ 10.632778, 44.170833 ], [ 10.71, 44.204722 ], [ 10.808889, 44.248333 ], [ 11.128889, 44.388056 ], [ 11.076626, 44.495439 ], [ 11.061583, 44.527214 ], [ 11.018602, 44.616129 ], [ 10.970248, 44.71439 ], [ 10.948333, 44.759444 ], [ 10.692778, 45.276111 ], [ 10.511944, 45.561111 ], [ 10.493611, 45.65 ], [ 10.473611, 45.748611 ], [ 10.426843, 45.802887 ], [ 10.115587, 46.042857 ], [ 10.009726, 46.279882 ], [ 9.998244, 46.283614 ], [ 9.958763, 46.378202 ], [ 9.832074, 46.360435 ], [ 9.736539, 46.338232 ], [ 9.713974, 46.292392 ], [ 9.64222, 46.286461 ], [ 9.535103, 46.310419 ], [ 9.460602, 46.376307 ], [ 9.464035, 46.508317 ], [ 9.430045, 46.493429 ], [ 9.409103, 46.467187 ], [ 9.355545, 46.504064 ], [ 9.283333, 46.496944 ], [ 9.248428, 46.432178 ], [ 9.283791, 46.385307 ], [ 9.272461, 46.289308 ], [ 9.194444, 46.181389 ], [ 8.968056, 46.149167 ], [ 8.680278, 46.106667 ], [ 8.57, 46.176389 ], [ 8.44265, 46.251574 ], [ 8.4478, 46.46293 ], [ 8.325577, 46.425079 ], [ 8.281288, 46.363988 ], [ 8.223333, 46.330833 ], [ 8.140182, 46.303066 ], [ 8.080278, 46.260556 ], [ 8.166667, 46.183333 ], [ 8.147392, 46.139404 ], [ 8.10997, 46.111802 ], [ 8.034439, 46.100852 ], [ 8.035126, 46.043689 ], [ 7.989464, 45.996485 ], [ 7.916667, 46.0 ], [ 7.870502, 45.947808 ], [ 7.862606, 45.917124 ], [ 7.803211, 45.921065 ], [ 7.723395, 45.935871 ], [ 7.658157, 45.976685 ], [ 7.545891, 45.961174 ], [ 7.450833, 45.925556 ] ] ] } },
{ "type": "Feature", "properties": { "id": "LIRR", "oceanic": "0", "label_lon": "12.8836", "label_lat": "40.0562", "region": "EMEA", "division": "VATEUD" }, "geometry": { "type": "MultiLineString", "coordinates": [ [ [ 16.039221944444446, 39.615066666666671 ], [ 16.191944444444445, 39.336944444444448 ], [ 16.191944, 39.336944 ], [ 16.249722, 39.233056 ], [ 17.528333, 37.729722 ], [ 17.752778, 37.496667 ], [ 18.728889, 36.953889 ], [ 19.0, 36.5 ], [ 14.710833, 36.5 ], [ 14.784167, 36.805 ], [ 14.393333, 36.863333 ], [ 13.653333, 37.123333 ], [ 13.188055, 37.345722 ], [ 13.025278, 37.345722 ], [ 12.549722, 37.171666 ], [ 11.961, 36.811361 ], [ 11.5, 36.62 ], [ 11.5, 37.5 ], [ 8.0, 39.0 ], [ 8.0, 41.0 ], [ 8.331944, 41.330833 ], [ 9.316667, 41.333333 ], [ 9.498056, 41.331944 ], [ 9.750041666666666, 41.332006111111113 ], [ 9.75, 41.673333 ], [ 9.75, 41.790722 ], [ 9.75, 41.7907222 ], [ 9.75, 43.166667 ], [ 10.0788889, 43.6205556 ], [ 10.3702778, 43.9258333 ], [ 10.4271292, 43.9661725 ], [ 10.573333333333332, 44.098333333333336 ], [ 10.6327778, 44.1708333 ], [ 10.71, 44.2047222 ], [ 10.8088889, 44.2483333 ], [ 11.1288889, 44.3880556 ], [ 11.2177019, 44.3049731 ], [ 11.363380329301872, 44.16850074742262 ], [ 11.3867169, 44.1464342 ], [ 11.5400619, 44.0020803 ], [ 11.6245694, 43.9215594 ], [ 11.7197222, 43.8302778 ], [ 11.8246703, 43.77643 ], [ 12.0636417, 43.6825583 ], [ 12.2085917, 43.6262353 ], [ 12.2097222, 43.6255556 ], [ 13.0366669, 43.295 ], [ 13.6822222, 43.2508333 ], [ 14.4266861, 43.5649352 ], [ 14.5, 43.5 ], [ 16.164167, 42.435 ], [ 16.353889, 42.347222 ], [ 16.9605663, 42.059547 ], [ 16.6363889, 41.5302778 ], [ 16.5233333, 41.4144444 ], [ 14.7886111, 41.2319444 ], [ 15.4172219, 40.6907222 ], [ 15.6186108, 40.3444439 ], [ 16.039221944444446, 39.615066666666671 ] ] ] } },
{ "type": "Feature", "properties": { "id": "LSAS", "oceanic": "0", "label_lon": "7.862335", "label_lat": "46.762858", "region": "EMEA", "division": "VATEUD" }, "geometry": { "type": "MultiLineString", "coordinates": [ [ [ 7.128055555555555, 44.813888888888883 ], [ 6.978673587503589, 45.408394121468476 ], [ 7.021111, 45.456389 ], [ 7.055278, 45.4925 ], [ 7.088889, 45.527778 ], [ 7.148472, 45.590278 ], [ 7.450833, 45.925556 ], [ 7.545891, 45.961174 ], [ 7.658157, 45.976685 ], [ 7.723395, 45.935871 ], [ 7.803211, 45.921065 ], [ 7.862606, 45.917124 ], [ 7.870502, 45.947808 ], [ 7.916667, 46.0 ], [ 7.989464, 45.996485 ], [ 8.035126, 46.043689 ], [ 8.034439, 46.100852 ], [ 8.10997, 46.111802 ], [ 8.147392, 46.139404 ], [ 8.166667, 46.183333 ], [ 8.080278, 46.260556 ], [ 8.140182, 46.303066 ], [ 8.223333, 46.330833 ], [ 8.281288, 46.363988 ], [ 8.325577, 46.425079 ], [ 8.4478, 46.46293 ], [ 8.44265, 46.251574 ], [ 8.57, 46.176389 ], [ 8.680278, 46.106667 ], [ 8.968056, 46.149167 ], [ 9.194444, 46.181389 ], [ 9.272461, 46.289308 ], [ 9.283791, 46.385307 ], [ 9.248428, 46.432178 ], [ 9.283333, 46.496944 ], [ 9.355545, 46.504064 ], [ 9.409103, 46.467187 ], [ 9.430045, 46.493429 ], [ 9.464035, 46.508317 ], [ 9.460602, 46.376307 ], [ 9.535103, 46.310419 ], [ 9.64222, 46.286461 ], [ 9.713974, 46.292392 ], [ 9.736539, 46.338232 ], [ 9.832074, 46.360435 ], [ 9.958763, 46.378202 ], [ 9.998244, 46.283614 ], [ 10.055923, 46.264867 ], [ 10.05, 46.216667 ], [ 10.130424, 46.224978 ], [ 10.176086, 46.254897 ], [ 10.116667, 46.333333 ], [ 10.129395, 46.431232 ], [ 10.039444, 46.446551 ], [ 10.04837, 46.535248 ], [ 10.101242, 46.608884 ], [ 10.217285, 46.618318 ], [ 10.294876, 46.549889 ], [ 10.479167, 46.562222 ], [ 10.483333, 46.633333 ], [ 10.382767, 46.684305 ], [ 10.49057, 46.937136 ], [ 10.389444, 47.000556 ], [ 10.141389, 47.110278 ], [ 9.733056, 47.533611 ], [ 9.55, 47.8 ], [ 9.55, 48.166667 ], [ 9.107778, 48.166667 ], [ 8.882778, 48.166667 ], [ 8.680556, 48.168889 ], [ 8.321389, 48.17 ], [ 8.212656, 48.148545 ], [ 7.966667, 48.1 ] ] ] } },
{ "type": "Feature", "properties": { "id": "LECB", "oceanic": "0", "label_lon": "1.45", "label_lat": "40.3", "region": "EMEA", "division": "VATEUD" }, "geometry": { "type": "MultiLineString", "coordinates": [ ] } },
{ "type": "Feature", "properties": { "id": "LECM", "oceanic": "0", "label_lon": "-3.5", "label_lat": "41.5", "region": "EMEA", "division": "VATEUD" }, "geometry": { "type": "MultiLineString", "coordinates": [ [ [ -0.066667, 42.7 ], [ -1.1, 39.733333 ], [ -1.25, 39.15 ], [ -1.28, 39.031389 ], [ -1.724304348282896, 39.000237860026353 ], [ -3.099907711419681, 39.000014819429246 ], [ -3.101194497476884, 38.991758601499079 ], [ -3.419456509704885, 38.991718455971004 ], [ -3.414435008832829, 39.008650647614502 ], [ -4.456919978344194, 39.00833989896438 ], [ -4.574532660562355, 38.910082575241972 ], [ -4.760834776795463, 39.008369510652997 ], [ -5.160786305738647, 39.008171351726496 ], [ -5.16087873418148, 38.999999018958079 ], [ -6.972915650356573, 38.999954474808504 ], [ -6.952222, 39.031389 ] ] ] } },
{ "type": "Feature", "properties": { "id": "LIMM", "oceanic": "0", "label_lon": "9.1240", "label_lat": "44.0923", "region": "EMEA", "division": "VATEUD" }, "geometry": { "type": "MultiLineString", "coordinates": [ [ [ 7.450833, 45.925556 ], [ 7.148472, 45.590278 ], [ 7.088889, 45.527778 ], [ 7.021111, 45.456389 ] ] ] } },
{ "type": "Feature", "properties": { "id": "EDGG", "oceanic": "0", "label_lon": "8.25", "label_lat": "50.28", "region": "EMEA", "division": "VATEUD" }, "geometry": { "type": "MultiLineString", "coordinates": [ [ [ 6.980289, 52.215306 ], [ 6.953456, 52.18094 ], [ 6.91088, 52.176661 ], [ 6.852845, 52.119446 ], [ 6.761222, 52.118606 ], [ 6.736785, 52.074691 ], [ 6.69493, 52.069757 ], [ 6.688078, 52.038892 ], [ 6.713904, 52.040143 ], [ 6.751486, 52.029328 ], [ 6.809875, 51.996579 ], [ 6.828179, 51.99242 ], [ 6.828911, 51.965553 ], [ 6.798732, 51.959866 ], [ 6.796796, 51.942248 ], [ 6.769926, 51.916864 ], [ 6.722542, 51.896546 ], [ 6.682829, 51.91707 ], [ 6.576925, 51.890267 ], [ 6.472015, 51.854029 ], [ 6.450914, 51.865177 ], [ 6.390508, 51.873343 ], [ 6.387064, 51.86313 ], [ 6.407531, 51.853754 ], [ 6.403606, 51.828044 ], [ 6.353827, 51.849087 ], [ 6.31067, 51.850383 ], [ 6.276916, 51.874306 ], [ 6.215736, 51.867689 ], [ 6.18166, 51.885659 ], [ 6.190972, 51.887872 ], [ 6.151389, 51.904419 ], [ 6.103687, 51.892657 ], [ 6.166836, 51.861527 ], [ 6.166558, 51.841091 ], [ 6.105283, 51.848595 ], [ 6.064039, 51.865484 ], [ 6.0545, 51.852404 ], [ 5.99295, 51.83064 ], [ 5.963067, 51.83686 ], [ 5.990748, 51.766233 ], [ 5.952244, 51.748998 ], [ 5.954708, 51.738412 ], [ 5.994339, 51.737739 ], [ 6.045284, 51.716931 ], [ 6.027951, 51.71129 ], [ 6.031125, 51.675808 ], [ 6.116094, 51.651917 ], [ 6.09122, 51.606436 ], [ 6.157698, 51.56571 ], [ 6.177307, 51.538264 ], [ 6.211394, 51.514223 ], [ 6.212801, 51.491262 ], [ 6.224179, 51.473824 ], [ 6.220647, 51.446819 ], [ 6.213813, 51.446583 ], [ 6.203891, 51.400844 ], [ 6.226541, 51.400114 ], [ 6.214677, 51.389719 ], [ 6.226357, 51.360281 ], [ 6.190037, 51.3387 ], [ 6.16859, 51.33306 ], [ 6.147601, 51.300004 ], [ 6.129223, 51.286276 ], [ 6.124801, 51.274638 ], [ 6.083546, 51.24644 ], [ 6.072455, 51.242427 ], [ 6.086132, 51.222808 ], [ 6.067751, 51.220784 ], [ 6.073215, 51.181114 ], [ 6.084068, 51.171464 ], [ 6.106712, 51.172369 ], [ 6.131119, 51.18426 ], [ 6.164659, 51.194051 ], [ 6.180353, 51.1864 ], [ 6.141073, 51.173382 ], [ 6.174241, 51.158914 ], [ 6.091438, 51.133291 ], [ 6.049706, 51.104514 ], [ 5.997658, 51.082016 ], [ 5.956538, 51.03888 ], [ 5.934221, 51.038369 ], [ 5.91253, 51.066601 ], [ 5.887793, 51.053186 ], [ 5.863198, 51.051515 ], [ 5.879737, 51.014948 ], [ 5.901883, 51.001852 ], [ 5.894615, 50.983371 ], [ 5.895102, 50.976604 ], [ 5.952804, 50.989855 ], [ 5.965382, 50.980889 ], [ 6.024105, 50.984841 ], [ 6.00795, 50.959119 ], [ 6.019757, 50.936978 ], [ 6.09123, 50.918925 ], [ 6.076791, 50.896439 ], [ 6.088747, 50.87146 ], [ 6.073185, 50.847523 ], [ 6.052179, 50.853525 ], [ 6.01802, 50.844822 ], [ 6.025477, 50.815584 ], [ 6.004766, 50.801637 ], [ 5.983782, 50.808338 ], [ 5.975502, 50.798413 ], [ 6.024051, 50.774647 ], [ 6.021158, 50.754494 ], [ 6.050031, 50.722338 ], [ 6.118845, 50.718318 ], [ 6.166667, 50.666667 ], [ 6.193006, 50.626964 ], [ 6.277031, 50.623311 ], [ 6.25, 50.583333 ], [ 6.2, 50.55 ], [ 6.25, 50.483333 ], [ 6.35, 50.466667 ], [ 6.383333, 50.433333 ], [ 6.408333, 50.333333 ], [ 6.3, 50.316667 ], [ 6.15, 50.15 ], [ 6.133333, 50.05 ], [ 6.333333, 49.85 ], [ 6.516667, 49.816667 ], [ 6.5, 49.75 ], [ 6.383333, 49.6 ], [ 6.35, 49.466667 ] ] ] } }
]
}
