{
"type": "FeatureCollection",
"name": "CCA_LFBP_FA_FE_Labels",
"crs": { "type": "name", "properties": { "name": "urn:ogc:def:crs:OGC:1.3:CRS84" } },
"xy_coordinate_resolution": 1e-15,
"features": [
{ "type": "Feature", "properties": { "fir": "PFA", "identifier": null, "subsector_id": null, "name": "PFA", "level_lower": "0", "level_upper": "75", "callout_x1": "6.8585", "callout_y1": "49.3216", "callout_x2": "6.9381", "callout_y2": "49.1584", "style": 50, "buffer": null }, "geometry": { "type": "Point", "coordinates": [ 6.86762167062502, 49.388951779270798 ] } },
{ "type": "Feature", "properties": { "fir": "LFST", "identifier": null, "subsector_id": null, "name": "SC2", "level_lower": "75", "level_upper": "115", "callout_x1": null, "callout_y1": null, "callout_x2": null, "callout_y2": null, "style": 31, "buffer": null }, "geometry": { "type": "Point", "coordinates": [ 6.86762167062502, 49.388951779270798 ] } },
{ "type": "Feature", "properties": { "fir": "LFST", "identifier": null, "subsector_id": null, "name": "SU2", "level_lower": "115", "level_upper": "195", "callout_x1": null, "callout_y1": null, "callout_x2": null, "callout_y2": null, "style": 32, "buffer": null }, "geometry": { "type": "Point", "coordinates": [ 6.86762167062502, 49.388951779270798 ] } },
{ "type": "Feature", "properties": { "fir": "PFA", "identifier": null, "subsector_id": null, "name": "PFA", "level_lower": "0", "level_upper": "75", "callout_x1": "7.2949", "callout_y1": "49.2831", "callout_x2": "7.2358", "callout_y2": "49.0557", "style": 50, "buffer": null }, "geometry": { "type": "Point", "coordinates": [ 7.304000777768181, 49.349731572017099 ] } },
{ "type": "Feature", "properties": { "fir": "LFST", "identifier": null, "subsector_id": null, "name": "RW1", "level_lower": "75", "level_upper": "115", "callout_x1": null, "callout_y1": null, "callout_x2": null, "callout_y2": null, "style": 31, "buffer": null }, "geometry": { "type": "Point", "coordinates": [ 7.304000777768181, 49.349731572017099 ] } },
{ "type": "Feature", "properties": { "fir": "LFST", "identifier": null, "subsector_id": null, "name": "SU1", "level_lower": "115", "level_upper": "195", "callout_x1": null, "callout_y1": null, "callout_x2": null, "callout_y2": null, "style": 32, "buffer": null }, "geometry": { "type": "Point", "coordinates": [ 7.304000777768181, 49.349731572017099 ] } },
{ "type": "Feature", "properties": { "fir": "LFST", "identifier": null, "subsector_id": null, "name": "RW1", "level_lower": "0", "level_upper": "115", "callout_x1": null, "callout_y1": null, "callout_x2": null, "callout_y2": null, "style": 30, "buffer": null }, "geometry": { "type": "Point", "coordinates": [ 7.460824519397753, 48.651925932073574 ] } },
{ "type": "Feature", "properties": { "fir": "LFST", "identifier": null, "subsector_id": null, "name": "SU1", "level_lower": "115", "level_upper": "195", "callout_x1": null, "callout_y1": null, "callout_x2": null, "callout_y2": null, "style": 31, "buffer": null }, "geometry": { "type": "Point", "coordinates": [ 7.460824519397753, 48.651925932073574 ] } },
{ "type": "Feature", "properties": { "fir": "LFSB", "identifier": null, "subsector_id": null, "name": "BA3", "level_lower": "0", "level_upper": "50", "callout_x1": "7.3017", "callout_y1": "48.1722", "callout_x2": "7.3790", "callout_y2": "48.2600", "style": 30, "buffer": null }, "geometry": { "type": "Point", "coordinates": [ 7.288091122820252, 48.106972564853741 ] } },
{ "type": "Feature", "properties": { "fir": "lfst", "identifier": null, "subsector_id": null, "name": "RW2", "level_lower": "50", "level_upper": "115", "callout_x1": null, "callout_y1": null, "callout_x2": null, "callout_y2": null, "style": 31, "buffer": null }, "geometry": { "type": "Point", "coordinates": [ 7.288091122820252, 48.106972564853741 ] } },
{ "type": "Feature", "properties": { "fir": "LFST", "identifier": null, "subsector_id": null, "name": "SU1", "level_lower": "115", "level_upper": "195", "callout_x1": null, "callout_y1": null, "callout_x2": null, "callout_y2": null, "style": 32, "buffer": null }, "geometry": { "type": "Point", "coordinates": [ 7.288091122820252, 48.106972564853741 ] } },
{ "type": "Feature", "properties": { "fir": "LFST", "identifier": null, "subsector_id": null, "name": "RE3", "level_lower": "0", "level_upper": "115", "callout_x1": "8.0063", "callout_y1": "49.1450", "callout_x2": "8.0881", "callout_y2": "48.9304", "style": 30, "buffer": null }, "geometry": { "type": "Point", "coordinates": [ 8.015389634725521, 49.210358425447779 ] } },
{ "type": "Feature", "properties": { "fir": "LFML", "identifier": null, "subsector_id": null, "name": "MAC", "level_lower": "95", "level_upper": "145", "callout_x1": null, "callout_y1": null, "callout_x2": null, "callout_y2": null, "style": 31, "buffer": null }, "geometry": { "type": "Point", "coordinates": [ 4.863734616072525, 43.414592235307339 ] } },
{ "type": "Feature", "properties": { "fir": "LFST", "identifier": null, "subsector_id": null, "name": "SU1", "level_lower": "115", "level_upper": "195", "callout_x1": null, "callout_y1": null, "callout_x2": null, "callout_y2": null, "style": 31, "buffer": null }, "geometry": { "type": "Point", "coordinates": [ 8.015389634725521, 49.210358425447779 ] } },
{ "type": "Feature", "properties": { "fir": "LFST", "identifier": null, "subsector_id": null, "name": "RE1", "level_lower": "0", "level_upper": "75", "callout_x1": "8.3745", "callout_y1": "49.1301", "callout_x2": "8.2540", "callout_y2": "49.0244", "style": 30, "buffer": null }, "geometry": { "type": "Point", "coordinates": [ 8.444950318319568, 49.170252883262755 ] } },
{ "type": "Feature", "properties": { "fir": "PFA", "identifier": null, "subsector_id": null, "name": "PFA", "level_lower": "75", "level_upper": "245", "callout_x1": null, "callout_y1": null, "callout_x2": null, "callout_y2": null, "style": 51, "buffer": null }, "geometry": { "type": "Point", "coordinates": [ 8.444950318319568, 49.170252883262755 ] } },
{ "type": "Feature", "properties": { "fir": "LFST", "identifier": null, "subsector_id": null, "name": "RE2", "level_lower": "0", "level_upper": "95", "callout_x1": null, "callout_y1": null, "callout_x2": null, "callout_y2": null, "style": 53, "buffer": null }, "geometry": { "type": "Point", "coordinates": [ 8.031299289673447, 48.471425219802072 ] } },
{ "type": "Feature", "properties": { "fir": "EDDG", "identifier": null, "subsector_id": null, "name": "REU", "level_lower": "95", "level_upper": "145", "callout_x1": null, "callout_y1": null, "callout_x2": null, "callout_y2": null, "style": 31, "buffer": null }, "geometry": { "type": "Point", "coordinates": [ 8.031299289673447, 48.471425219802072 ] } },
{ "type": "Feature", "properties": { "fir": "EDGG", "identifier": null, "subsector_id": null, "name": "BAD", "level_lower": "145", "level_upper": "245", "callout_x1": null, "callout_y1": null, "callout_x2": null, "callout_y2": null, "style": 32, "buffer": null }, "geometry": { "type": "Point", "coordinates": [ 8.031299289673447, 48.471425219802072 ] } },
{ "type": "Feature", "properties": { "fir": "LFST", "identifier": null, "subsector_id": null, "name": "SC2", "level_lower": "0", "level_upper": "115", "callout_x1": null, "callout_y1": null, "callout_x2": null, "callout_y2": null, "style": 30, "buffer": null }, "geometry": { "type": "Point", "coordinates": [ 6.513063646071202, 49.109289697282108 ] } },
{ "type": "Feature", "properties": { "fir": "LFST", "identifier": null, "subsector_id": null, "name": "SU2", "level_lower": "115", "level_upper": "195", "callout_x1": null, "callout_y1": null, "callout_x2": null, "callout_y2": null, "style": 31, "buffer": null }, "geometry": { "type": "Point", "coordinates": [ 6.513063646071202, 49.109289697282108 ] } },
{ "type": "Feature", "properties": { "fir": "LFST", "identifier": null, "subsector_id": null, "name": "SC1", "level_lower": "0", "level_upper": "115", "callout_x1": null, "callout_y1": null, "callout_x2": null, "callout_y2": null, "style": 30, "buffer": null }, "geometry": { "type": "Point", "coordinates": [ 5.935770452246396, 48.662435260356517 ] } },
{ "type": "Feature", "properties": { "fir": "LFST", "identifier": null, "subsector_id": null, "name": "SU1", "level_lower": "115", "level_upper": "195", "callout_x1": null, "callout_y1": null, "callout_x2": null, "callout_y2": null, "style": 31, "buffer": null }, "geometry": { "type": "Point", "coordinates": [ 5.935770452246396, 48.662435260356517 ] } },
{ "type": "Feature", "properties": { "fir": "LFFF", "identifier": null, "subsector_id": null, "name": "TM", "level_lower": "0", "level_upper": "55", "callout_x1": "5.0335", "callout_y1": "49.2074", "callout_x2": "5.4948", "callout_y2": "49.3275", "style": 30, "buffer": null }, "geometry": { "type": "Point", "coordinates": [ 4.976645539671324, 49.199963814060666 ] } },
{ "type": "Feature", "properties": { "fir": "LFST", "identifier": null, "subsector_id": null, "name": "SC", "level_lower": "55", "level_upper": "115", "callout_x1": null, "callout_y1": null, "callout_x2": null, "callout_y2": null, "style": 31, "buffer": null }, "geometry": { "type": "Point", "coordinates": [ 4.976645539671324, 49.199963814060666 ] } },
{ "type": "Feature", "properties": { "fir": "LFFF", "identifier": null, "subsector_id": null, "name": "TM", "level_lower": "115", "level_upper": "195", "callout_x1": null, "callout_y1": null, "callout_x2": null, "callout_y2": null, "style": 32, "buffer": null }, "geometry": { "type": "Point", "coordinates": [ 4.976645539671324, 49.199963814060666 ] } }
]
}
