{
"type": "FeatureCollection",
"name": "CCA_LFLB_Labels_17",
"crs": { "type": "name", "properties": { "name": "urn:ogc:def:crs:OGC:1.3:CRS84" } },
"xy_coordinate_resolution": 1e-15,
"features": [
{ "type": "Feature", "properties": { "fir": "f", "identifier": null, "subsector_id": null, "name": "CK", "level_lower": "0", "level_upper": "85", "callout_x1": "3.8155", "callout_y1": "45.6882", "callout_x2": "4.1820", "callout_y2": "45.7211", "style": 51, "buffer": null }, "geometry": { "type": "Point", "coordinates": [ 3.730427948976526, 45.703143774085561 ] } },
{ "type": "Feature", "properties": { "fir": "LFLL", "identifier": null, "subsector_id": null, "name": "VW3", "level_lower": "85", "level_upper": "145", "callout_x1": null, "callout_y1": null, "callout_x2": null, "callout_y2": null, "style": 31, "buffer": null }, "geometry": { "type": "Point", "coordinates": [ 3.730427948976526, 45.703143774085561 ] } },
{ "type": "Feature", "properties": { "fir": "LFLC", "identifier": null, "subsector_id": null, "name": "CL2", "level_lower": "0", "level_upper": "85", "callout_x1": "4.0922", "callout_y1": "44.7662", "callout_x2": "4.4202", "callout_y2": "44.9502", "style": 51, "buffer": null }, "geometry": { "type": "Point", "coordinates": [ 4.020634315981862, 44.77743186698104 ] } },
{ "type": "Feature", "properties": { "fir": "LFLL", "identifier": null, "subsector_id": null, "name": "VW3", "level_lower": "85", "level_upper": "145", "callout_x1": null, "callout_y1": null, "callout_x2": null, "callout_y2": null, "style": 31, "buffer": null }, "geometry": { "type": "Point", "coordinates": [ 4.020634315981862, 44.77743186698104 ] } },
{ "type": "Feature", "properties": { "fir": "LFLC", "identifier": null, "subsector_id": null, "name": "CY2", "level_lower": "0", "level_upper": "85", "callout_x1": "3.8911", "callout_y1": "46.2423", "callout_x2": "4.2647", "callout_y2": "46.2186", "style": 51, "buffer": null }, "geometry": { "type": "Point", "coordinates": [ 3.818369272311477, 46.237952428235054 ] } },
{ "type": "Feature", "properties": { "fir": "LFLL", "identifier": null, "subsector_id": null, "name": "VW3", "level_lower": "85", "level_upper": "115", "callout_x1": null, "callout_y1": null, "callout_x2": null, "callout_y2": null, "style": 31, "buffer": null }, "geometry": { "type": "Point", "coordinates": [ 3.818369272311477, 46.237952428235054 ] } },
{ "type": "Feature", "properties": { "fir": "LFMM", "identifier": null, "subsector_id": null, "name": "LO", "level_lower": "115", "level_upper": "145", "callout_x1": null, "callout_y1": null, "callout_x2": null, "callout_y2": null, "style": 32, "buffer": null }, "geometry": { "type": "Point", "coordinates": [ 3.818369272311477, 46.237952428235054 ] } },
{ "type": "Feature", "properties": { "fir": "LFLL", "identifier": null, "subsector_id": null, "name": "VW1", "level_lower": "0", "level_upper": "145", "callout_x1": null, "callout_y1": null, "callout_x2": null, "callout_y2": null, "style": 30, "buffer": null }, "geometry": { "type": "Point", "coordinates": [ 4.803765169737528, 45.551556396596759 ] } },
{ "type": "Feature", "properties": { "fir": "LFLL", "identifier": null, "subsector_id": null, "name": "VE2", "level_lower": "0", "level_upper": "75", "callout_x1": "5.7963", "callout_y1": "46.4019", "callout_x2": "5.6052", "callout_y2": "46.3152", "style": 30, "buffer": null }, "geometry": { "type": "Point", "coordinates": [ 5.967442788785956, 46.427417566987465 ] } },
{ "type": "Feature", "properties": { "fir": "LSGG", "identifier": null, "subsector_id": null, "name": "GENEVA", "level_lower": "75", "level_upper": "155", "callout_x1": null, "callout_y1": null, "callout_x2": null, "callout_y2": null, "style": 11, "buffer": null }, "geometry": { "type": "Point", "coordinates": [ 5.967442788785956, 46.427417566987465 ] } },
{ "type": "Feature", "properties": { "fir": "LFLL", "identifier": null, "subsector_id": null, "name": "VE1", "level_lower": "0", "level_upper": "145", "callout_x1": null, "callout_y1": null, "callout_x2": null, "callout_y2": null, "style": 30, "buffer": null }, "geometry": { "type": "Point", "coordinates": [ 5.414125489532537, 45.585499692366135 ] } }
]
}
