{
"type": "FeatureCollection",
"name": "CCA_LFBB_L_Labels",
"crs": { "type": "name", "properties": { "name": "urn:ogc:def:crs:OGC:1.3:CRS84" } },
"features": [
{ "type": "Feature", "properties": { "fir": "LFBB", "identifier": "L1", "subsector_id": "L1", "name": "L1", "level_lower": 195, "level_upper": 295, "callout_x1": null, "callout_y1": null, "callout_x2": null, "callout_y2": null, "style": 30, "buffer": null }, "geometry": { "type": "Point", "coordinates": [ 1.644284968776085, 46.036111111111111 ] } },
{ "type": "Feature", "properties": { "fir": "LFBB", "identifier": "L2", "subsector_id": "L2", "name": "L2", "level_lower": 295, "level_upper": 345, "callout_x1": null, "callout_y1": null, "callout_x2": null, "callout_y2": null, "style": 31, "buffer": null }, "geometry": { "type": "Point", "coordinates": [ 1.644284968776085, 46.036111111111111 ] } },
{ "type": "Feature", "properties": { "fir": "LFBB", "identifier": "L3", "subsector_id": "L3", "name": "L3", "level_lower": 346, "level_upper": 365, "callout_x1": null, "callout_y1": null, "callout_x2": null, "callout_y2": null, "style": 32, "buffer": null }, "geometry": { "type": "Point", "coordinates": [ 1.644284968776085, 46.036111111111111 ] } },
{ "type": "Feature", "properties": { "fir": "LFBB", "identifier": "L4", "subsector_id": "L4", "name": "L4", "level_lower": 365, "level_upper": 385, "callout_x1": null, "callout_y1": null, "callout_x2": null, "callout_y2": null, "style": 33, "buffer": null }, "geometry": { "type": "Point", "coordinates": [ 1.644284968776085, 46.036111111111111 ] } },
{ "type": "Feature", "properties": { "fir": "LFBB", "identifier": "L5", "subsector_id": "L5", "name": "L5", "level_lower": 385, "level_upper": 660, "callout_x1": null, "callout_y1": null, "callout_x2": null, "callout_y2": null, "style": 34, "buffer": null }, "geometry": { "type": "Point", "coordinates": [ 1.644284968776085, 46.036111111111111 ] } }
]
}
