{
"type": "FeatureCollection",
"name": "CCA_LFBB_N_Labels",
"crs": { "type": "name", "properties": { "name": "urn:ogc:def:crs:OGC:1.3:CRS84" } },
"features": [
{ "type": "Feature", "properties": { "fir": "LFBB", "identifier": "N1", "subsector_id": "N1", "name": "N1", "level_lower": 195, "level_upper": 295, "callout_x1": null, "callout_y1": null, "callout_x2": null, "callout_y2": null, "style": 30, "buffer": null }, "geometry": { "type": "Point", "coordinates": [ 1.085409100323968, 43.175493825391733 ] } },
{ "type": "Feature", "properties": { "fir": "LFBB", "identifier": "N2", "subsector_id": "N2", "name": "N2", "level_lower": 295, "level_upper": 345, "callout_x1": null, "callout_y1": null, "callout_x2": null, "callout_y2": null, "style": 31, "buffer": null }, "geometry": { "type": "Point", "coordinates": [ 1.085409100323968, 43.175493825391733 ] } },
{ "type": "Feature", "properties": { "fir": "LFBB", "identifier": "N3", "subsector_id": "N3", "name": "N3", "level_lower": 345, "level_upper": 365, "callout_x1": null, "callout_y1": null, "callout_x2": null, "callout_y2": null, "style": 32, "buffer": null }, "geometry": { "type": "Point", "coordinates": [ 1.085409100323968, 43.175493825391733 ] } },
{ "type": "Feature", "properties": { "fir": "LFBB", "identifier": "N4", "subsector_id": "N4", "name": "N4", "level_lower": 365, "level_upper": 385, "callout_x1": null, "callout_y1": null, "callout_x2": null, "callout_y2": null, "style": 33, "buffer": null }, "geometry": { "type": "Point", "coordinates": [ 1.085409100323968, 43.175493825391733 ] } },
{ "type": "Feature", "properties": { "fir": "LFBB", "identifier": "N5", "subsector_id": "N5", "name": "N5", "level_lower": 385, "level_upper": 660, "callout_x1": null, "callout_y1": null, "callout_x2": null, "callout_y2": null, "style": 34, "buffer": null }, "geometry": { "type": "Point", "coordinates": [ 1.085409100323968, 43.175493825391733 ] } }
]
}
