{
"type": "FeatureCollection",
"name": "CCA_LFBB_TZ_Labels",
"crs": { "type": "name", "properties": { "name": "urn:ogc:def:crs:OGC:1.3:CRS84" } },
"features": [
{ "type": "Feature", "properties": { "fir": "LFBB", "identifier": "LFBB:TZ UAC:145-195", "subsector_id": "", "name": "TZ", "level_lower": 145, "level_upper": 195, "callout_x1": null, "callout_y1": null, "callout_x2": null, "callout_y2": null, "style": 10, "buffer": null }, "geometry": { "type": "Point", "coordinates": [ -0.235476834457439, 43.888194444444444 ] } }
]
}
