{
"type": "FeatureCollection",
"name": "CCR_LFBB_UAC_Adjacent_Labels",
"crs": { "type": "name", "properties": { "name": "urn:ogc:def:crs:OGC:1.3:CRS84" } },
"features": [
{ "type": "Feature", "properties": { "fir": "LFFF", "identifier": null, "subsector_id": null, "name": "BREST UAC (LFRR)", "level_lower": null, "level_upper": null, "callout_x1": null, "callout_y1": null, "callout_x2": null, "callout_y2": null, "style": 20, "buffer": null }, "geometry": { "type": "Point", "coordinates": [ -0.395135813103987, 47.210506559123715 ] } },
{ "type": "Feature", "properties": { "fir": "LFMM", "identifier": null, "subsector_id": null, "name": "MARSEILLE UAC (LFMM)", "level_lower": null, "level_upper": null, "callout_x1": null, "callout_y1": null, "callout_x2": null, "callout_y2": null, "style": 20, "buffer": null }, "geometry": { "type": "Point", "coordinates": [ 5.023238100590256, 44.83751868011484 ] } },
{ "type": "Feature", "properties": { "fir": "LECM", "identifier": null, "subsector_id": null, "name": "MADRID UAC (LECM)", "level_lower": null, "level_upper": null, "callout_x1": null, "callout_y1": null, "callout_x2": null, "callout_y2": null, "style": 20, "buffer": null }, "geometry": { "type": "Point", "coordinates": [ -1.684954267810985, 43.094085439627015 ] } },
{ "type": "Feature", "properties": { "fir": "LECB", "identifier": null, "subsector_id": null, "name": "BARCELONA UAC (LECB)", "level_lower": null, "level_upper": null, "callout_x1": null, "callout_y1": null, "callout_x2": null, "callout_y2": null, "style": 20, "buffer": null }, "geometry": { "type": "Point", "coordinates": [ 1.206057317012453, 42.413194910987905 ] } },
{ "type": "Feature", "properties": { "fir": "LFFF", "identifier": null, "subsector_id": null, "name": "PARIS UAC (LFFF)", "level_lower": null, "level_upper": null, "callout_x1": null, "callout_y1": null, "callout_x2": null, "callout_y2": null, "style": 20, "buffer": null }, "geometry": { "type": "Point", "coordinates": [ 4.106160133234708, 47.423333746911005 ] } }
]
}
