{
"type": "FeatureCollection",
"name": "CCR_LFBB_ACC_Adjacent_Labels",
"crs": { "type": "name", "properties": { "name": "urn:ogc:def:crs:OGC:1.3:CRS84" } },
"xy_coordinate_resolution": 1e-15,
"features": [
{ "type": "Feature", "properties": { "fir": "LFRR", "identifier": null, "subsector_id": null, "name": "BREST ACC (LFRR)", "level_lower": null, "level_upper": null, "callout_x1": null, "callout_y1": null, "callout_x2": null, "callout_y2": null, "style": 20, "buffer": null }, "geometry": { "type": "Point", "coordinates": [ -1.495174812360704, 47.037304047942762 ] } },
{ "type": "Feature", "properties": { "fir": "LFFF", "identifier": null, "subsector_id": null, "name": "PARIS ACC (LFFF)", "level_lower": null, "level_upper": null, "callout_x1": null, "callout_y1": null, "callout_x2": null, "callout_y2": null, "style": 20, "buffer": null }, "geometry": { "type": "Point", "coordinates": [ 2.117453264743742, 47.484806917223331 ] } },
{ "type": "Feature", "properties": { "fir": "LFMM", "identifier": null, "subsector_id": null, "name": "MARSEILLE ACC (LFMM)", "level_lower": null, "level_upper": null, "callout_x1": null, "callout_y1": null, "callout_x2": null, "callout_y2": null, "style": 20, "buffer": null }, "geometry": { "type": "Point", "coordinates": [ 4.624360322967211, 44.873165821147182 ] } },
{ "type": "Feature", "properties": { "fir": "LECM", "identifier": null, "subsector_id": null, "name": "MADRID ACC (LECM)", "level_lower": null, "level_upper": null, "callout_x1": null, "callout_y1": null, "callout_x2": null, "callout_y2": null, "style": 20, "buffer": null }, "geometry": { "type": "Point", "coordinates": [ -1.019021567847724, 42.734545839992002 ] } },
{ "type": "Feature", "properties": { "fir": "LECB", "identifier": null, "subsector_id": null, "name": "BARCELONA ACC (LECB)", "level_lower": null, "level_upper": null, "callout_x1": null, "callout_y1": null, "callout_x2": null, "callout_y2": null, "style": 20, "buffer": null }, "geometry": { "type": "Point", "coordinates": [ 1.786759722611815, 42.221399241692779 ] } }
]
}
