{
"type": "FeatureCollection",
"name": "CCA_LFBP_PY_Labels",
"crs": { "type": "name", "properties": { "name": "urn:ogc:def:crs:OGC:1.3:CRS84" } },
"features": [
{ "type": "Feature", "properties": { "fir": "LFBB", "identifier": "LFBB:PYRENEES PY:025-145", "subsector_id": "", "name": "PY", "level_lower": 0, "level_upper": 145, "callout_x1": -0.075, "callout_y1": 43.404444444444451, "callout_x2": -0.075, "callout_y2": 43.404444444444451, "style": 10, "buffer": null }, "geometry": { "type": "Point", "coordinates": [ 0.004087342182464, 43.449561096563123 ] } }
]
}
