{
"type": "FeatureCollection",
"name": "CCA_LFBB_BL_Labels",
"crs": { "type": "name", "properties": { "name": "urn:ogc:def:crs:OGC:1.3:CRS84" } },
"features": [
{ "type": "Feature", "properties": { "fir": "LFBB", "identifier": "LFBB:LIMOGES BL:025-145", "subsector_id": "", "name": "BL", "level_lower": 0, "level_upper": 145, "callout_x1": null, "callout_y1": null, "callout_x2": null, "callout_y2": null, "style": 10, "buffer": null }, "geometry": { "type": "Point", "coordinates": [ 1.422392258529793, 46.025694444444447 ] } }
]
}
