{
"type": "FeatureCollection",
"name": "CCA_LFBB_BL_Labels",
"crs": { "type": "name", "properties": { "name": "urn:ogc:def:crs:OGC:1.3:CRS84" } },
"features": [
{ "type": "Feature", "properties": { "fir": "LFBB", "identifier": "LFBB:LIMOGES BL:025-145", "subsector_id": "", "name": "BL", "level_lower": 0, "level_upper": 145, "callout_x1": null, "callout_y1": null, "callout_x2": null, "callout_y2": null, "style": 10, "buffer": null }, "geometry": { "type": "Point", "coordinates": [ 1.422392258529793, 46.025694444444447 ] } },
{ "type": "Feature", "properties": { "fir": "LFBB", "identifier": "BI", "subsector_id": "BI", "name": "BI", "level_lower": 0, "level_upper": 145, "callout_x1": null, "callout_y1": null, "callout_x2": null, "callout_y2": null, "style": 20, "buffer": null }, "geometry": { "type": "Point", "coordinates": [ 0.824080762467815, 46.528650767265866 ] } },
{ "type": "Feature", "properties": { "fir": "LFBB", "identifier": "BE", "subsector_id": "BE", "name": "BE", "level_lower": 0, "level_upper": 145, "callout_x1": null, "callout_y1": null, "callout_x2": null, "callout_y2": null, "style": 20, "buffer": null }, "geometry": { "type": "Point", "coordinates": [ 0.872567329928166, 45.390630910738167 ] } },
{ "type": "Feature", "properties": { "fir": "LFBB", "identifier": "BE", "subsector_id": "BE", "name": "BE", "level_lower": 0, "level_upper": 75, "callout_x1": null, "callout_y1": null, "callout_x2": null, "callout_y2": null, "style": 20, "buffer": null }, "geometry": { "type": "Point", "coordinates": [ -0.074346811062222, 45.498688264634218 ] } },
{ "type": "Feature", "properties": { "fir": "LFBB", "identifier": "BW", "subsector_id": "BW", "name": "BW", "level_lower": 75, "level_upper": 145, "callout_x1": null, "callout_y1": null, "callout_x2": null, "callout_y2": null, "style": 21, "buffer": null }, "geometry": { "type": "Point", "coordinates": [ -0.074346811062222, 45.498688264634218 ] } },
{ "type": "Feature", "properties": { "fir": "LFMM", "identifier": "CY1", "subsector_id": "CY1", "name": "CY1", "level_lower": 0, "level_upper": 115, "callout_x1": null, "callout_y1": null, "callout_x2": null, "callout_y2": null, "style": 20, "buffer": null }, "geometry": { "type": "Point", "coordinates": [ 3.071575771806446, 46.530612988243931 ] } },
{ "type": "Feature", "properties": { "fir": "LFMM", "identifier": "CY1", "subsector_id": "CY1", "name": "CY1", "level_lower": 0, "level_upper": 115, "callout_x1": null, "callout_y1": null, "callout_x2": null, "callout_y2": null, "style": 20, "buffer": null }, "geometry": { "type": "Point", "coordinates": [ 3.37675593170395, 46.410787774051371 ] } },
{ "type": "Feature", "properties": { "fir": "LFMM", "identifier": "CF2", "subsector_id": "CF2", "name": "CF2", "level_lower": 115, "level_upper": 145, "callout_x1": null, "callout_y1": null, "callout_x2": null, "callout_y2": null, "style": 21, "buffer": null }, "geometry": { "type": "Point", "coordinates": [ 3.37675593170395, 46.410787774051371 ] } },
{ "type": "Feature", "properties": { "fir": "LFMM", "identifier": "CF1", "subsector_id": "CF1", "name": "CF1", "level_lower": 0, "level_upper": 145, "callout_x1": null, "callout_y1": null, "callout_x2": null, "callout_y2": null, "style": 20, "buffer": null }, "geometry": { "type": "Point", "coordinates": [ 2.737874101638146, 45.809691383203223 ] } },
{ "type": "Feature", "properties": { "fir": "LFMM", "identifier": "CN1", "subsector_id": "CN1", "name": "CN1", "level_lower": 0, "level_upper": 145, "callout_x1": null, "callout_y1": null, "callout_x2": null, "callout_y2": null, "style": 20, "buffer": null }, "geometry": { "type": "Point", "coordinates": [ 2.281529937305429, 45.272331625659262 ] } },
{ "type": "Feature", "properties": { "fir": "LFMM", "identifier": "CN1", "subsector_id": "CN1", "name": "CN1", "level_lower": 0, "level_upper": 145, "callout_x1": null, "callout_y1": null, "callout_x2": null, "callout_y2": null, "style": 20, "buffer": null }, "geometry": { "type": "Point", "coordinates": [ 1.457258290479459, 44.640611136726626 ] } },
{ "type": "Feature", "properties": { "fir": "LFFF", "identifier": "S", "subsector_id": "S", "name": "S", "level_lower": 0, "level_upper": 195, "callout_x1": null, "callout_y1": null, "callout_x2": null, "callout_y2": null, "style": 20, "buffer": null }, "geometry": { "type": "Point", "coordinates": [ 2.923263918398312, 46.878759264380463 ] } }
]
}
