{
"type": "FeatureCollection",
"name": "CCA_LFBH_BH_Labels",
"crs": { "type": "name", "properties": { "name": "urn:ogc:def:crs:OGC:1.3:CRS84" } },
"features": [
{ "type": "Feature", "properties": { "fir": "LFBB", "identifier": "LFBB:LA ROCHELLE BH:020-115", "subsector_id": "", "name": "BH", "level_lower": 0, "level_upper": 115, "callout_x1": null, "callout_y1": null, "callout_x2": null, "callout_y2": null, "style": 10, "buffer": null }, "geometry": { "type": "Point", "coordinates": [ -1.177407318519692, 46.363969415965656 ] } },
{ "type": "Feature", "properties": { "fir": "LFBB", "identifier": "LFBB:LA ROCHELLE BH:115-145", "subsector_id": "", "name": "BW", "level_lower": 115, "level_upper": 145, "callout_x1": null, "callout_y1": null, "callout_x2": null, "callout_y2": null, "style": 11, "buffer": null }, "geometry": { "type": "Point", "coordinates": [ -0.672497679337413, 45.905503766218523 ] } },
{ "type": "Feature", "properties": { "fir": "LFBB", "identifier": "BH", "subsector_id": "BH", "name": "BH", "level_lower": 0, "level_upper": 115, "callout_x1": null, "callout_y1": null, "callout_x2": null, "callout_y2": null, "style": 10, "buffer": null }, "geometry": { "type": "Point", "coordinates": [ -0.672497679337413, 45.905503766218523 ] } },
{ "type": "Feature", "properties": { "fir": "LFRR", "identifier": "LU", "subsector_id": "LU", "name": "LU", "level_lower": 115, "level_upper": 195, "callout_x1": null, "callout_y1": null, "callout_x2": null, "callout_y2": null, "style": 11, "buffer": null }, "geometry": { "type": "Point", "coordinates": [ -1.177407318519692, 46.363969415965656 ] } },
{ "type": "Feature", "properties": { "fir": "LFBB", "identifier": "BI", "subsector_id": "BI", "name": "BI", "level_lower": 0, "level_upper": 145, "callout_x1": null, "callout_y1": null, "callout_x2": null, "callout_y2": null, "style": 20, "buffer": null }, "geometry": { "type": "Point", "coordinates": [ -0.449641011008683, 46.140039436244017 ] } },
{ "type": "Feature", "properties": { "fir": "LFBB", "identifier": "BW", "subsector_id": "BW", "name": "BW", "level_lower": 0, "level_upper": 145, "callout_x1": null, "callout_y1": null, "callout_x2": null, "callout_y2": null, "style": 20, "buffer": null }, "geometry": { "type": "Point", "coordinates": [ -0.978925598289417, 45.529884390207776 ] } },
{ "type": "Feature", "properties": { "fir": "LFBB", "identifier": "BE", "subsector_id": "BE", "name": "BE", "level_lower": 0, "level_upper": 75, "callout_x1": null, "callout_y1": null, "callout_x2": null, "callout_y2": null, "style": 20, "buffer": null }, "geometry": { "type": "Point", "coordinates": [ -0.392185776205183, 45.568900692470045 ] } },
{ "type": "Feature", "properties": { "fir": "LFBB", "identifier": "BW", "subsector_id": "BW", "name": "BW", "level_lower": 75, "level_upper": 145, "callout_x1": null, "callout_y1": null, "callout_x2": null, "callout_y2": null, "style": 21, "buffer": null }, "geometry": { "type": "Point", "coordinates": [ -0.392185776205183, 45.568900692470045 ] } },
{ "type": "Feature", "properties": { "fir": "LFRR", "identifier": "NB", "subsector_id": "NB", "name": "NB", "level_lower": 0, "level_upper": 115, "callout_x1": null, "callout_y1": null, "callout_x2": null, "callout_y2": null, "style": 20, "buffer": null }, "geometry": { "type": "Point", "coordinates": [ -0.719506507813003, 46.494772359746626 ] } },
{ "type": "Feature", "properties": { "fir": "LFRR", "identifier": "NA", "subsector_id": "NA", "name": "NA", "level_lower": 0, "level_upper": 115, "callout_x1": null, "callout_y1": null, "callout_x2": null, "callout_y2": null, "style": 20, "buffer": null }, "geometry": { "type": "Point", "coordinates": [ -1.870352271604335, 46.26295296434624 ] } },
{ "type": "Feature", "properties": { "fir": "LFRR", "identifier": "NA", "subsector_id": "NA", "name": "NA", "level_lower": 0, "level_upper": 55, "callout_x1": null, "callout_y1": null, "callout_x2": null, "callout_y2": null, "style": 20, "buffer": null }, "geometry": { "type": "Point", "coordinates": [ -1.46816562797983, 46.573821578143125 ] } },
{ "type": "Feature", "properties": { "fir": "LFRR", "identifier": "NB", "subsector_id": "NB", "name": "NB", "level_lower": 0, "level_upper": 55, "callout_x1": null, "callout_y1": null, "callout_x2": null, "callout_y2": null, "style": 20, "buffer": null }, "geometry": { "type": "Point", "coordinates": [ -1.102541406503008, 46.594164105169405 ] } },
{ "type": "Feature", "properties": { "fir": "LFRR", "identifier": "RS", "subsector_id": "RS", "name": "RS", "level_lower": 55, "level_upper": 115, "callout_x1": null, "callout_y1": null, "callout_x2": null, "callout_y2": null, "style": 21, "buffer": null }, "geometry": { "type": "Point", "coordinates": [ -1.46816562797983, 46.573821578143125 ] } },
{ "type": "Feature", "properties": { "fir": "LFRR", "identifier": "RS", "subsector_id": "RS", "name": "RS", "level_lower": 55, "level_upper": 115, "callout_x1": null, "callout_y1": null, "callout_x2": null, "callout_y2": null, "style": 21, "buffer": null }, "geometry": { "type": "Point", "coordinates": [ -1.102541406503008, 46.594164105169405 ] } },
{ "type": "Feature", "properties": { "fir": "LFRR", "identifier": "LU", "subsector_id": "LU", "name": "LU", "level_lower": 115, "level_upper": 195, "callout_x1": null, "callout_y1": null, "callout_x2": null, "callout_y2": null, "style": 21, "buffer": null }, "geometry": { "type": "Point", "coordinates": [ -0.719506507813003, 46.494772359746626 ] } },
{ "type": "Feature", "properties": { "fir": "LFRR", "identifier": "LU", "subsector_id": "LU", "name": "LU", "level_lower": 115, "level_upper": 195, "callout_x1": null, "callout_y1": null, "callout_x2": null, "callout_y2": null, "style": 21, "buffer": null }, "geometry": { "type": "Point", "coordinates": [ -1.870352271604335, 46.26295296434624 ] } },
{ "type": "Feature", "properties": { "fir": "LFRR", "identifier": "LU", "subsector_id": "LU", "name": "LU", "level_lower": 115, "level_upper": 195, "callout_x1": null, "callout_y1": null, "callout_x2": null, "callout_y2": null, "style": 21, "buffer": null }, "geometry": { "type": "Point", "coordinates": [ -1.468223136710811, 46.592295722781088 ] } },
{ "type": "Feature", "properties": { "fir": "LFRR", "identifier": "LU", "subsector_id": "LU", "name": "LU", "level_lower": 115, "level_upper": 195, "callout_x1": null, "callout_y1": null, "callout_x2": null, "callout_y2": null, "style": 21, "buffer": null }, "geometry": { "type": "Point", "coordinates": [ -1.101317865145663, 46.614174448676373 ] } },
{ "type": "Feature", "properties": { "fir": "LFRR", "identifier": "GS1", "subsector_id": "GS1", "name": "GS1", "level_lower": 0, "level_upper": 195, "callout_x1": null, "callout_y1": null, "callout_x2": null, "callout_y2": null, "style": 20, "buffer": null }, "geometry": { "type": "Point", "coordinates": [ -1.830974763692202, 45.805530904077358 ] } }
]
}
