{
"type": "FeatureCollection",
"name": "CCA_LFMM_W1_1_195-245_Labels",
"crs": { "type": "name", "properties": { "name": "urn:ogc:def:crs:OGC:1.3:CRS84" } },
"features": [
{ "type": "Feature", "properties": { "fir": "LFMM", "identifier": "LFMM:W1 1 UAC", "subsector_id": "", "name": "W1 1", "level_lower": 195, "level_upper": 245, "callout_x1": null, "callout_y1": null, "callout_x2": null, "callout_y2": null, "style": 10, "buffer": null }, "geometry": { "type": "Point", "coordinates": [ 4.77077580179189, 44.476916666666668 ] } }
]
}
