{
"type": "FeatureCollection",
"name": "CCA_LFBB_Z_Labels",
"crs": { "type": "name", "properties": { "name": "urn:ogc:def:crs:OGC:1.3:CRS84" } },
"features": [
{ "type": "Feature", "properties": { "fir": "LFBB", "identifier": "Z1", "subsector_id": "Z1", "name": "Z1", "level_lower": 195, "level_upper": 295, "callout_x1": null, "callout_y1": null, "callout_x2": null, "callout_y2": null, "style": 30, "buffer": null }, "geometry": { "type": "Point", "coordinates": [ -0.764608915165163, 43.87277777777777 ] } },
{ "type": "Feature", "properties": { "fir": "LFBB", "identifier": "Z2", "subsector_id": "Z2", "name": "Z2", "level_lower": 295, "level_upper": 345, "callout_x1": null, "callout_y1": null, "callout_x2": null, "callout_y2": null, "style": 31, "buffer": null }, "geometry": { "type": "Point", "coordinates": [ -0.764608915165163, 43.87277777777777 ] } },
{ "type": "Feature", "properties": { "fir": "LFBB", "identifier": "Z3", "subsector_id": "Z3", "name": "Z3", "level_lower": 345, "level_upper": 365, "callout_x1": null, "callout_y1": null, "callout_x2": null, "callout_y2": null, "style": 32, "buffer": null }, "geometry": { "type": "Point", "coordinates": [ -0.764608915165163, 43.87277777777777 ] } },
{ "type": "Feature", "properties": { "fir": "LFBB", "identifier": "Z4", "subsector_id": "Z4", "name": "Z4", "level_lower": 365, "level_upper": 385, "callout_x1": null, "callout_y1": null, "callout_x2": null, "callout_y2": null, "style": 33, "buffer": null }, "geometry": { "type": "Point", "coordinates": [ -0.764608915165163, 43.87277777777777 ] } },
{ "type": "Feature", "properties": { "fir": "LFBB", "identifier": "Z5", "subsector_id": "Z5", "name": "Z5", "level_lower": 385, "level_upper": 660, "callout_x1": null, "callout_y1": null, "callout_x2": null, "callout_y2": null, "style": 34, "buffer": null }, "geometry": { "type": "Point", "coordinates": [ -0.764608915165163, 43.87277777777777 ] } }
]
}
