{
"type": "FeatureCollection",
"name": "CCA_LFBB_BN_Labels",
"crs": { "type": "name", "properties": { "name": "urn:ogc:def:crs:OGC:1.3:CRS84" } },
"features": [
{ "type": "Feature", "properties": { "fir": "LFBB", "identifier": "LFBB:BN UAC:145-195", "subsector_id": "", "name": "BN UAC", "level_lower": 145, "level_upper": 195, "callout_x1": -0.81523572750461559, "callout_y1": 45.530554166666661, "callout_x2": -0.81523572750461559, "callout_y2": 45.530554166666661, "style": 10, "buffer": 1 }, "geometry": { "type": "Point", "coordinates": [ -0.815235727504616, 45.530554166666661 ] } }
]
}
