{
"type": "FeatureCollection",
"name": "CCA_LFRR_M_Labels",
"crs": { "type": "name", "properties": { "name": "urn:ogc:def:crs:OGC:1.3:CRS84" } },
"features": [
{ "type": "Feature", "properties": { "fir": "LFRR", "identifier": "MS", "subsector_id": "MS", "name": "MS", "level_lower": 295, "level_upper": 345, "callout_x1": "0.4560", "callout_y1": "50.5972", "callout_x2": "0.8833", "callout_y2": "49.8000", "style": 30, "buffer": null }, "geometry": { "type": "Point", "coordinates": [ 0.44693949521133, 50.861940459585135 ] } },
{ "type": "Feature", "properties": { "fir": "LFRR", "identifier": "MI", "subsector_id": "MI", "name": "MI", "level_lower": 345, "level_upper": 365, "callout_x1": null, "callout_y1": null, "callout_x2": null, "callout_y2": null, "style": 31, "buffer": null }, "geometry": { "type": "Point", "coordinates": [ 0.44693949521133, 50.861940459585135 ] } },
{ "type": "Feature", "properties": { "fir": "LFRR", "identifier": "MU", "subsector_id": "MU", "name": "MU", "level_lower": 365, "level_upper": 660, "callout_x1": null, "callout_y1": null, "callout_x2": null, "callout_y2": null, "style": 32, "buffer": null }, "geometry": { "type": "Point", "coordinates": [ 0.44693949521133, 50.861940459585135 ] } }
]
}
