{
"type": "FeatureCollection",
"name": "CCA_LFRR_Z_RR_Labels",
"crs": { "type": "name", "properties": { "name": "urn:ogc:def:crs:OGC:1.3:CRS84" } },
"features": [
{ "type": "Feature", "properties": { "fir": "LFRR", "identifier": "ZS", "subsector_id": "ZS", "name": "ZS", "level_lower": 295, "level_upper": 345, "callout_x1": null, "callout_y1": null, "callout_x2": null, "callout_y2": null, "style": 30, "buffer": null }, "geometry": { "type": "Point", "coordinates": [ 2.060633068501143, 48.675193642232124 ] } },
{ "type": "Feature", "properties": { "fir": "LFRR", "identifier": "ZI", "subsector_id": "ZI", "name": "ZI", "level_lower": 345, "level_upper": 365, "callout_x1": null, "callout_y1": null, "callout_x2": null, "callout_y2": null, "style": 31, "buffer": null }, "geometry": { "type": "Point", "coordinates": [ 2.060633068501143, 48.675193642232124 ] } },
{ "type": "Feature", "properties": { "fir": "LFRR", "identifier": "ZU", "subsector_id": "ZU", "name": "ZU", "level_lower": 365, "level_upper": 660, "callout_x1": null, "callout_y1": null, "callout_x2": null, "callout_y2": null, "style": 32, "buffer": null }, "geometry": { "type": "Point", "coordinates": [ 2.060633068501143, 48.675193642232124 ] } }
]
}
