{
"type": "FeatureCollection",
"name": "CCA_LFMM_F_FL245-FL660_Labels",
"crs": { "type": "name", "properties": { "name": "urn:ogc:def:crs:OGC:1.3:CRS84" } },
"features": [
{ "type": "Feature", "properties": { "fir": "LFMM", "identifier": "LFMM:F UAC", "subsector_id": "", "name": "F1", "level_lower": 245, "level_upper": 335, "callout_x1": null, "callout_y1": null, "callout_x2": null, "callout_y2": null, "style": 30, "buffer": null }, "geometry": { "type": "Point", "coordinates": [ 5.603652057146816, 42.30194258087684 ] } },
{ "type": "Feature", "properties": { "fir": "LFMM", "identifier": null, "subsector_id": null, "name": "F2", "level_lower": 335, "level_upper": 355, "callout_x1": null, "callout_y1": null, "callout_x2": null, "callout_y2": null, "style": 31, "buffer": null }, "geometry": { "type": "Point", "coordinates": [ 5.603652057146816, 42.30194258087684 ] } },
{ "type": "Feature", "properties": { "fir": "LFMM", "identifier": null, "subsector_id": null, "name": "F3", "level_lower": 355, "level_upper": 375, "callout_x1": null, "callout_y1": null, "callout_x2": null, "callout_y2": null, "style": 32, "buffer": null }, "geometry": { "type": "Point", "coordinates": [ 5.603652057146816, 42.30194258087684 ] } },
{ "type": "Feature", "properties": { "fir": "LFMM", "identifier": null, "subsector_id": null, "name": "F4", "level_lower": 375, "level_upper": 660, "callout_x1": null, "callout_y1": null, "callout_x2": null, "callout_y2": null, "style": 33, "buffer": null }, "geometry": { "type": "Point", "coordinates": [ 5.603652057146816, 42.30194258087684 ] } }
]
}
