{
"type": "FeatureCollection",
"name": "CCA_LFBB_LM_Labels",
"crs": { "type": "name", "properties": { "name": "urn:ogc:def:crs:OGC:1.3:CRS84" } },
"features": [
{ "type": "Feature", "properties": { "fir": "LFBB", "identifier": "LFBB:LM UAC:145-195", "subsector_id": "", "name": "LM UAC", "level_lower": 145, "level_upper": 195, "callout_x1": 1.36711047292674, "callout_y1": 45.776111111111106, "callout_x2": 1.36711047292674, "callout_y2": 45.776111111111106, "style": 10, "buffer": 1 }, "geometry": { "type": "Point", "coordinates": [ 1.36711047292674, 45.776111111111106 ] } }
]
}
