{
"type": "FeatureCollection",
"name": "CCA_LFBB_T_Labels",
"crs": { "type": "name", "properties": { "name": "urn:ogc:def:crs:OGC:1.3:CRS84" } },
"features": [
{ "type": "Feature", "properties": { "fir": "LFBB", "identifier": "T1", "subsector_id": "T1", "name": "T1", "level_lower": 195, "level_upper": 295, "callout_x1": null, "callout_y1": null, "callout_x2": null, "callout_y2": null, "style": 30, "buffer": null }, "geometry": { "type": "Point", "coordinates": [ 3.109723291793629, 45.302807282900481 ] } },
{ "type": "Feature", "properties": { "fir": "LFBB", "identifier": "T2", "subsector_id": "T2", "name": "T2", "level_lower": 295, "level_upper": 345, "callout_x1": null, "callout_y1": null, "callout_x2": null, "callout_y2": null, "style": 31, "buffer": null }, "geometry": { "type": "Point", "coordinates": [ 3.109723291793629, 45.302807282900481 ] } },
{ "type": "Feature", "properties": { "fir": "LFBB", "identifier": "T3", "subsector_id": "T3", "name": "T3", "level_lower": 345, "level_upper": 365, "callout_x1": null, "callout_y1": null, "callout_x2": null, "callout_y2": null, "style": 32, "buffer": null }, "geometry": { "type": "Point", "coordinates": [ 3.109723291793629, 45.302807282900481 ] } },
{ "type": "Feature", "properties": { "fir": "LFBB", "identifier": "T4", "subsector_id": "T4", "name": "T4", "level_lower": 365, "level_upper": 385, "callout_x1": null, "callout_y1": null, "callout_x2": null, "callout_y2": null, "style": 33, "buffer": null }, "geometry": { "type": "Point", "coordinates": [ 3.109723291793629, 45.302807282900481 ] } },
{ "type": "Feature", "properties": { "fir": "LFBB", "identifier": "T5", "subsector_id": "T5", "name": "T5", "level_lower": 385, "level_upper": 660, "callout_x1": null, "callout_y1": null, "callout_x2": null, "callout_y2": null, "style": 34, "buffer": null }, "geometry": { "type": "Point", "coordinates": [ 3.109723291793629, 45.302807282900481 ] } }
]
}
