{
"type": "FeatureCollection",
"name": "CCA_LFRR_V_Labels",
"crs": { "type": "name", "properties": { "name": "urn:ogc:def:crs:OGC:1.3:CRS84" } },
"features": [
{ "type": "Feature", "properties": { "fir": "LFRR", "identifier": "VS", "subsector_id": "VS", "name": "VS", "level_lower": 195, "level_upper": 355, "callout_x1": null, "callout_y1": null, "callout_x2": null, "callout_y2": null, "style": 30, "buffer": null }, "geometry": { "type": "Point", "coordinates": [ -3.130460060222704, 49.260073817022963 ] } },
{ "type": "Feature", "properties": { "fir": "LFRR", "identifier": "VI", "subsector_id": "VI", "name": "VI", "level_lower": 355, "level_upper": 375, "callout_x1": null, "callout_y1": null, "callout_x2": null, "callout_y2": null, "style": 31, "buffer": null }, "geometry": { "type": "Point", "coordinates": [ -3.130460060222704, 49.260073817022963 ] } },
{ "type": "Feature", "properties": { "fir": "LFRR", "identifier": "VU", "subsector_id": "VU", "name": "VU", "level_lower": 375, "level_upper": 660, "callout_x1": null, "callout_y1": null, "callout_x2": null, "callout_y2": null, "style": 32, "buffer": null }, "geometry": { "type": "Point", "coordinates": [ -3.130460060222704, 49.260073817022963 ] } }
]
}
