{
"type": "FeatureCollection",
"name": "CCA_LFMM_LE2_195-245_Labels",
"crs": { "type": "name", "properties": { "name": "urn:ogc:def:crs:OGC:1.3:CRS84" } },
"features": [
{ "type": "Feature", "properties": { "fir": "LFMM", "identifier": "LFMM:LE2 UAC-04", "subsector_id": "", "name": "LE 2", "level_lower": 195, "level_upper": 245, "callout_x1": null, "callout_y1": null, "callout_x2": null, "callout_y2": null, "style": 10, "buffer": null }, "geometry": { "type": "Point", "coordinates": [ 5.877061133443387, 45.511279157409298 ] } }
]
}
