{
"type": "FeatureCollection",
"name": "CCA_LFBO_AW_Labels",
"crs": { "type": "name", "properties": { "name": "urn:ogc:def:crs:OGC:1.3:CRS84" } },
"features": [
{ "type": "Feature", "properties": { "fir": "LFBB", "identifier": "LFBB:TOULOUSE AW:000-145", "subsector_id": "", "name": "AW", "level_lower": 0, "level_upper": 145, "callout_x1": 1.430797415296301, "callout_y1": 42.754027777777779, "callout_x2": 1.430797415296301, "callout_y2": 42.754027777777779, "style": 10, "buffer": null }, "geometry": { "type": "Point", "coordinates": [ 1.324633267720264, 42.879555533769398 ] } },
{ "type": "Feature", "properties": { "fir": "LFBB", "identifier": "LFBB:TOULOUSE AW:020-075", "subsector_id": "", "name": "WB", "level_lower": 0, "level_upper": 75, "callout_x1": 1.1237883462502738, "callout_y1": 43.747083333333329, "callout_x2": 1.1237883462502738, "callout_y2": 43.747083333333329, "style": 10, "buffer": null }, "geometry": { "type": "Point", "coordinates": [ 0.832280696670669, 44.285657864173103 ] } },
{ "type": "Feature", "properties": { "fir": "LFBB", "identifier": "LFBB:TOULOUSE AW:075-145", "subsector_id": "", "name": "AW", "level_lower": 75, "level_upper": 145, "callout_x1": 1.062348639451016, "callout_y1": 43.72347222222222, "callout_x2": 1.062348639451016, "callout_y2": 43.72347222222222, "style": 11, "buffer": null }, "geometry": { "type": "Point", "coordinates": [ 0.832280696670669, 44.285657864173103 ] } },
{ "type": "Feature", "properties": { "fir": "LFBB", "identifier": "LFBB:TOULOUSE AW:115-145", "subsector_id": "", "name": "AW", "level_lower": 115, "level_upper": 145, "callout_x1": 1.165485861111111, "callout_y1": 44.423055555555557, "callout_x2": 1.165485861111111, "callout_y2": 44.423055555555557, "style": 11, "buffer": null }, "geometry": { "type": "Point", "coordinates": [ 0.920697378510132, 44.637820664099891 ] } },
{ "type": "Feature", "properties": { "fir": "LFMM", "identifier": "CN2", "subsector_id": "CN2", "name": "CN2", "level_lower": 0, "level_upper": 115, "callout_x1": 0.9649, "callout_y1": 44.5556, "callout_x2": 1.1589, "callout_y2": 44.4152, "style": 50, "buffer": null }, "geometry": { "type": "Point", "coordinates": [ 0.920697378510132, 44.637820664099891 ] } },
{ "type": "Feature", "properties": { "fir": "LFBB", "identifier": "AW", "subsector_id": "AW", "name": "AW", "level_lower": 0, "level_upper": 145, "callout_x1": null, "callout_y1": null, "callout_x2": null, "callout_y2": null, "style": 10, "buffer": null }, "geometry": { "type": "Point", "coordinates": [ 1.15029553619003, 43.954987855233369 ] } }
]
}
