{
"type": "FeatureCollection",
"name": "CCA_LFBO_AE_Labels",
"crs": { "type": "name", "properties": { "name": "urn:ogc:def:crs:OGC:1.3:CRS84" } },
"features": [
{ "type": "Feature", "properties": { "fir": "LFBB", "identifier": "LFBB:TOULOUSE AE:000-145", "subsector_id": "", "name": "AE", "level_lower": 0, "level_upper": 145, "callout_x1": null, "callout_y1": null, "callout_x2": null, "callout_y2": null, "style": 10, "buffer": null }, "geometry": { "type": "Point", "coordinates": [ 1.916098086960871, 42.740674817166756 ] } },
{ "type": "Feature", "properties": { "fir": "LFBB", "identifier": "LFBB:TOULOUSE AE:020-075", "subsector_id": "", "name": "AE", "level_lower": 0, "level_upper": 145, "callout_x1": null, "callout_y1": null, "callout_x2": null, "callout_y2": null, "style": 10, "buffer": null }, "geometry": { "type": "Point", "coordinates": [ 1.522501245223903, 43.958067607858482 ] } },
{ "type": "Feature", "properties": { "fir": "LFBB", "identifier": "LFBB:TOULOUSE AE:075-145", "subsector_id": "", "name": "EB", "level_lower": 0, "level_upper": 75, "callout_x1": null, "callout_y1": null, "callout_x2": null, "callout_y2": null, "style": 10, "buffer": null }, "geometry": { "type": "Point", "coordinates": [ 2.301138475616601, 43.698812017197042 ] } },
{ "type": "Feature", "properties": { "fir": "LFBB", "identifier": "LFBB:TOULOUSE AE:115-145", "subsector_id": "", "name": "AE", "level_lower": 115, "level_upper": 145, "callout_x1": null, "callout_y1": null, "callout_x2": null, "callout_y2": null, "style": 11, "buffer": null }, "geometry": { "type": "Point", "coordinates": [ 2.329659985887395, 42.688284858745924 ] } },
{ "type": "Feature", "properties": { "fir": "LFMM", "identifier": "FA3", "subsector_id": "FA3", "name": "FA3", "level_lower": 0, "level_upper": 115, "callout_x1": null, "callout_y1": null, "callout_x2": null, "callout_y2": null, "style": 50, "buffer": null }, "geometry": { "type": "Point", "coordinates": [ 2.329659985887395, 42.688284858745924 ] } },
{ "type": "Feature", "properties": { "fir": "LFBB", "identifier": "AE", "subsector_id": "AE", "name": "AE", "level_lower": 75, "level_upper": 145, "callout_x1": null, "callout_y1": null, "callout_x2": null, "callout_y2": null, "style": 11, "buffer": null }, "geometry": { "type": "Point", "coordinates": [ 2.301138475616601, 43.698812017197042 ] } },
{ "type": "Feature", "properties": { "fir": "LFMM", "identifier": "CN2", "subsector_id": "CN2", "name": "CN2", "level_lower": 0, "level_upper": 115, "callout_x1": "1.8091", "callout_y1": "44.5088", "callout_x2": "1.6066", "callout_y2": "44.3948", "style": 50, "buffer": null }, "geometry": { "type": "Point", "coordinates": [ 1.86475936847344, 44.582998737964687 ] } },
{ "type": "Feature", "properties": { "fir": "LFBB", "identifier": "AE", "subsector_id": "AE", "name": "AE", "level_lower": 115, "level_upper": 145, "callout_x1": null, "callout_y1": null, "callout_x2": null, "callout_y2": null, "style": 11, "buffer": null }, "geometry": { "type": "Point", "coordinates": [ 1.86475936847344, 44.582998737964687 ] } },
{ "type": "Feature", "properties": { "fir": "LFBB", "identifier": "EB", "subsector_id": "EB", "name": "EB", "level_lower": 0, "level_upper": 75, "callout_x1": "2.6572", "callout_y1": "43.1138", "callout_x2": "2.5635", "callout_y2": "43.1811", "style": 30, "buffer": null }, "geometry": { "type": "Point", "coordinates": [ 2.74322188481392, 43.047832913852957 ] } },
{ "type": "Feature", "properties": { "fir": "LFMM", "identifier": "FA2", "subsector_id": "FA2", "name": "FA2", "level_lower": 75, "level_upper": 115, "callout_x1": null, "callout_y1": null, "callout_x2": null, "callout_y2": null, "style": 51, "buffer": null }, "geometry": { "type": "Point", "coordinates": [ 2.74322188481392, 43.047832913852957 ] } },
{ "type": "Feature", "properties": { "fir": "LFBO", "identifier": null, "subsector_id": null, "name": "AE", "level_lower": 115, "level_upper": 145, "callout_x1": null, "callout_y1": null, "callout_x2": null, "callout_y2": null, "style": 32, "buffer": null }, "geometry": { "type": "Point", "coordinates": [ 2.74322188481392, 43.047832913852957 ] } }
]
}
