{
"type": "FeatureCollection",
"name": "CCA_LFRB_Labels",
"crs": { "type": "name", "properties": { "name": "urn:ogc:def:crs:OGC:1.3:CRS84" } },
"xy_coordinate_resolution": 1e-15,
"features": [
{ "type": "Feature", "properties": { "fir": "LFRN", "identifier": null, "subsector_id": null, "name": "JD", "level_lower": "0", "level_upper": "115", "callout_x1": null, "callout_y1": null, "callout_x2": null, "callout_y2": null, "style": 30, "buffer": null }, "geometry": { "type": "Point", "coordinates": [ 0.152201903541333, 49.620236688179801 ] } },
{ "type": "Feature", "properties": { "fir": "LFFF", "identifier": null, "subsector_id": null, "name": "TP", "level_lower": "115", "level_upper": "195", "callout_x1": null, "callout_y1": null, "callout_x2": null, "callout_y2": null, "style": 51, "buffer": null }, "geometry": { "type": "Point", "coordinates": [ 0.152201903541333, 49.620236688179801 ] } },
{ "type": "Feature", "properties": { "fir": "LFRN", "identifier": null, "subsector_id": null, "name": "JC", "level_lower": "0", "level_upper": "25", "callout_x1": null, "callout_y1": null, "callout_x2": null, "callout_y2": null, "style": 30, "buffer": null }, "geometry": { "type": "Point", "coordinates": [ -0.467763223377556, 49.208290690421578 ] } },
{ "type": "Feature", "properties": { "fir": "LFRN", "identifier": null, "subsector_id": null, "name": "JD", "level_lower": "25", "level_upper": "115", "callout_x1": null, "callout_y1": null, "callout_x2": null, "callout_y2": null, "style": 31, "buffer": null }, "geometry": { "type": "Point", "coordinates": [ -0.467763223377556, 49.208290690421578 ] } },
{ "type": "Feature", "properties": { "fir": "LFRN", "identifier": null, "subsector_id": null, "name": "JC", "level_lower": "115", "level_upper": "195", "callout_x1": null, "callout_y1": null, "callout_x2": null, "callout_y2": null, "style": 32, "buffer": null }, "geometry": { "type": "Point", "coordinates": [ -0.467763223377556, 49.208290690421578 ] } },
{ "type": "Feature", "properties": { "fir": "LFRN", "identifier": null, "subsector_id": null, "name": "JC", "level_lower": "0", "level_upper": "195", "callout_x1": null, "callout_y1": null, "callout_x2": null, "callout_y2": null, "style": 30, "buffer": null }, "geometry": { "type": "Point", "coordinates": [ -1.008992117528731, 49.560617920234456 ] } },
{ "type": "Feature", "properties": { "fir": "LFRN", "identifier": null, "subsector_id": null, "name": "DD", "level_lower": "0", "level_upper": "115", "callout_x1": null, "callout_y1": null, "callout_x2": null, "callout_y2": null, "style": 30, "buffer": null }, "geometry": { "type": "Point", "coordinates": [ -2.750452324626401, 48.650147298979462 ] } },
{ "type": "Feature", "properties": { "fir": "LFRB", "identifier": null, "subsector_id": null, "name": "IQ", "level_lower": "115", "level_upper": "195", "callout_x1": null, "callout_y1": null, "callout_x2": null, "callout_y2": null, "style": 51, "buffer": null }, "geometry": { "type": "Point", "coordinates": [ -2.750452324626401, 48.650147298979462 ] } },
{ "type": "Feature", "properties": { "fir": "LFRB", "identifier": null, "subsector_id": null, "name": "DD", "level_lower": "0", "level_upper": "115", "callout_x1": null, "callout_y1": null, "callout_x2": null, "callout_y2": null, "style": 30, "buffer": null }, "geometry": { "type": "Point", "coordinates": [ -1.540957925471941, 48.693840532162135 ] } },
{ "type": "Feature", "properties": { "fir": "LFRN", "identifier": null, "subsector_id": null, "name": "RN", "level_lower": "115", "level_upper": "195", "callout_x1": null, "callout_y1": null, "callout_x2": null, "callout_y2": null, "style": 31, "buffer": null }, "geometry": { "type": "Point", "coordinates": [ -1.540957925471941, 48.693840532162135 ] } },
{ "type": "Feature", "properties": { "fir": "LFRN", "identifier": null, "subsector_id": null, "name": "RN", "level_lower": "0", "level_upper": "115", "callout_x1": "-3.0778", "callout_y1": "47.9756", "callout_x2": "-2.6755", "callout_y2": "48.1984", "style": 30, "buffer": null }, "geometry": { "type": "Point", "coordinates": [ -3.163321309895756, 47.982226311706512 ] } },
{ "type": "Feature", "properties": { "fir": "LFRB", "identifier": null, "subsector_id": null, "name": "IQ", "level_lower": "115", "level_upper": "195", "callout_x1": null, "callout_y1": null, "callout_x2": null, "callout_y2": null, "style": 51, "buffer": null }, "geometry": { "type": "Point", "coordinates": [ -3.163321309895756, 47.982226311706512 ] } },
{ "type": "Feature", "properties": { "fir": "LFRN", "identifier": null, "subsector_id": null, "name": "RN", "level_lower": "0", "level_upper": "65", "callout_x1": "0.7756", "callout_y1": "48.8992", "callout_x2": "0.2860", "callout_y2": "48.7598", "style": 30, "buffer": null }, "geometry": { "type": "Point", "coordinates": [ 1.003744185659382, 48.898691366148114 ] } },
{ "type": "Feature", "properties": { "fir": "LFRN", "identifier": null, "subsector_id": null, "name": "JD", "level_lower": "65", "level_upper": "115", "callout_x1": null, "callout_y1": null, "callout_x2": null, "callout_y2": null, "style": 31, "buffer": null }, "geometry": { "type": "Point", "coordinates": [ 1.003744185659382, 48.898691366148114 ] } },
{ "type": "Feature", "properties": { "fir": "LFFF", "identifier": null, "subsector_id": null, "name": "TH", "level_lower": "115", "level_upper": "195", "callout_x1": null, "callout_y1": null, "callout_x2": null, "callout_y2": null, "style": 52, "buffer": null }, "geometry": { "type": "Point", "coordinates": [ 1.003744185659382, 48.898691366148114 ] } },
{ "type": "Feature", "properties": { "fir": "LFRN", "identifier": "", "subsector_id": null, "name": "RN", "level_lower": "0", "level_upper": "115", "callout_x1": "0.1987", "callout_y1": "48.1896", "callout_x2": "0.0267", "callout_y2": "48.5044", "style": 30, "buffer": null }, "geometry": { "type": "Point", "coordinates": [ 0.228291540249629, 48.123754079706423 ] } },
{ "type": "Feature", "properties": { "fir": "LFFF", "identifier": null, "subsector_id": null, "name": "TH", "level_lower": "115", "level_upper": "195", "callout_x1": null, "callout_y1": null, "callout_x2": null, "callout_y2": null, "style": 51, "buffer": null }, "geometry": { "type": "Point", "coordinates": [ 0.228291540249629, 48.123754079706423 ] } },
{ "type": "Feature", "properties": { "fir": "LFRN", "identifier": null, "subsector_id": null, "name": "RN", "level_lower": "0", "level_upper": "115", "callout_x1": "-2.7232", "callout_y1": "47.5647", "callout_x2": "-2.0006", "callout_y2": "47.7644", "style": 30, "buffer": null }, "geometry": { "type": "Point", "coordinates": [ -2.815293928082164, 47.567809139006783 ] } },
{ "type": "Feature", "properties": { "fir": "LFRS", "identifier": null, "subsector_id": null, "name": "LU", "level_lower": "115", "level_upper": "195", "callout_x1": null, "callout_y1": null, "callout_x2": null, "callout_y2": null, "style": 51, "buffer": null }, "geometry": { "type": "Point", "coordinates": [ -2.815293928082164, 47.567809139006783 ] } },
{ "type": "Feature", "properties": { "fir": "LFRN", "identifier": null, "subsector_id": null, "name": "RN", "level_lower": "0", "level_upper": "195", "callout_x1": null, "callout_y1": null, "callout_x2": null, "callout_y2": null, "style": 30, "buffer": null }, "geometry": { "type": "Point", "coordinates": [ -1.280268213619173, 48.203192541410495 ] } }
]
}
