{
"type": "FeatureCollection",
"name": "CCA_LFMM_ML2_195-245_Labels",
"crs": { "type": "name", "properties": { "name": "urn:ogc:def:crs:OGC:1.3:CRS84" } },
"features": [
{ "type": "Feature", "properties": { "fir": "LFMM", "identifier": "LFMM:ML2 UAC", "subsector_id": "", "name": "ML 2", "level_lower": 195, "level_upper": 245, "callout_x1": null, "callout_y1": null, "callout_x2": null, "callout_y2": null, "style": 10, "buffer": null }, "geometry": { "type": "Point", "coordinates": [ 4.810358365355577, 42.580261111111113 ] } }
]
}
