{
"type": "FeatureCollection",
"name": "CCA_LFMM_ZL1_SFC-195_Labels",
"crs": { "type": "name", "properties": { "name": "urn:ogc:def:crs:OGC:1.3:CRS84" } },
"features": [
{ "type": "Feature", "properties": { "fir": "LFMM", "identifier": "LFMM:ZL1 UAC", "subsector_id": "", "name": "ZL 1", "level_lower": 0, "level_upper": 195, "callout_x1": null, "callout_y1": null, "callout_x2": null, "callout_y2": null, "style": 10, "buffer": null }, "geometry": { "type": "Point", "coordinates": [ 6.33501807884007, 39.853194444444441 ] } }
]
}
