{
"type": "FeatureCollection",
"name": "CCA_LFKB_Labels",
"crs": { "type": "name", "properties": { "name": "urn:ogc:def:crs:OGC:1.3:CRS84" } },
"xy_coordinate_resolution": 1e-15,
"features": [
{ "type": "Feature", "properties": { "fir": "LFMT", "identifier": null, "subsector_id": null, "name": "FA3", "level_lower": "0", "level_upper": "115", "callout_x1": null, "callout_y1": null, "callout_x2": null, "callout_y2": null, "style": 30, "buffer": null }, "geometry": { "type": "Point", "coordinates": [ 2.836915434324832, 42.619551312142654 ] } },
{ "type": "Feature", "properties": { "fir": "LFMM", "identifier": null, "subsector_id": null, "name": "ML1", "level_lower": "115", "level_upper": "145", "callout_x1": null, "callout_y1": null, "callout_x2": null, "callout_y2": null, "style": 31, "buffer": null }, "geometry": { "type": "Point", "coordinates": [ 2.836915434324832, 42.619551312142654 ] } },
{ "type": "Feature", "properties": { "fir": "LFMT", "identifier": null, "subsector_id": null, "name": "FA1", "level_lower": "0", "level_upper": "145", "callout_x1": null, "callout_y1": null, "callout_x2": null, "callout_y2": null, "style": 30, "buffer": null }, "geometry": { "type": "Point", "coordinates": [ 3.134808905513629, 43.178555119290195 ] } },
{ "type": "Feature", "properties": { "fir": "LFBO", "identifier": null, "subsector_id": null, "name": "EB", "level_lower": "0", "level_upper": "75", "callout_x1": "2.3227", "callout_y1": "43.2351", "callout_x2": "2.5676", "callout_y2": "43.1815", "style": 30, "buffer": null }, "geometry": { "type": "Point", "coordinates": [ 2.273981483484357, 43.304687209603493 ] } },
{ "type": "Feature", "properties": { "fir": "LFMT", "identifier": null, "subsector_id": null, "name": "FA2", "level_lower": "75", "level_upper": "115", "callout_x1": null, "callout_y1": null, "callout_x2": null, "callout_y2": null, "style": 31, "buffer": null }, "geometry": { "type": "Point", "coordinates": [ 2.273981483484357, 43.304687209603493 ] } },
{ "type": "Feature", "properties": { "fir": "LFBO", "identifier": null, "subsector_id": null, "name": "AE", "level_lower": "115", "level_upper": "145", "callout_x1": null, "callout_y1": null, "callout_x2": null, "callout_y2": null, "style": 32, "buffer": null }, "geometry": { "type": "Point", "coordinates": [ 2.273981483484357, 43.304687209603493 ] } },
{ "type": "Feature", "properties": { "fir": "LFMT", "identifier": null, "subsector_id": null, "name": "FE1", "level_lower": "0", "level_upper": "145", "callout_x1": null, "callout_y1": null, "callout_x2": null, "callout_y2": null, "style": 30, "buffer": null }, "geometry": { "type": "Point", "coordinates": [ 3.640819733286381, 43.779647284076205 ] } },
{ "type": "Feature", "properties": { "fir": "LFMT", "identifier": null, "subsector_id": null, "name": "FE2", "level_lower": "0", "level_upper": "75", "callout_x1": "4.6284", "callout_y1": "44.1087", "callout_x2": "4.4733", "callout_y2": "43.9679", "style": 30, "buffer": null }, "geometry": { "type": "Point", "coordinates": [ 4.652675440068644, 44.184486596676415 ] } },
{ "type": "Feature", "properties": { "fir": "LFML", "identifier": null, "subsector_id": null, "name": "MB", "level_lower": "75", "level_upper": "145", "callout_x1": null, "callout_y1": null, "callout_x2": null, "callout_y2": null, "style": 31, "buffer": null }, "geometry": { "type": "Point", "coordinates": [ 4.652675440068644, 44.184486596676415 ] } },
{ "type": "Feature", "properties": { "fir": "LFMT", "identifier": null, "subsector_id": null, "name": "FE3", "level_lower": "0", "level_upper": "115", "callout_x1": "4.0162", "callout_y1": "44.0325", "callout_x2": "4.1346", "callout_y2": "43.5169", "style": 30, "buffer": null }, "geometry": { "type": "Point", "coordinates": [ 4.008089307948682, 44.116953863615173 ] } },
{ "type": "Feature", "properties": { "fir": "LFML", "identifier": null, "subsector_id": null, "name": "MAC", "level_lower": "115", "level_upper": "145", "callout_x1": null, "callout_y1": null, "callout_x2": null, "callout_y2": null, "style": 31, "buffer": null }, "geometry": { "type": "Point", "coordinates": [ 4.008089307948682, 44.116953863615173 ] } },
{ "type": "Feature", "properties": { "fir": "LFMT", "identifier": null, "subsector_id": null, "name": "FE4", "level_lower": "0", "level_upper": "95", "callout_x1": "4.6855", "callout_y1": "43.4280", "callout_x2": "4.3754", "callout_y2": "43.4547", "style": 30, "buffer": null }, "geometry": { "type": "Point", "coordinates": [ 4.863734616072525, 43.414592235307339 ] } },
{ "type": "Feature", "properties": { "fir": "LFML", "identifier": null, "subsector_id": null, "name": "MAC", "level_lower": "95", "level_upper": "145", "callout_x1": null, "callout_y1": null, "callout_x2": null, "callout_y2": null, "style": 31, "buffer": null }, "geometry": { "type": "Point", "coordinates": [ 4.863734616072525, 43.414592235307339 ] } },
{ "type": "Feature", "properties": { "fir": "LFKB", "identifier": null, "subsector_id": null, "name": "KC", "level_lower": "0", "level_upper": "85", "callout_x1": null, "callout_y1": null, "callout_x2": null, "callout_y2": null, "style": 30, "buffer": null }, "geometry": { "type": "Point", "coordinates": [ 8.762625070090175, 42.804513182841617 ] } },
{ "type": "Feature", "properties": { "fir": "LFKB", "identifier": null, "subsector_id": null, "name": "KB", "level_lower": "85", "level_upper": "145", "callout_x1": null, "callout_y1": null, "callout_x2": null, "callout_y2": null, "style": 31, "buffer": null }, "geometry": { "type": "Point", "coordinates": [ 8.762625070090175, 42.804513182841617 ] } },
{ "type": "Feature", "properties": { "fir": "LFKB", "identifier": null, "subsector_id": null, "name": "KB", "level_lower": "0", "level_upper": "145", "callout_x1": null, "callout_y1": null, "callout_x2": null, "callout_y2": null, "style": 30, "buffer": null }, "geometry": { "type": "Point", "coordinates": [ 9.201856328260414, 42.630587290840197 ] } }
]
}
