{
"type": "FeatureCollection",
"name": "CCA_Overview_Labels",
"crs": { "type": "name", "properties": { "name": "urn:ogc:def:crs:OGC:1.3:CRS84" } },
"xy_coordinate_resolution": 1e-15,
"features": [
{ "type": "Feature", "properties": { "fir": null, "identifier": null, "name": "AQUITAINE", "level_lower": null, "level_upper": null, "subsector_id": null, "style": 30, "buffer": false, "callout_x1": null, "callout_y1": null, "callout_x2": null, "callout_y2": null }, "geometry": { "type": "Point", "coordinates": [ -0.164200709630145, 44.908914514233388 ] } },
{ "type": "Feature", "properties": { "fir": null, "identifier": null, "name": "LIMOGES", "level_lower": null, "level_upper": null, "subsector_id": null, "style": 30, "buffer": false, "callout_x1": null, "callout_y1": null, "callout_x2": null, "callout_y2": null }, "geometry": { "type": "Point", "coordinates": [ 1.682567080403817, 45.867017019661183 ] } },
{ "type": "Feature", "properties": { "fir": null, "identifier": null, "name": "POITIERS", "level_lower": null, "level_upper": null, "subsector_id": null, "style": 30, "buffer": false, "callout_x1": null, "callout_y1": null, "callout_x2": null, "callout_y2": null }, "geometry": { "type": "Point", "coordinates": [ 0.626082804123127, 46.603523818989729 ] } },
{ "type": "Feature", "properties": { "fir": null, "identifier": null, "name": "TOULOUSE", "level_lower": null, "level_upper": null, "subsector_id": null, "style": 30, "buffer": false, "callout_x1": null, "callout_y1": null, "callout_x2": null, "callout_y2": null }, "geometry": { "type": "Point", "coordinates": [ 1.848942556983453, 43.616220764301204 ] } },
{ "type": "Feature", "properties": { "fir": null, "identifier": null, "name": "PYRENEES", "level_lower": null, "level_upper": null, "subsector_id": null, "style": 30, "buffer": false, "callout_x1": null, "callout_y1": null, "callout_x2": null, "callout_y2": null }, "geometry": { "type": "Point", "coordinates": [ 0.143593922042182, 43.241660630736014 ] } },
{ "type": "Feature", "properties": { "fir": null, "identifier": null, "name": "BIARRITZ", "level_lower": null, "level_upper": null, "subsector_id": null, "style": 30, "buffer": false, "callout_x1": null, "callout_y1": null, "callout_x2": null, "callout_y2": null }, "geometry": { "type": "Point", "coordinates": [ -1.154134795278981, 43.580074321561803 ] } },
{ "type": "Feature", "properties": { "fir": null, "identifier": null, "name": "LA ROCHELLE", "level_lower": null, "level_upper": null, "subsector_id": null, "style": 30, "buffer": false, "callout_x1": null, "callout_y1": null, "callout_x2": null, "callout_y2": null }, "geometry": { "type": "Point", "coordinates": [ -0.729877330000909, 45.849636565845785 ] } }
]
}
