{
"type": "FeatureCollection",
"name": "CCR_LFRR_UAC_Adjacent_Labels",
"crs": { "type": "name", "properties": { "name": "urn:ogc:def:crs:OGC:1.3:CRS84" } },
"xy_coordinate_resolution": 1e-15,
"features": [
{ "type": "Feature", "properties": { "fir": "LFRR", "identifier": null, "subsector_id": null, "name": "BORDEAUX UAC (LFBB)", "level_lower": null, "level_upper": null, "callout_x1": null, "callout_y1": null, "callout_x2": null, "callout_y2": null, "style": 20, "buffer": null }, "geometry": { "type": "Point", "coordinates": [ 1.692438196849101, 45.517013386571413 ] } },
{ "type": "Feature", "properties": { "fir": "LFFF", "identifier": null, "subsector_id": null, "name": "REIMS UAC (LFEE)", "level_lower": null, "level_upper": null, "callout_x1": null, "callout_y1": null, "callout_x2": null, "callout_y2": null, "style": 20, "buffer": null }, "geometry": { "type": "Point", "coordinates": [ 3.278858075942466, 49.638337414474506 ] } },
{ "type": "Feature", "properties": { "fir": "LFMM", "identifier": null, "subsector_id": null, "name": "LONDON UAC (EGTT)", "level_lower": null, "level_upper": null, "callout_x1": null, "callout_y1": null, "callout_x2": null, "callout_y2": null, "style": 20, "buffer": null }, "geometry": { "type": "Point", "coordinates": [ -3.785028720937444, 49.972773527007412 ] } },
{ "type": "Feature", "properties": { "fir": "LECM", "identifier": null, "subsector_id": null, "name": "MADRID UAC (LECM)", "level_lower": null, "level_upper": null, "callout_x1": null, "callout_y1": null, "callout_x2": null, "callout_y2": null, "style": 20, "buffer": null }, "geometry": { "type": "Point", "coordinates": [ -5.444178451221337, 44.065462183012656 ] } },
{ "type": "Feature", "properties": { "fir": "LECB", "identifier": null, "subsector_id": null, "name": "SHANWICK OCA (EGGX)", "level_lower": null, "level_upper": null, "callout_x1": null, "callout_y1": null, "callout_x2": null, "callout_y2": null, "style": 20, "buffer": null }, "geometry": { "type": "Point", "coordinates": [ -8.971576233961883, 46.801535754099795 ] } },
{ "type": "Feature", "properties": { "fir": "LFFF", "identifier": null, "subsector_id": null, "name": "PARIS UAC (LFFF)", "level_lower": null, "level_upper": null, "callout_x1": null, "callout_y1": null, "callout_x2": null, "callout_y2": null, "style": 20, "buffer": null }, "geometry": { "type": "Point", "coordinates": [ 4.260711067014577, 47.674917167399848 ] } },
{ "type": "Feature", "properties": { "fir": "EISN", "identifier": null, "subsector_id": null, "name": "SHANNON UAC (EISN)", "level_lower": null, "level_upper": null, "callout_x1": null, "callout_y1": null, "callout_x2": null, "callout_y2": null, "style": 20, "buffer": null }, "geometry": { "type": "Point", "coordinates": [ -8.557925205315764, 49.040057756284291 ] } }
]
}
