{
"type": "FeatureCollection",
"name": "CCA_LFBE_BW_Labels",
"crs": { "type": "name", "properties": { "name": "urn:ogc:def:crs:OGC:1.3:CRS84" } },
"xy_coordinate_resolution": 1e-15,
"features": [
{ "type": "Feature", "properties": { "fir": "LFBB", "identifier": "LFBB:AQUITAINE BW:000-020", "name": "BW", "level_lower": 0, "level_upper": 20 }, "geometry": { "type": "Point", "coordinates": [ -1.31362064421053, 44.870555555555555 ] } },
{ "type": "Feature", "properties": { "fir": "LFBB", "identifier": "LFBB:AQUITAINE BW:020-075", "name": "BW", "level_lower": 20, "level_upper": 75 }, "geometry": { "type": "Point", "coordinates": [ -0.83737064421053, 44.870555555555555 ] } },
{ "type": "Feature", "properties": { "fir": "LFBB", "identifier": "LFBB:AQUITAINE BW:075-145", "name": "BW", "level_lower": 75, "level_upper": 145 }, "geometry": { "type": "Point", "coordinates": [ -0.732497431323334, 44.949861111111112 ] } }
]
}
