{
"type": "FeatureCollection",
"name": "CCA_LFKJ_Labels",
"crs": { "type": "name", "properties": { "name": "urn:ogc:def:crs:OGC:1.3:CRS84" } },
"xy_coordinate_resolution": 1e-15,
"features": [
{ "type": "Feature", "properties": { "fir": "LFRN", "identifier": null, "subsector_id": null, "name": "DD", "level_lower": "0", "level_upper": "115", "callout_x1": null, "callout_y1": null, "callout_x2": null, "callout_y2": null, "style": 50, "buffer": null }, "geometry": { "type": "Point", "coordinates": [ -2.725309662061916, 48.642424222692078 ] } },
{ "type": "Feature", "properties": { "fir": "LFRB", "identifier": null, "subsector_id": null, "name": "IQ", "level_lower": "115", "level_upper": "195", "callout_x1": null, "callout_y1": null, "callout_x2": null, "callout_y2": null, "style": 31, "buffer": null }, "geometry": { "type": "Point", "coordinates": [ -2.725309662061916, 48.642424222692078 ] } },
{ "type": "Feature", "properties": { "fir": "LFRN", "identifier": null, "subsector_id": null, "name": "RN", "level_lower": "0", "level_upper": "115", "callout_x1": "-2.3019", "callout_y1": "48.0797", "callout_x2": "-2.6583", "callout_y2": "48.1716", "style": 50, "buffer": null }, "geometry": { "type": "Point", "coordinates": [ -2.079540223563691, 48.086788019757627 ] } },
{ "type": "Feature", "properties": { "fir": "LFRB", "identifier": null, "subsector_id": null, "name": "IQ", "level_lower": "115", "level_upper": "195", "callout_x1": null, "callout_y1": null, "callout_x2": null, "callout_y2": null, "style": 31, "buffer": null }, "geometry": { "type": "Point", "coordinates": [ -2.079540223563691, 48.086788019757627 ] } },
{ "type": "Feature", "properties": { "fir": "LFRB", "identifier": null, "subsector_id": null, "name": "RH", "level_lower": "0", "level_upper": "195", "callout_x1": null, "callout_y1": null, "callout_x2": null, "callout_y2": null, "style": 30, "buffer": null }, "geometry": { "type": "Point", "coordinates": [ -3.441654995477978, 47.677366307753005 ] } },
{ "type": "Feature", "properties": { "fir": "LFRB", "identifier": null, "subsector_id": null, "name": "IQ", "level_lower": "0", "level_upper": "195", "callout_x1": null, "callout_y1": null, "callout_x2": null, "callout_y2": null, "style": 30, "buffer": null }, "geometry": { "type": "Point", "coordinates": [ -3.039372394446298, 48.202163570583728 ] } },
{ "type": "Feature", "properties": { "fir": "LFRB", "identifier": null, "subsector_id": null, "name": "IQ", "level_lower": "0", "level_upper": "195", "callout_x1": null, "callout_y1": null, "callout_x2": null, "callout_y2": null, "style": 30, "buffer": null }, "geometry": { "type": "Point", "coordinates": [ -4.083895639230311, 48.053775937156296 ] } },
{ "type": "Feature", "properties": { "fir": "LFRB", "identifier": null, "subsector_id": null, "name": "IQ", "level_lower": "0", "level_upper": "115", "callout_x1": "-2.6900", "callout_y1": "47.6203", "callout_x2": "-3.6181", "callout_y2": "48.0514", "style": 30, "buffer": null }, "geometry": { "type": "Point", "coordinates": [ -2.488880414087156, 47.636959457271935 ] } },
{ "type": "Feature", "properties": { "fir": "LFRL", "identifier": null, "subsector_id": null, "name": "RH", "level_lower": "115", "level_upper": "195", "callout_x1": null, "callout_y1": null, "callout_x2": null, "callout_y2": null, "style": 31, "buffer": null }, "geometry": { "type": "Point", "coordinates": [ -2.488880414087156, 47.636959457271935 ] } },
{ "type": "Feature", "properties": { "fir": "", "identifier": null, "subsector_id": null, "name": "LANVEOC", "level_lower": "0", "level_upper": "195", "callout_x1": "-5.4178", "callout_y1": "48.2492", "callout_x2": "-4.4756", "callout_y2": "48.2703", "style": 30, "buffer": null }, "geometry": { "type": "Point", "coordinates": [ -5.52364389555422, 48.284415927110324 ] } },
{ "type": "Feature", "properties": { "fir": "", "identifier": null, "subsector_id": null, "name": "IX", "level_lower": "0", "level_upper": "195", "callout_x1": null, "callout_y1": null, "callout_x2": null, "callout_y2": null, "style": 30, "buffer": null }, "geometry": { "type": "Point", "coordinates": [ -3.769832906845929, 48.567755483748186 ] } },
{ "type": "Feature", "properties": { "fir": null, "identifier": null, "subsector_id": null, "name": "IQ", "level_lower": "0", "level_upper": "195", "callout_x1": null, "callout_y1": null, "callout_x2": null, "callout_y2": null, "style": 30, "buffer": null }, "geometry": { "type": "Point", "coordinates": [ -4.016848539058364, 49.224281820543709 ] } },
{ "type": "Feature", "properties": { "fir": null, "identifier": null, "subsector_id": null, "name": "IQ", "level_lower": "0", "level_upper": "195", "callout_x1": null, "callout_y1": null, "callout_x2": null, "callout_y2": null, "style": 30, "buffer": null }, "geometry": { "type": "Point", "coordinates": [ -4.719078693490859, 47.558433354994207 ] } }
]
}
