{
"type": "FeatureCollection",
"name": "CCR_LFEE_Labels-265-345",
"crs": { "type": "name", "properties": { "name": "urn:ogc:def:crs:OGC:1.3:CRS84" } },
"xy_coordinate_resolution": 1e-15,
"features": [
{ "type": "Feature", "properties": { "fir": "LFEE", "identifier": null, "subsector_id": null, "name": "UE", "level_lower": "195", "level_upper": "315", "callout_x1": null, "callout_y1": null, "callout_x2": null, "callout_y2": null, "style": 30, "buffer": null }, "geometry": { "type": "Point", "coordinates": [ 6.691924710870939, 48.630110367851266 ] } },
{ "type": "Feature", "properties": { "fir": "LFEE", "identifier": null, "subsector_id": null, "name": "UF2", "level_lower": "265", "level_upper": "345", "callout_x1": null, "callout_y1": null, "callout_x2": null, "callout_y2": null, "style": 30, "buffer": null }, "geometry": { "type": "Point", "coordinates": [ 4.938297477815039, 48.404039789762471 ] } },
{ "type": "Feature", "properties": { "fir": "LFEE", "identifier": null, "subsector_id": null, "name": "UH", "level_lower": "195", "level_upper": "315", "callout_x1": null, "callout_y1": null, "callout_x2": null, "callout_y2": null, "style": 30, "buffer": null }, "geometry": { "type": "Point", "coordinates": [ 6.549317159516964, 47.570648418906842 ] } },
{ "type": "Feature", "properties": { "fir": "LFEE", "identifier": null, "subsector_id": null, "name": "UR", "level_lower": "265", "level_upper": "315", "callout_x1": null, "callout_y1": null, "callout_x2": null, "callout_y2": null, "style": 30, "buffer": null }, "geometry": { "type": "Point", "coordinates": [ 3.120051198051849, 49.19463949049802 ] } },
{ "type": "Feature", "properties": { "fir": "LFEE", "identifier": null, "subsector_id": null, "name": "UB", "level_lower": "265", "level_upper": "345", "callout_x1": null, "callout_y1": null, "callout_x2": null, "callout_y2": null, "style": 30, "buffer": null }, "geometry": { "type": "Point", "coordinates": [ 2.852662039263143, 50.38755446488274 ] } },
{ "type": "Feature", "properties": { "fir": "LFEE", "identifier": null, "subsector_id": null, "name": "UN1", "level_lower": "265", "level_upper": "285", "callout_x1": null, "callout_y1": null, "callout_x2": null, "callout_y2": null, "style": 30, "buffer": null }, "geometry": { "type": "Point", "coordinates": [ 2.252521927315163, 49.781343076955018 ] } },
{ "type": "Feature", "properties": { "fir": "LFEE", "identifier": null, "subsector_id": null, "name": "UN2", "level_lower": "285", "level_upper": "345", "callout_x1": null, "callout_y1": null, "callout_x2": null, "callout_y2": null, "style": 31, "buffer": null }, "geometry": { "type": "Point", "coordinates": [ 2.252521927315163, 49.781343076955018 ] } },
{ "type": "Feature", "properties": { "fir": "LFEE", "identifier": null, "subsector_id": null, "name": "XR", "level_lower": "315", "level_upper": "345", "callout_x1": null, "callout_y1": null, "callout_x2": null, "callout_y2": null, "style": 31, "buffer": null }, "geometry": { "type": "Point", "coordinates": [ 3.120051198051849, 49.19463949049802 ] } },
{ "type": "Feature", "properties": { "fir": "LFEE", "identifier": null, "subsector_id": null, "name": "XE", "level_lower": "315", "level_upper": "345", "callout_x1": null, "callout_y1": null, "callout_x2": null, "callout_y2": null, "style": 31, "buffer": null }, "geometry": { "type": "Point", "coordinates": [ 6.691924710870939, 48.630110367851266 ] } },
{ "type": "Feature", "properties": { "fir": "LFEE", "identifier": null, "subsector_id": null, "name": "XH", "level_lower": "315", "level_upper": "345", "callout_x1": null, "callout_y1": null, "callout_x2": null, "callout_y2": null, "style": 31, "buffer": null }, "geometry": { "type": "Point", "coordinates": [ 6.549317159516964, 47.570648418906842 ] } },
{ "type": "Feature", "properties": { "fir": "LFFF", "identifier": null, "subsector_id": null, "name": "AP", "level_lower": "265", "level_upper": "315", "callout_x1": null, "callout_y1": null, "callout_x2": null, "callout_y2": null, "style": 50, "buffer": null }, "geometry": { "type": "Point", "coordinates": [ 4.617430487268594, 49.411611613787805 ] } },
{ "type": "Feature", "properties": { "fir": "LFEE", "identifier": null, "subsector_id": null, "name": "XR", "level_lower": "315", "level_upper": "345", "callout_x1": null, "callout_y1": null, "callout_x2": null, "callout_y2": null, "style": 31, "buffer": null }, "geometry": { "type": "Point", "coordinates": [ 4.617430487268594, 49.411611613787805 ] } }
]
}
