{
"type": "FeatureCollection",
"name": "CCR_LFEE_Labels-345-385",
"crs": { "type": "name", "properties": { "name": "urn:ogc:def:crs:OGC:1.3:CRS84" } },
"xy_coordinate_resolution": 1e-15,
"features": [
{ "type": "Feature", "properties": { "fir": "LFEE", "identifier": null, "subsector_id": null, "name": "KE", "level_lower": "345", "level_upper": "365", "callout_x1": null, "callout_y1": null, "callout_x2": null, "callout_y2": null, "style": 30, "buffer": null }, "geometry": { "type": "Point", "coordinates": [ 6.691924710870939, 48.630110367851266 ] } },
{ "type": "Feature", "properties": { "fir": "LFEE", "identifier": null, "subsector_id": null, "name": "KF", "level_lower": "345", "level_upper": "660", "callout_x1": null, "callout_y1": null, "callout_x2": null, "callout_y2": null, "style": 30, "buffer": null }, "geometry": { "type": "Point", "coordinates": [ 4.938297477815039, 48.404039789762471 ] } },
{ "type": "Feature", "properties": { "fir": "LFEE", "identifier": null, "subsector_id": null, "name": "KH", "level_lower": "345", "level_upper": "365", "callout_x1": null, "callout_y1": null, "callout_x2": null, "callout_y2": null, "style": 30, "buffer": null }, "geometry": { "type": "Point", "coordinates": [ 6.549317159516964, 47.570648418906842 ] } },
{ "type": "Feature", "properties": { "fir": "LFEE", "identifier": null, "subsector_id": null, "name": "KR", "level_lower": "345", "level_upper": "365", "callout_x1": null, "callout_y1": null, "callout_x2": null, "callout_y2": null, "style": 30, "buffer": null }, "geometry": { "type": "Point", "coordinates": [ 3.862798861353805, 49.411611613787805 ] } },
{ "type": "Feature", "properties": { "fir": "LFEE", "identifier": null, "subsector_id": null, "name": "YB", "level_lower": "345", "level_upper": "365", "callout_x1": null, "callout_y1": null, "callout_x2": null, "callout_y2": null, "style": 30, "buffer": null }, "geometry": { "type": "Point", "coordinates": [ 2.852662039263143, 50.38755446488274 ] } },
{ "type": "Feature", "properties": { "fir": "LFEE", "identifier": null, "subsector_id": null, "name": "KN", "level_lower": "345", "level_upper": "365", "callout_x1": null, "callout_y1": null, "callout_x2": null, "callout_y2": null, "style": 30, "buffer": null }, "geometry": { "type": "Point", "coordinates": [ 2.252521927315163, 49.781343076955018 ] } },
{ "type": "Feature", "properties": { "fir": "LFFF", "identifier": null, "subsector_id": null, "name": "KD1", "level_lower": "345", "level_upper": "355", "callout_x1": null, "callout_y1": null, "callout_x2": null, "callout_y2": null, "style": 30, "buffer": null }, "geometry": { "type": "Point", "coordinates": [ 3.928160655724378, 48.063661651183757 ] } },
{ "type": "Feature", "properties": { "fir": "LFEE", "identifier": null, "subsector_id": null, "name": "KD2", "level_lower": "355", "level_upper": "385", "callout_x1": "6.3408", "callout_y1": "46.9144", "callout_x2": "5.6335", "callout_y2": "47.3560", "style": 30, "buffer": null }, "geometry": { "type": "Point", "coordinates": [ 6.72701953796193, 46.837205627314255 ] } },
{ "type": "Feature", "properties": { "fir": "LFEE", "identifier": null, "subsector_id": null, "name": "KD2", "level_lower": "355", "level_upper": "385", "callout_x1": null, "callout_y1": null, "callout_x2": null, "callout_y2": null, "style": 31, "buffer": null }, "geometry": { "type": "Point", "coordinates": [ 3.928160655724378, 48.063661651183757 ] } },
{ "type": "Feature", "properties": { "fir": "LFEE", "identifier": null, "subsector_id": null, "name": "HH", "level_lower": "365", "level_upper": "660", "callout_x1": null, "callout_y1": null, "callout_x2": null, "callout_y2": null, "style": 31, "buffer": null }, "geometry": { "type": "Point", "coordinates": [ 6.549317159516964, 47.570648418906842 ] } },
{ "type": "Feature", "properties": { "fir": "LFEE", "identifier": null, "subsector_id": null, "name": "HE", "level_lower": "365", "level_upper": "660", "callout_x1": null, "callout_y1": null, "callout_x2": null, "callout_y2": null, "style": 31, "buffer": null }, "geometry": { "type": "Point", "coordinates": [ 6.691924710870939, 48.630110367851266 ] } },
{ "type": "Feature", "properties": { "fir": "LFEE", "identifier": null, "subsector_id": null, "name": "HN", "level_lower": "365", "level_upper": "660", "callout_x1": null, "callout_y1": null, "callout_x2": null, "callout_y2": null, "style": 31, "buffer": null }, "geometry": { "type": "Point", "coordinates": [ 2.252521927315163, 49.781343076955018 ] } },
{ "type": "Feature", "properties": { "fir": "LFEE", "identifier": null, "subsector_id": null, "name": "HN", "level_lower": "365", "level_upper": "660", "callout_x1": null, "callout_y1": null, "callout_x2": null, "callout_y2": null, "style": 31, "buffer": null }, "geometry": { "type": "Point", "coordinates": [ 2.852662039263143, 50.38755446488274 ] } },
{ "type": "Feature", "properties": { "fir": "LFEE", "identifier": null, "subsector_id": null, "name": "YR", "level_lower": "365", "level_upper": "375", "callout_x1": null, "callout_y1": null, "callout_x2": null, "callout_y2": null, "style": 31, "buffer": null }, "geometry": { "type": "Point", "coordinates": [ 3.862798861353805, 49.411611613787805 ] } },
{ "type": "Feature", "properties": { "fir": "LFEE", "identifier": null, "subsector_id": null, "name": "HR", "level_lower": "375", "level_upper": "660", "callout_x1": null, "callout_y1": null, "callout_x2": null, "callout_y2": null, "style": 32, "buffer": null }, "geometry": { "type": "Point", "coordinates": [ 3.862798861353805, 49.411611613787805 ] } },
{ "type": "Feature", "properties": { "fir": "LFEE", "identifier": null, "subsector_id": null, "name": "KD3", "level_lower": "385", "level_upper": "660", "callout_x1": null, "callout_y1": null, "callout_x2": null, "callout_y2": null, "style": 32, "buffer": null }, "geometry": { "type": "Point", "coordinates": [ 3.928160655724378, 48.063661651183757 ] } },
{ "type": "Feature", "properties": { "fir": "LFEE", "identifier": null, "subsector_id": null, "name": "KD3", "level_lower": "385", "level_upper": "660", "callout_x1": null, "callout_y1": null, "callout_x2": null, "callout_y2": null, "style": 31, "buffer": null }, "geometry": { "type": "Point", "coordinates": [ 6.72701953796193, 46.837205627314255 ] } },
{ "type": "Feature", "properties": { "fir": "LFFF", "identifier": null, "subsector_id": null, "name": "UJ1", "level_lower": "195", "level_upper": "355", "callout_x1": null, "callout_y1": null, "callout_x2": null, "callout_y2": null, "style": 50, "buffer": null }, "geometry": { "type": "Point", "coordinates": [ 5.20568663660374, 47.144228674266721 ] } },
{ "type": "Feature", "properties": { "fir": "LFFF", "identifier": null, "subsector_id": null, "name": "UJ2", "level_lower": "355", "level_upper": "385", "callout_x1": null, "callout_y1": null, "callout_x2": null, "callout_y2": null, "style": 51, "buffer": null }, "geometry": { "type": "Point", "coordinates": [ 5.20568663660374, 47.144228674266721 ] } },
{ "type": "Feature", "properties": { "fir": "LFEE", "identifier": null, "subsector_id": null, "name": "KD3", "level_lower": "385", "level_upper": "660", "callout_x1": null, "callout_y1": null, "callout_x2": null, "callout_y2": null, "style": 32, "buffer": null }, "geometry": { "type": "Point", "coordinates": [ 5.20568663660374, 47.144228674266721 ] } }
]
}
