{
"type": "FeatureCollection",
"name": "CCA_LFMN_Labels",
"crs": { "type": "name", "properties": { "name": "urn:ogc:def:crs:OGC:1.3:CRS84" } },
"xy_coordinate_resolution": 1e-15,
"features": [
{ "type": "Feature", "properties": { "fir": "LFLL", "identifier": null, "subsector_id": null, "name": "VW3", "level_lower": "85", "level_upper": "115", "callout_x1": null, "callout_y1": null, "callout_x2": null, "callout_y2": null, "style": 31, "buffer": null }, "geometry": { "type": "Point", "coordinates": [ 3.818369272311477, 46.237952428235054 ] } },
{ "type": "Feature", "properties": { "fir": "LFMN", "identifier": null, "subsector_id": null, "name": "ND1", "level_lower": "0", "level_upper": "175", "callout_x1": null, "callout_y1": null, "callout_x2": null, "callout_y2": null, "style": 30, "buffer": null }, "geometry": { "type": "Point", "coordinates": [ 7.05553840561678, 43.596308165114685 ] } },
{ "type": "Feature", "properties": { "fir": "LFMN", "identifier": null, "subsector_id": null, "name": "ND2", "level_lower": "0", "level_upper": "145", "callout_x1": null, "callout_y1": null, "callout_x2": null, "callout_y2": null, "style": 30, "buffer": null }, "geometry": { "type": "Point", "coordinates": [ 7.226667467241549, 43.07978282234567 ] } },
{ "type": "Feature", "properties": { "fir": "LFMN", "identifier": null, "subsector_id": null, "name": "NO1", "level_lower": "0", "level_upper": "145", "callout_x1": null, "callout_y1": null, "callout_x2": null, "callout_y2": null, "style": 30, "buffer": null }, "geometry": { "type": "Point", "coordinates": [ 6.539299069715393, 43.513628474587705 ] } },
{ "type": "Feature", "properties": { "fir": "LFMN", "identifier": null, "subsector_id": null, "name": "NO2", "level_lower": "0", "level_upper": "115", "callout_x1": null, "callout_y1": null, "callout_x2": null, "callout_y2": null, "style": 30, "buffer": null }, "geometry": { "type": "Point", "coordinates": [ 6.254083967007446, 43.312659206978786 ] } },
{ "type": "Feature", "properties": { "fir": "LFMM", "identifier": null, "subsector_id": null, "name": "ST", "level_lower": "115", "level_upper": "145", "callout_x1": null, "callout_y1": null, "callout_x2": null, "callout_y2": null, "style": 31, "buffer": null }, "geometry": { "type": "Point", "coordinates": [ 6.254083967007446, 43.312659206978786 ] } },
{ "type": "Feature", "properties": { "fir": "LFMN", "identifier": null, "subsector_id": null, "name": "NE2", "level_lower": "0", "level_upper": "145", "callout_x1": null, "callout_y1": null, "callout_x2": null, "callout_y2": null, "style": 30, "buffer": null }, "geometry": { "type": "Point", "coordinates": [ 8.125095040771585, 43.248291304136124 ] } },
{ "type": "Feature", "properties": { "fir": "LFMN", "identifier": null, "subsector_id": null, "name": "NE1", "level_lower": "0", "level_upper": "175", "callout_x1": null, "callout_y1": null, "callout_x2": null, "callout_y2": null, "style": 30, "buffer": null }, "geometry": { "type": "Point", "coordinates": [ 7.859844995253193, 43.528105609125305 ] } },
{ "type": "Feature", "properties": { "fir": "LFMN", "identifier": null, "subsector_id": null, "name": "ND1", "level_lower": "0", "level_upper": "100", "callout_x1": null, "callout_y1": null, "callout_x2": null, "callout_y2": null, "style": 30, "buffer": null }, "geometry": { "type": "Point", "coordinates": [ 7.560369137409847, 43.672685876496743 ] } },
{ "type": "Feature", "properties": { "fir": "LFMN", "identifier": null, "subsector_id": null, "name": "NE1", "level_lower": "100", "level_upper": "175", "callout_x1": null, "callout_y1": null, "callout_x2": null, "callout_y2": null, "style": 31, "buffer": null }, "geometry": { "type": "Point", "coordinates": [ 7.560369137409847, 43.672685876496743 ] } },
{ "type": "Feature", "properties": { "fir": "LFMN", "identifier": null, "subsector_id": null, "name": "NE1", "level_lower": "0", "level_upper": "175", "callout_x1": null, "callout_y1": null, "callout_x2": null, "callout_y2": null, "style": 30, "buffer": null }, "geometry": { "type": "Point", "coordinates": [ 7.374979320649682, 44.014158473123139 ] } },
{ "type": "Feature", "properties": { "fir": "LIMM", "identifier": null, "subsector_id": null, "name": "MILANO", "level_lower": "0", "level_upper": "105", "callout_x1": "7.8941", "callout_y1": "44.2107", "callout_x2": "7.7315", "callout_y2": "43.9567", "style": 51, "buffer": null }, "geometry": { "type": "Point", "coordinates": [ 7.98819179147177, 44.259788737208886 ] } },
{ "type": "Feature", "properties": { "fir": "LFMN", "identifier": null, "subsector_id": null, "name": "NE1 IF-03", "level_lower": "105", "level_upper": "175", "callout_x1": null, "callout_y1": null, "callout_x2": null, "callout_y2": null, "style": 31, "buffer": null }, "geometry": { "type": "Point", "coordinates": [ 7.98819179147177, 44.259788737208886 ] } },
{ "type": "Feature", "properties": { "fir": "LIMM", "identifier": null, "subsector_id": null, "name": "MILANO", "level_lower": "0", "level_upper": "95", "callout_x1": "8.1622", "callout_y1": "43.9341", "callout_x2": "7.8456", "callout_y2": "43.8231", "style": 51, "buffer": null }, "geometry": { "type": "Point", "coordinates": [ 8.301928404450512, 43.993643164872502 ] } },
{ "type": "Feature", "properties": { "fir": "LFMN", "identifier": null, "subsector_id": null, "name": "ND1 IF-04", "level_lower": "95", "level_upper": "175", "callout_x1": null, "callout_y1": null, "callout_x2": null, "callout_y2": null, "style": 31, "buffer": null }, "geometry": { "type": "Point", "coordinates": [ 8.301928404450512, 43.993643164872502 ] } }
]
}
