{
	"type": "FeatureCollection",
	"features": [
		{
			"type": "Feature",
			"properties": {},
			"geometry": {
				"type": "LineString",
				"coordinates": [
					[
						-1.7586111111111111,
						44.06527777777777
					],
					[
						-2.0702772222222223,
						43.680277777777775
					],
					[
						-2.0702772222222223,
						43.680277777777775
					],
					[
						-2.1692219444444443,
						43.71422916666667
					],
					[
						-2.1692219444444443,
						43.71422916666667
					],
					[
						-4,
						44.333333333333336
					],
					[
						-4,
						44.333333333333336
					],
					[
						-4.232,
						44.376
					],
					[
						-4.232,
						44.376
					],
					[
						-5.143888888888889,
						44.54
					],
					[
						-5.143888888888889,
						44.54
					],
					[
						-6.919722222222222,
						44.83522222222223
					],
					[
						-6.919722222222222,
						44.83522222222223
					],
					[
						-7.405278055555556,
						44.91055472222222
					],
					[
						-7.405278055555556,
						44.91055472222222
					],
					[
						-8,
						45
					],
					[
						-8,
						45
					],
					[
						-8,
						47.25
					],
					[
						-8,
						47.25
					],
					[
						-7.995395,
						48.5
					],
					[
						-7.995395,
						48.5
					],
					[
						-7.995395,
						48.52879194444444
					],
					[
						-7.995395,
						48.52879194444444
					],
					[
						-7.579444444444444,
						48.93611111111111
					],
					[
						-7.579444444444444,
						48.93611111111111
					],
					[
						-6.938055555555556,
						49.55638888888888
					],
					[
						-6.938055555555556,
						49.55638888888888
					],
					[
						-4.916388888888889,
						49.47805555555556
					],
					[
						-4.916388888888889,
						49.47805555555556
					],
					[
						-4.45,
						49.56666694444445
					],
					[
						-4.45,
						49.56666694444445
					],
					[
						-4.160555555555556,
						49.621944444444445
					],
					[
						-4.160555555555556,
						49.621944444444445
					],
					[
						-3.1712066666666665,
						49.79734138888889
					],
					[
						-3.1712066666666665,
						49.79734138888889
					],
					[
						-2.5033333333333334,
						49.91583333333333
					],
					[
						-2.5033333333333334,
						49.91583333333333
					],
					[
						-2.163333333333333,
						49.973055555555554
					],
					[
						-2.163333333333333,
						49.973055555555554
					],
					[
						-2,
						50
					],
					[
						-2,
						50
					],
					[
						-1.7833333333333332,
						50
					],
					[
						-1.7833333333333332,
						50
					],
					[
						-1.7169444444444446,
						50
					],
					[
						-1.7169444444444446,
						50
					],
					[
						-1.1580555555555554,
						50
					],
					[
						-1.1580555555555554,
						50
					],
					[
						-0.5333333333333333,
						50
					],
					[
						-0.5333333333333333,
						50
					],
					[
						-0.25,
						50
					],
					[
						-0.25,
						50
					],
					[
						0.0961111111111111,
						50.13777805555556
					],
					[
						0.0961111111111111,
						50.13777805555556
					],
					[
						0.7697222222222223,
						50.40138888888889
					],
					[
						0.7697222222222223,
						50.40138888888889
					],
					[
						1.3288888888888888,
						49.97805555555556
					],
					[
						1.3288888888888888,
						49.97805555555556
					],
					[
						1.4033333333333333,
						49.92194444444444
					],
					[
						1.4033333333333333,
						49.92194444444444
					],
					[
						1.5548483333333334,
						49.8042375
					],
					[
						1.5548483333333334,
						49.8042375
					],
					[
						1.8094441666666667,
						49.60611111111111
					],
					[
						1.8094441666666667,
						49.60611111111111
					],
					[
						2.2413891666666665,
						49.26555611111111
					],
					[
						2.2413891666666665,
						49.26555611111111
					],
					[
						2.4547222222222222,
						49.07611111111112
					],
					[
						2.4547222222222222,
						49.07611111111112
					],
					[
						3.016666388888889,
						48.583333333333336
					],
					[
						3.016666388888889,
						48.583333333333336
					],
					[
						2.9202780555555554,
						48.5025
					],
					[
						2.9202780555555554,
						48.5025
					],
					[
						2.7927780555555555,
						48.39527805555556
					],
					[
						2.7927780555555555,
						48.39527805555556
					],
					[
						2.610278055555556,
						48.13333333333333
					],
					[
						2.610278055555556,
						48.13333333333333
					],
					[
						1.7822222222222222,
						48.13333333333333
					],
					[
						1.7822222222222222,
						48.13333333333333
					],
					[
						1.7683333333333333,
						48.110278055555554
					],
					[
						1.7683333333333333,
						48.110278055555554
					],
					[
						1.7152780555555556,
						47.953611111111115
					],
					[
						1.7152780555555556,
						47.953611111111115
					],
					[
						1.6905561111111111,
						47.83166722222222
					],
					[
						1.6905561111111111,
						47.83166722222222
					],
					[
						1.6766666666666665,
						47.76277777777778
					],
					[
						1.6766666666666665,
						47.76277777777778
					],
					[
						1.6336111111111111,
						47.55027805555555
					],
					[
						1.6336111111111111,
						47.55027805555555
					],
					[
						1.4666666666666668,
						47.166666388888885
					],
					[
						1.4666666666666668,
						47.166666388888885
					],
					[
						0.9866666666666666,
						47.00416666666667
					],
					[
						0.9866666666666666,
						47.00416666666667
					],
					[
						0.5744444444444444,
						47.06388888888888
					],
					[
						0.5744444444444444,
						47.06388888888888
					],
					[
						0.3219444444444444,
						47.083333333333336
					],
					[
						0.3219444444444444,
						47.083333333333336
					],
					[
						-0.25,
						47.044443611111106
					],
					[
						-0.25,
						47.044443611111106
					],
					[
						-0.25,
						46.5
					],
					[
						-0.25,
						46.5
					],
					[
						-0.7222222222222222,
						46.305
					],
					[
						-0.7222222222222222,
						46.305
					],
					[
						-0.9419444444444445,
						46.21333333333334
					],
					[
						-0.9419444444444445,
						46.21333333333334
					],
					[
						-1.66,
						45.981388888888894
					],
					[
						-1.66,
						45.981388888888894
					],
					[
						-1.6610991666666666,
						45.960012222222225
					],
					[
						-1.6610991666666666,
						45.960012222222225
					],
					[
						-1.6780549999999999,
						45.56111055555555
					],
					[
						-1.6780549999999999,
						45.56111055555555
					],
					[
						-1.7200000000000002,
						44.81666666666667
					],
					[
						-1.7200000000000002,
						44.81666666666667
					],
					[
						-1.7580552777777778,
						44.2
					],
					[
						-1.7580552777777778,
						44.2
					],
					[
						-1.7586111111111111,
						44.06527777777777
					]
				]
			}
		},
		{
			"type": "Feature",
			"properties": {},
			"geometry": {
				"type": "LineString",
				"coordinates": [
					[
						3.668888055555555,
						45.77777777777778
					],
					[
						3.3697222222222223,
						46.52416611111111
					],
					[
						3.3697222222222223,
						46.52416611111111
					],
					[
						3.5,
						46.56666722222223
					],
					[
						3.5,
						46.56666722222223
					],
					[
						3.6833333333333336,
						46.28333333333333
					],
					[
						3.6833333333333336,
						46.28333333333333
					],
					[
						4.05,
						46.28333333333333
					],
					[
						4.05,
						46.28333333333333
					],
					[
						4.5,
						46.28333333333333
					],
					[
						4.5,
						46.28333333333333
					],
					[
						4.599999722222222,
						46.27499972222222
					],
					[
						4.599999722222222,
						46.27499972222222
					],
					[
						5.133333333333334,
						46.233333333333334
					],
					[
						5.133333333333334,
						46.233333333333334
					],
					[
						5.7,
						46.11666666666667
					],
					[
						5.7,
						46.11666666666667
					],
					[
						5.826938888888889,
						46.020352777777774
					],
					[
						5.826938888888889,
						46.020352777777774
					],
					[
						6.05,
						45.85
					],
					[
						6.05,
						45.85
					],
					[
						6.096555555555555,
						45.80640833333333
					],
					[
						6.096555555555555,
						45.80640833333333
					],
					[
						6.132441666666666,
						45.77221111111111
					],
					[
						6.132441666666666,
						45.77221111111111
					],
					[
						6.230555555555556,
						45.680277777777775
					],
					[
						6.230555555555556,
						45.680277777777775
					],
					[
						6.2597611111111116,
						45.65289166666666
					],
					[
						6.2597611111111116,
						45.65289166666666
					],
					[
						6.333333333333333,
						45.583333333333336
					],
					[
						6.333333333333333,
						45.583333333333336
					],
					[
						6.339722222222222,
						45.57222222222222
					],
					[
						6.339722222222222,
						45.57222222222222
					],
					[
						6.399172222222223,
						45.465811111111115
					],
					[
						6.399172222222223,
						45.465811111111115
					],
					[
						6.662499722222223,
						44.99027777777778
					],
					[
						6.662499722222223,
						44.99027777777778
					],
					[
						6.766666666666667,
						44.8
					],
					[
						6.766666666666667,
						44.8
					],
					[
						7.0125,
						44.8
					],
					[
						7.0125,
						44.8
					],
					[
						7.128055555555555,
						44.81388888888888
					],
					[
						7.128055555555555,
						44.81388888888888
					],
					[
						7.285555555555556,
						44.14222222222222
					],
					[
						7.285555555555556,
						44.14222222222222
					],
					[
						7.625277777777778,
						44.14555555555555
					],
					[
						7.625277777777778,
						44.14555555555555
					],
					[
						7.751944444444445,
						44.02305555555555
					],
					[
						7.751944444444445,
						44.02305555555555
					],
					[
						7.753333333333333,
						43.93861111111111
					],
					[
						7.753333333333333,
						43.93861111111111
					],
					[
						7.755277777777778,
						43.81944444444445
					],
					[
						7.755277777777778,
						43.81944444444445
					],
					[
						7.8374999999999995,
						43.70194444444445
					],
					[
						7.8374999999999995,
						43.70194444444445
					],
					[
						8.321721944444445,
						43.57027777777778
					],
					[
						8.321721944444445,
						43.57027777777778
					],
					[
						8.4066875,
						43.547515
					],
					[
						8.4066875,
						43.547515
					],
					[
						8.800555833333334,
						43.4375
					],
					[
						8.800555833333334,
						43.4375
					],
					[
						8.915026666666668,
						43.40529444444444
					],
					[
						8.915026666666668,
						43.40529444444444
					],
					[
						9.75,
						43.166666666666664
					],
					[
						9.75,
						43.166666666666664
					],
					[
						9.75,
						42.95416638888889
					],
					[
						9.75,
						42.95416638888889
					],
					[
						9.75,
						42.334235
					],
					[
						9.75,
						42.334235
					],
					[
						9.75,
						41.92924444444444
					],
					[
						9.75,
						41.92924444444444
					],
					[
						9.75,
						41.79072222222222
					],
					[
						9.75,
						41.79072222222222
					],
					[
						9.75,
						41.67342222222222
					],
					[
						9.75,
						41.67342222222222
					],
					[
						9.750041666666666,
						41.33200611111111
					],
					[
						9.750041666666666,
						41.33200611111111
					],
					[
						9.498288888888888,
						41.33200555555556
					],
					[
						9.498288888888888,
						41.33200555555556
					],
					[
						9.31666888888889,
						41.33333583333334
					],
					[
						9.31666888888889,
						41.33333583333334
					],
					[
						9.082814166666667,
						41.33275611111112
					],
					[
						9.082814166666667,
						41.33275611111112
					],
					[
						8.8333175,
						41.33213722222222
					],
					[
						8.8333175,
						41.33213722222222
					],
					[
						8.332072222222221,
						41.330894444444446
					],
					[
						8.332072222222221,
						41.330894444444446
					],
					[
						8,
						41
					],
					[
						8,
						41
					],
					[
						8,
						40.744999722222225
					],
					[
						8,
						40.744999722222225
					],
					[
						8,
						40.35
					],
					[
						8,
						40.35
					],
					[
						8.004072222222222,
						39.998875
					],
					[
						8.004072222222222,
						39.998875
					],
					[
						8.000280555555555,
						39.21283888888889
					],
					[
						8.000280555555555,
						39.21283888888889
					],
					[
						8,
						39
					],
					[
						8,
						39
					],
					[
						5,
						39
					],
					[
						5,
						39
					],
					[
						4.666666666666667,
						39
					],
					[
						4.666666666666667,
						39
					],
					[
						4.666666666666667,
						39.71666666666667
					],
					[
						4.666666666666667,
						39.71666666666667
					],
					[
						4.666666666666667,
						39.98972222222222
					],
					[
						4.666666666666667,
						39.98972222222222
					],
					[
						4.666666944444445,
						40.03111083333333
					],
					[
						4.666666944444445,
						40.03111083333333
					],
					[
						4.666666666666667,
						40.5
					],
					[
						4.666666666666667,
						40.5
					],
					[
						4.666666944444445,
						41.141666944444445
					],
					[
						4.666666944444445,
						41.141666944444445
					],
					[
						4.666666666666667,
						42
					],
					[
						4.666666666666667,
						42
					],
					[
						4.433611111111111,
						42.0675
					],
					[
						4.433611111111111,
						42.0675
					],
					[
						4.345832777777778,
						42.09527777777778
					],
					[
						4.345832777777778,
						42.09527777777778
					],
					[
						4.041111111111111,
						42.19472222222222
					],
					[
						4.041111111111111,
						42.19472222222222
					],
					[
						3.5083333333333333,
						42.3575
					],
					[
						3.5083333333333333,
						42.3575
					],
					[
						3.3755555555555556,
						42.374722222222225
					],
					[
						3.3755555555555556,
						42.374722222222225
					],
					[
						3.1666666666666665,
						42.43333333333333
					],
					[
						3.1666666666666665,
						42.43333333333333
					],
					[
						3.8419444444444446,
						43.60305555555556
					],
					[
						3.8419444444444446,
						43.60305555555556
					],
					[
						4.116665555555556,
						43.95
					],
					[
						4.116665555555556,
						43.95
					],
					[
						4.221944166666667,
						44.085
					],
					[
						4.221944166666667,
						44.085
					],
					[
						4.273611111111111,
						44.431666111111106
					],
					[
						4.273611111111111,
						44.431666111111106
					],
					[
						3.3691666666666666,
						44.85888888888889
					],
					[
						3.3691666666666666,
						44.85888888888889
					],
					[
						4.491665555555556,
						45.358333333333334
					],
					[
						4.491665555555556,
						45.358333333333334
					],
					[
						4.229444444444445,
						45.68944444444444
					],
					[
						4.229444444444445,
						45.68944444444444
					],
					[
						3.668888055555555,
						45.77777777777778
					]
				]
			}
		},
		{
			"type": "Feature",
			"properties": {},
			"geometry": {
				"type": "LineString",
				"coordinates": [
					[
						1.538333333333333,
						50.60166666666667
					],
					[
						1.636388888888889,
						50.65694444444444
					],
					[
						1.636388888888889,
						50.65694444444444
					],
					[
						1.7347222222222223,
						50.71222222222222
					],
					[
						1.7347222222222223,
						50.71222222222222
					],
					[
						1.4649999999999999,
						50.905277777777776
					],
					[
						1.4649999999999999,
						50.905277777777776
					],
					[
						1.4666666666666668,
						51
					],
					[
						1.4666666666666668,
						51
					],
					[
						1.7322222222222223,
						51.058055555555555
					],
					[
						1.7322222222222223,
						51.058055555555555
					],
					[
						2.3569444444444447,
						50.8525
					],
					[
						2.3569444444444447,
						50.8525
					],
					[
						2.8333333333333335,
						50.69194444444444
					],
					[
						2.8333333333333335,
						50.69194444444444
					],
					[
						3.28,
						50.5425
					],
					[
						3.28,
						50.5425
					],
					[
						3.525,
						50.43888888888888
					],
					[
						3.525,
						50.43888888888888
					],
					[
						3.7875,
						50.33972222222222
					],
					[
						3.7875,
						50.33972222222222
					],
					[
						3.9847222222222225,
						50.23722222222222
					],
					[
						3.9847222222222225,
						50.23722222222222
					],
					[
						4.3916666666666675,
						50.05833333333333
					],
					[
						4.3916666666666675,
						50.05833333333333
					],
					[
						4.851761111111111,
						49.852631111111116
					],
					[
						4.851761111111111,
						49.852631111111116
					],
					[
						5.008169166666667,
						49.7819
					],
					[
						5.008169166666667,
						49.7819
					],
					[
						5.442222222222222,
						49.56777777777778
					],
					[
						5.442222222222222,
						49.56777777777778
					],
					[
						5.634166666666666,
						49.3
					],
					[
						5.634166666666666,
						49.3
					],
					[
						6.091666666666667,
						49.0375
					],
					[
						6.091666666666667,
						49.0375
					],
					[
						6.499444444444444,
						49.03638888888889
					],
					[
						6.499444444444444,
						49.03638888888889
					],
					[
						6.685833333333334,
						49.2175
					],
					[
						6.685833333333334,
						49.2175
					],
					[
						6.694334444444444,
						49.21638666666667
					],
					[
						6.694334444444444,
						49.21638666666667
					],
					[
						6.711111111111111,
						49.21805555555556
					],
					[
						6.711111111111111,
						49.21805555555556
					],
					[
						6.723055555555556,
						49.20027777777778
					],
					[
						6.723055555555556,
						49.20027777777778
					],
					[
						6.746111111111111,
						49.16611111111111
					],
					[
						6.746111111111111,
						49.16611111111111
					],
					[
						6.781381111111111,
						49.168322777777774
					],
					[
						6.781381111111111,
						49.168322777777774
					],
					[
						6.834722222222222,
						49.15138888888889
					],
					[
						6.834722222222222,
						49.15138888888889
					],
					[
						6.858613055555555,
						49.174729166666665
					],
					[
						6.858613055555555,
						49.174729166666665
					],
					[
						6.836810833333333,
						49.21307166666667
					],
					[
						6.836810833333333,
						49.21307166666667
					],
					[
						6.938797500000001,
						49.22224916666667
					],
					[
						6.938797500000001,
						49.22224916666667
					],
					[
						7.034575555555556,
						49.190528611111105
					],
					[
						7.034575555555556,
						49.190528611111105
					],
					[
						7.049563611111111,
						49.113753333333335
					],
					[
						7.049563611111111,
						49.113753333333335
					],
					[
						7.089990555555556,
						49.13035111111111
					],
					[
						7.089990555555556,
						49.13035111111111
					],
					[
						7.0813475,
						49.14686111111111
					],
					[
						7.0813475,
						49.14686111111111
					],
					[
						7.106740277777777,
						49.1548
					],
					[
						7.106740277777777,
						49.1548
					],
					[
						7.158559722222223,
						49.12056833333333
					],
					[
						7.158559722222223,
						49.12056833333333
					],
					[
						7.2936652777777775,
						49.11507138888889
					],
					[
						7.2936652777777775,
						49.11507138888889
					],
					[
						7.361784999999999,
						49.143188611111114
					],
					[
						7.361784999999999,
						49.143188611111114
					],
					[
						7.365475555555555,
						49.17142277777778
					],
					[
						7.365475555555555,
						49.17142277777778
					],
					[
						7.444600277777778,
						49.182806388888885
					],
					[
						7.444600277777778,
						49.182806388888885
					],
					[
						7.493333333333333,
						49.166666666666664
					],
					[
						7.493333333333333,
						49.166666666666664
					],
					[
						7.506708611111111,
						49.15440472222222
					],
					[
						7.506708611111111,
						49.15440472222222
					],
					[
						7.489171111111111,
						49.13907527777778
					],
					[
						7.489171111111111,
						49.13907527777778
					],
					[
						7.528615277777778,
						49.1014975
					],
					[
						7.528615277777778,
						49.1014975
					],
					[
						7.629923611111112,
						49.07406777777778
					],
					[
						7.629923611111112,
						49.07406777777778
					],
					[
						7.63120638888889,
						49.054566666666666
					],
					[
						7.63120638888889,
						49.054566666666666
					],
					[
						7.732285277777778,
						49.044082777777774
					],
					[
						7.732285277777778,
						49.044082777777774
					],
					[
						7.7933825,
						49.06500583333333
					],
					[
						7.7933825,
						49.06500583333333
					],
					[
						7.835277777777778,
						49.04722222222222
					],
					[
						7.835277777777778,
						49.04722222222222
					],
					[
						7.867265000000001,
						49.033498611111106
					],
					[
						7.867265000000001,
						49.033498611111106
					],
					[
						7.912542500000001,
						49.041239999999995
					],
					[
						7.912542500000001,
						49.041239999999995
					],
					[
						7.931638055555556,
						49.05780083333333
					],
					[
						7.931638055555556,
						49.05780083333333
					],
					[
						7.945978888888889,
						49.055458888888886
					],
					[
						7.945978888888889,
						49.055458888888886
					],
					[
						7.974891666666667,
						49.026495555555556
					],
					[
						7.974891666666667,
						49.026495555555556
					],
					[
						7.994293888888889,
						49.028745
					],
					[
						7.994293888888889,
						49.028745
					],
					[
						8.011469444444444,
						49.02460083333333
					],
					[
						8.011469444444444,
						49.02460083333333
					],
					[
						8.014204722222223,
						49.02087
					],
					[
						8.014204722222223,
						49.02087
					],
					[
						8.019048333333334,
						49.02100055555555
					],
					[
						8.019048333333334,
						49.02100055555555
					],
					[
						8.021798611111112,
						49.01823805555556
					],
					[
						8.021798611111112,
						49.01823805555556
					],
					[
						8.049641944444444,
						49.0142875
					],
					[
						8.049641944444444,
						49.0142875
					],
					[
						8.087623055555555,
						48.99012
					],
					[
						8.087623055555555,
						48.99012
					],
					[
						8.10456861111111,
						48.98912277777778
					],
					[
						8.10456861111111,
						48.98912277777778
					],
					[
						8.108005,
						48.986558333333335
					],
					[
						8.108005,
						48.986558333333335
					],
					[
						8.12379,
						48.986220555555555
					],
					[
						8.12379,
						48.986220555555555
					],
					[
						8.136237777777778,
						48.97931722222222
					],
					[
						8.136237777777778,
						48.97931722222222
					],
					[
						8.152159166666667,
						48.977248055555556
					],
					[
						8.152159166666667,
						48.977248055555556
					],
					[
						8.160500277777778,
						48.9785775
					],
					[
						8.160500277777778,
						48.9785775
					],
					[
						8.169876388888888,
						48.97605444444444
					],
					[
						8.169876388888888,
						48.97605444444444
					],
					[
						8.170185,
						48.979060277777776
					],
					[
						8.170185,
						48.979060277777776
					],
					[
						8.193857222222222,
						48.977200555555555
					],
					[
						8.193857222222222,
						48.977200555555555
					],
					[
						8.197555277777777,
						48.96791944444445
					],
					[
						8.197555277777777,
						48.96791944444445
					],
					[
						8.222685555555556,
						48.97580777777778
					],
					[
						8.222685555555556,
						48.97580777777778
					],
					[
						8.22861111111111,
						48.97027777777778
					],
					[
						8.22861111111111,
						48.97027777777778
					],
					[
						8.233626944444444,
						48.96673611111111
					],
					[
						8.233626944444444,
						48.96673611111111
					],
					[
						8.194803611111112,
						48.95515972222223
					],
					[
						8.194803611111112,
						48.95515972222223
					],
					[
						8.174935555555555,
						48.92993472222222
					],
					[
						8.174935555555555,
						48.92993472222222
					],
					[
						8.143718055555555,
						48.898585
					],
					[
						8.143718055555555,
						48.898585
					],
					[
						8.117921111111112,
						48.85826
					],
					[
						8.117921111111112,
						48.85826
					],
					[
						8.104569722222221,
						48.82058333333334
					],
					[
						8.104569722222221,
						48.82058333333334
					],
					[
						8.086366944444444,
						48.80143361111111
					],
					[
						8.086366944444444,
						48.80143361111111
					],
					[
						8.065200833333334,
						48.78966222222222
					],
					[
						8.065200833333334,
						48.78966222222222
					],
					[
						8.051500555555556,
						48.78987
					],
					[
						8.051500555555556,
						48.78987
					],
					[
						8.035356111111112,
						48.789785555555554
					],
					[
						8.035356111111112,
						48.789785555555554
					],
					[
						8.02616277777778,
						48.782961666666665
					],
					[
						8.02616277777778,
						48.782961666666665
					],
					[
						8.021547777777778,
						48.76652166666667
					],
					[
						8.021547777777778,
						48.76652166666667
					],
					[
						8.007326944444445,
						48.75882083333333
					],
					[
						8.007326944444445,
						48.75882083333333
					],
					[
						7.988381111111111,
						48.76082916666667
					],
					[
						7.988381111111111,
						48.76082916666667
					],
					[
						7.974688055555555,
						48.75941805555556
					],
					[
						7.974688055555555,
						48.75941805555556
					],
					[
						7.9681041666666665,
						48.75232722222222
					],
					[
						7.9681041666666665,
						48.75232722222222
					],
					[
						7.966801944444445,
						48.724874166666666
					],
					[
						7.966801944444445,
						48.724874166666666
					],
					[
						7.890111111111111,
						48.66263555555555
					],
					[
						7.890111111111111,
						48.66263555555555
					],
					[
						7.839937777777777,
						48.64147361111111
					],
					[
						7.839937777777777,
						48.64147361111111
					],
					[
						7.830463888888889,
						48.62013888888889
					],
					[
						7.830463888888889,
						48.62013888888889
					],
					[
						7.805195277777778,
						48.59316444444445
					],
					[
						7.805195277777778,
						48.59316444444445
					],
					[
						7.800398333333333,
						48.57769444444445
					],
					[
						7.800398333333333,
						48.57769444444445
					],
					[
						7.8057863888888885,
						48.55515138888889
					],
					[
						7.8057863888888885,
						48.55515138888889
					],
					[
						7.802994166666666,
						48.53647888888889
					],
					[
						7.802994166666666,
						48.53647888888889
					],
					[
						7.806704166666666,
						48.52303055555556
					],
					[
						7.806704166666666,
						48.52303055555556
					],
					[
						7.797411666666666,
						48.50348388888889
					],
					[
						7.797411666666666,
						48.50348388888889
					],
					[
						7.7774425,
						48.495562222222226
					],
					[
						7.7774425,
						48.495562222222226
					],
					[
						7.767090555555556,
						48.486468611111114
					],
					[
						7.767090555555556,
						48.486468611111114
					],
					[
						7.764914722222223,
						48.4554625
					],
					[
						7.764914722222223,
						48.4554625
					],
					[
						7.734958888888889,
						48.4022475
					],
					[
						7.734958888888889,
						48.4022475
					],
					[
						7.731210555555555,
						48.38075888888889
					],
					[
						7.731210555555555,
						48.38075888888889
					],
					[
						7.745563611111111,
						48.333484722222224
					],
					[
						7.745563611111111,
						48.333484722222224
					],
					[
						7.733261388888889,
						48.31765388888889
					],
					[
						7.733261388888889,
						48.31765388888889
					],
					[
						7.695865555555556,
						48.30401527777777
					],
					[
						7.695865555555556,
						48.30401527777777
					],
					[
						7.689710833333334,
						48.295025555555554
					],
					[
						7.689710833333334,
						48.295025555555554
					],
					[
						7.689657777777778,
						48.2841825
					],
					[
						7.689657777777778,
						48.2841825
					],
					[
						7.674135277777778,
						48.23988027777778
					],
					[
						7.674135277777778,
						48.23988027777778
					],
					[
						7.664435555555556,
						48.2192225
					],
					[
						7.664435555555556,
						48.2192225
					],
					[
						7.644586944444444,
						48.20767861111111
					],
					[
						7.644586944444444,
						48.20767861111111
					],
					[
						7.630451944444445,
						48.185361388888886
					],
					[
						7.630451944444445,
						48.185361388888886
					],
					[
						7.609439444444444,
						48.16558166666667
					],
					[
						7.609439444444444,
						48.16558166666667
					],
					[
						7.598987222222222,
						48.15318972222222
					],
					[
						7.598987222222222,
						48.15318972222222
					],
					[
						7.6005416666666665,
						48.14335527777778
					],
					[
						7.6005416666666665,
						48.14335527777778
					],
					[
						7.5992902777777775,
						48.136116944444446
					],
					[
						7.5992902777777775,
						48.136116944444446
					],
					[
						7.589801944444444,
						48.12881194444444
					],
					[
						7.589801944444444,
						48.12881194444444
					],
					[
						7.577046111111111,
						48.1198
					],
					[
						7.577046111111111,
						48.1198
					],
					[
						7.578987222222222,
						48.10008666666667
					],
					[
						7.578987222222222,
						48.10008666666667
					],
					[
						7.570005277777778,
						48.082998611111115
					],
					[
						7.570005277777778,
						48.082998611111115
					],
					[
						7.5694,
						48.0799
					],
					[
						7.5694,
						48.0799
					],
					[
						7.5697,
						48.077400000000004
					],
					[
						7.5697,
						48.077400000000004
					],
					[
						7.5708,
						48.072100000000006
					],
					[
						7.5708,
						48.072100000000006
					],
					[
						7.5731,
						48.0618
					],
					[
						7.5731,
						48.0618
					],
					[
						7.574,
						48.057599999999994
					],
					[
						7.574,
						48.057599999999994
					],
					[
						7.5743,
						48.0556
					],
					[
						7.5743,
						48.0556
					],
					[
						7.5744,
						48.053599999999996
					],
					[
						7.5744,
						48.053599999999996
					],
					[
						7.5744,
						48.0522
					],
					[
						7.5744,
						48.0522
					],
					[
						7.5743,
						48.0513
					],
					[
						7.5743,
						48.0513
					],
					[
						7.5741,
						48.0505
					],
					[
						7.5741,
						48.0505
					],
					[
						7.5731,
						48.0469
					],
					[
						7.5731,
						48.0469
					],
					[
						7.5724,
						48.044799999999995
					],
					[
						7.5724,
						48.044799999999995
					],
					[
						7.5714999999999995,
						48.042699999999996
					],
					[
						7.5714999999999995,
						48.042699999999996
					],
					[
						7.5709,
						48.041
					],
					[
						7.5709,
						48.041
					],
					[
						7.5699,
						48.038599999999995
					],
					[
						7.5699,
						48.038599999999995
					],
					[
						7.5697,
						48.0376
					],
					[
						7.5697,
						48.0376
					],
					[
						7.5695,
						48.0363
					],
					[
						7.5695,
						48.0363
					],
					[
						7.5695,
						48.0353
					],
					[
						7.5695,
						48.0353
					],
					[
						7.5698,
						48.034099999999995
					],
					[
						7.5698,
						48.034099999999995
					],
					[
						7.5701,
						48.0332
					],
					[
						7.5701,
						48.0332
					],
					[
						7.5705,
						48.0325
					],
					[
						7.5705,
						48.0325
					],
					[
						7.5708,
						48.0321
					],
					[
						7.5708,
						48.0321
					],
					[
						7.572909999999999,
						48.02936
					],
					[
						7.572909999999999,
						48.02936
					],
					[
						7.578469999999999,
						48.0249
					],
					[
						7.578469999999999,
						48.0249
					],
					[
						7.5905555555555555,
						48.015
					],
					[
						7.5905555555555555,
						48.015
					],
					[
						7.60508,
						48.00405
					],
					[
						7.60508,
						48.00405
					],
					[
						7.6085899999999995,
						48.00034
					],
					[
						7.6085899999999995,
						48.00034
					],
					[
						7.61447,
						47.99339
					],
					[
						7.61447,
						47.99339
					],
					[
						7.618650000000001,
						47.98589
					],
					[
						7.618650000000001,
						47.98589
					],
					[
						7.622000000000001,
						47.97545
					],
					[
						7.622000000000001,
						47.97545
					],
					[
						7.622120000000001,
						47.97279
					],
					[
						7.622120000000001,
						47.97279
					],
					[
						7.62115,
						47.96929
					],
					[
						7.62115,
						47.96929
					],
					[
						7.61735,
						47.96361
					],
					[
						7.61735,
						47.96361
					],
					[
						7.61294,
						47.958200000000005
					],
					[
						7.61294,
						47.958200000000005
					],
					[
						7.60907,
						47.95346
					],
					[
						7.60907,
						47.95346
					],
					[
						7.6033599999999995,
						47.94857
					],
					[
						7.6033599999999995,
						47.94857
					],
					[
						7.5895,
						47.93825
					],
					[
						7.5895,
						47.93825
					],
					[
						7.5857,
						47.934819999999995
					],
					[
						7.5857,
						47.934819999999995
					],
					[
						7.58265,
						47.929899999999996
					],
					[
						7.58265,
						47.929899999999996
					],
					[
						7.58102,
						47.92693
					],
					[
						7.58102,
						47.92693
					],
					[
						7.58055,
						47.924139999999994
					],
					[
						7.58055,
						47.924139999999994
					],
					[
						7.58101,
						47.92077
					],
					[
						7.58101,
						47.92077
					],
					[
						7.583333333333333,
						47.90833333333333
					],
					[
						7.583333333333333,
						47.90833333333333
					],
					[
						7.582529999999999,
						47.89826
					],
					[
						7.582529999999999,
						47.89826
					],
					[
						7.58074,
						47.89495
					],
					[
						7.58074,
						47.89495
					],
					[
						7.57593,
						47.89073
					],
					[
						7.57593,
						47.89073
					],
					[
						7.56359,
						47.88565
					],
					[
						7.56359,
						47.88565
					],
					[
						7.559159999999999,
						47.88241
					],
					[
						7.559159999999999,
						47.88241
					],
					[
						7.55657,
						47.87937
					],
					[
						7.55657,
						47.87937
					],
					[
						7.5554499999999996,
						47.87409
					],
					[
						7.5554499999999996,
						47.87409
					],
					[
						7.55565,
						47.87053
					],
					[
						7.55565,
						47.87053
					],
					[
						7.55621,
						47.86629
					],
					[
						7.55621,
						47.86629
					],
					[
						7.5573,
						47.86365
					],
					[
						7.5573,
						47.86365
					],
					[
						7.56074,
						47.85781
					],
					[
						7.56074,
						47.85781
					],
					[
						7.56339,
						47.85118
					],
					[
						7.56339,
						47.85118
					],
					[
						7.563231388888889,
						47.844811944444444
					],
					[
						7.563231388888889,
						47.844811944444444
					],
					[
						7.5615499999999995,
						47.83887
					],
					[
						7.5615499999999995,
						47.83887
					],
					[
						7.55924,
						47.835060000000006
					],
					[
						7.55924,
						47.835060000000006
					],
					[
						7.54995,
						47.82293000000001
					],
					[
						7.54995,
						47.82293000000001
					],
					[
						7.54586,
						47.81267
					],
					[
						7.54586,
						47.81267
					],
					[
						7.54108,
						47.80345
					],
					[
						7.54108,
						47.80345
					],
					[
						7.53136,
						47.78691
					],
					[
						7.53136,
						47.78691
					],
					[
						7.53003,
						47.78255
					],
					[
						7.53003,
						47.78255
					],
					[
						7.53017,
						47.7728
					],
					[
						7.53017,
						47.7728
					],
					[
						7.53339,
						47.76604
					],
					[
						7.53339,
						47.76604
					],
					[
						7.5398499999999995,
						47.75434
					],
					[
						7.5398499999999995,
						47.75434
					],
					[
						7.54615,
						47.74302
					],
					[
						7.54615,
						47.74302
					],
					[
						7.54813,
						47.73946
					],
					[
						7.54813,
						47.73946
					],
					[
						7.54857,
						47.73508
					],
					[
						7.54857,
						47.73508
					],
					[
						7.54763,
						47.72981
					],
					[
						7.54763,
						47.72981
					],
					[
						7.5437199999999995,
						47.72232
					],
					[
						7.5437199999999995,
						47.72232
					],
					[
						7.53899,
						47.71844
					],
					[
						7.53899,
						47.71844
					],
					[
						7.52412,
						47.70998
					],
					[
						7.52412,
						47.70998
					],
					[
						7.51376,
						47.70282
					],
					[
						7.51376,
						47.70282
					],
					[
						7.51216,
						47.700450000000004
					],
					[
						7.51216,
						47.700450000000004
					],
					[
						7.51171,
						47.698449999999994
					],
					[
						7.51171,
						47.698449999999994
					],
					[
						7.51159,
						47.696749999999994
					],
					[
						7.51159,
						47.696749999999994
					],
					[
						7.51235,
						47.69486
					],
					[
						7.51235,
						47.69486
					],
					[
						7.516388888888889,
						47.689166666666665
					],
					[
						7.516388888888889,
						47.689166666666665
					],
					[
						7.4995,
						47.63280555555556
					],
					[
						7.4995,
						47.63280555555556
					],
					[
						7.415555555555556,
						47.5775
					],
					[
						7.415555555555556,
						47.5775
					],
					[
						7.3951,
						47.481907222222226
					],
					[
						7.3951,
						47.481907222222226
					],
					[
						7.384460000000001,
						47.43205638888889
					],
					[
						7.384460000000001,
						47.43205638888889
					],
					[
						7.343232777777778,
						47.371969166666666
					],
					[
						7.343232777777778,
						47.371969166666666
					],
					[
						7.043232777777778,
						47.36419138888889
					],
					[
						7.043232777777778,
						47.36419138888889
					],
					[
						7.061575555555556,
						47.343026111111115
					],
					[
						7.061575555555556,
						47.343026111111115
					],
					[
						7.056549166666667,
						47.334045
					],
					[
						7.056549166666667,
						47.334045
					],
					[
						7.045492222222222,
						47.3263625
					],
					[
						7.045492222222222,
						47.3263625
					],
					[
						7.009790833333334,
						47.32434611111111
					],
					[
						7.009790833333334,
						47.32434611111111
					],
					[
						7.0163475,
						47.314926111111106
					],
					[
						7.0163475,
						47.314926111111106
					],
					[
						7.008519166666667,
						47.301674999999996
					],
					[
						7.008519166666667,
						47.301674999999996
					],
					[
						6.995956944444445,
						47.296440555555556
					],
					[
						6.995956944444445,
						47.296440555555556
					],
					[
						6.964722222222222,
						47.29222222222222
					],
					[
						6.964722222222222,
						47.29222222222222
					],
					[
						6.950254166666667,
						47.29229083333333
					],
					[
						6.950254166666667,
						47.29229083333333
					],
					[
						6.940349444444444,
						47.28572805555555
					],
					[
						6.940349444444444,
						47.28572805555555
					],
					[
						6.951610555555556,
						47.26931472222222
					],
					[
						6.951610555555556,
						47.26931472222222
					],
					[
						6.946273333333334,
						47.254023333333336
					],
					[
						6.946273333333334,
						47.254023333333336
					],
					[
						6.954839444444445,
						47.243162777777776
					],
					[
						6.954839444444445,
						47.243162777777776
					],
					[
						6.942614166666667,
						47.23789194444444
					],
					[
						6.942614166666667,
						47.23789194444444
					],
					[
						6.9405600000000005,
						47.231586666666665
					],
					[
						6.9405600000000005,
						47.231586666666665
					],
					[
						6.930533888888889,
						47.23055333333333
					],
					[
						6.930533888888889,
						47.23055333333333
					],
					[
						6.926735277777778,
						47.227894166666665
					],
					[
						6.926735277777778,
						47.227894166666665
					],
					[
						6.926996666666667,
						47.2255575
					],
					[
						6.926996666666667,
						47.2255575
					],
					[
						6.922420277777778,
						47.2217725
					],
					[
						6.922420277777778,
						47.2217725
					],
					[
						6.9083563888888895,
						47.21723388888889
					],
					[
						6.9083563888888895,
						47.21723388888889
					],
					[
						6.907124722222223,
						47.21484138888889
					],
					[
						6.907124722222223,
						47.21484138888889
					],
					[
						6.880145277777778,
						47.20061388888889
					],
					[
						6.880145277777778,
						47.20061388888889
					],
					[
						6.877791388888889,
						47.195407777777774
					],
					[
						6.877791388888889,
						47.195407777777774
					],
					[
						6.872881944444445,
						47.190151666666665
					],
					[
						6.872881944444445,
						47.190151666666665
					],
					[
						6.873523333333334,
						47.1856575
					],
					[
						6.873523333333334,
						47.1856575
					],
					[
						6.8668611111111115,
						47.18557944444444
					],
					[
						6.8668611111111115,
						47.18557944444444
					],
					[
						6.863912777777777,
						47.180567777777775
					],
					[
						6.863912777777777,
						47.180567777777775
					],
					[
						6.840497777777777,
						47.17175638888889
					],
					[
						6.840497777777777,
						47.17175638888889
					],
					[
						6.843813055555556,
						47.16614722222222
					],
					[
						6.843813055555556,
						47.16614722222222
					],
					[
						6.8587925,
						47.16518027777778
					],
					[
						6.8587925,
						47.16518027777778
					],
					[
						6.849131944444444,
						47.15618111111111
					],
					[
						6.849131944444444,
						47.15618111111111
					],
					[
						6.839923333333333,
						47.154199444444444
					],
					[
						6.839923333333333,
						47.154199444444444
					],
					[
						6.839109166666667,
						47.150372222222224
					],
					[
						6.839109166666667,
						47.150372222222224
					],
					[
						6.830123333333333,
						47.146322222222224
					],
					[
						6.830123333333333,
						47.146322222222224
					],
					[
						6.827353611111111,
						47.1463975
					],
					[
						6.827353611111111,
						47.1463975
					],
					[
						6.824111111111111,
						47.14174777777778
					],
					[
						6.824111111111111,
						47.14174777777778
					],
					[
						6.819252222222222,
						47.1401025
					],
					[
						6.819252222222222,
						47.1401025
					],
					[
						6.815284166666666,
						47.13558333333333
					],
					[
						6.815284166666666,
						47.13558333333333
					],
					[
						6.807640833333333,
						47.13540666666667
					],
					[
						6.807640833333333,
						47.13540666666667
					],
					[
						6.805718055555555,
						47.130808611111114
					],
					[
						6.805718055555555,
						47.130808611111114
					],
					[
						6.778699444444444,
						47.12355
					],
					[
						6.778699444444444,
						47.12355
					],
					[
						6.776222777777778,
						47.12133194444444
					],
					[
						6.776222777777778,
						47.12133194444444
					],
					[
						6.766409444444444,
						47.120975
					],
					[
						6.766409444444444,
						47.120975
					],
					[
						6.752321388888889,
						47.11486472222222
					],
					[
						6.752321388888889,
						47.11486472222222
					],
					[
						6.7462044444444444,
						47.10982083333334
					],
					[
						6.7462044444444444,
						47.10982083333334
					],
					[
						6.739517222222222,
						47.109967222222224
					],
					[
						6.739517222222222,
						47.109967222222224
					],
					[
						6.740111944444444,
						47.108925
					],
					[
						6.740111944444444,
						47.108925
					],
					[
						6.741547222222223,
						47.10322583333333
					],
					[
						6.741547222222223,
						47.10322583333333
					],
					[
						6.746626388888889,
						47.097589722222224
					],
					[
						6.746626388888889,
						47.097589722222224
					],
					[
						6.744918888888889,
						47.09209805555556
					],
					[
						6.744918888888889,
						47.09209805555556
					],
					[
						6.738035555555555,
						47.089711666666666
					],
					[
						6.738035555555555,
						47.089711666666666
					],
					[
						6.7258933333333335,
						47.091615833333336
					],
					[
						6.7258933333333335,
						47.091615833333336
					],
					[
						6.703632777777778,
						47.08212
					],
					[
						6.703632777777778,
						47.08212
					],
					[
						6.700461111111111,
						47.07001944444445
					],
					[
						6.700461111111111,
						47.07001944444445
					],
					[
						6.239166666666667,
						47.06333333333333
					],
					[
						6.239166666666667,
						47.06333333333333
					],
					[
						5.9511111111111115,
						46.96666666666667
					],
					[
						5.9511111111111115,
						46.96666666666667
					],
					[
						5.783333333333333,
						47.46666722222223
					],
					[
						5.783333333333333,
						47.46666722222223
					],
					[
						5.269444444444445,
						47.77694416666667
					],
					[
						5.269444444444445,
						47.77694416666667
					],
					[
						4.945,
						47.969722222222224
					],
					[
						4.945,
						47.969722222222224
					],
					[
						4.458333333333334,
						48.27027805555556
					],
					[
						4.458333333333334,
						48.27027805555556
					],
					[
						3.963611111111111,
						48.49388916666667
					],
					[
						3.963611111111111,
						48.49388916666667
					],
					[
						3.5,
						48.7
					],
					[
						3.5,
						48.7
					],
					[
						3.116667222222222,
						48.66666722222222
					],
					[
						3.116667222222222,
						48.66666722222222
					],
					[
						3.016666388888889,
						48.583333333333336
					],
					[
						3.016666388888889,
						48.583333333333336
					],
					[
						2.4547222222222222,
						49.07611111111112
					],
					[
						2.4547222222222222,
						49.07611111111112
					],
					[
						2.2413891666666665,
						49.26555611111111
					],
					[
						2.2413891666666665,
						49.26555611111111
					],
					[
						1.8094441666666667,
						49.60611111111111
					],
					[
						1.8094441666666667,
						49.60611111111111
					],
					[
						1.5548483333333334,
						49.8042375
					],
					[
						1.5548483333333334,
						49.8042375
					],
					[
						1.4033333333333333,
						49.92194444444444
					],
					[
						1.4033333333333333,
						49.92194444444444
					],
					[
						1.4525,
						49.94888888888889
					],
					[
						1.4525,
						49.94888888888889
					],
					[
						1.6516666666666666,
						50.058611111111105
					],
					[
						1.6516666666666666,
						50.058611111111105
					],
					[
						1.7575,
						50.11638888888889
					],
					[
						1.7575,
						50.11638888888889
					],
					[
						1.8586111111111112,
						50.171388888888885
					],
					[
						1.8586111111111112,
						50.171388888888885
					],
					[
						1.9516666666666667,
						50.22944444444445
					],
					[
						1.9516666666666667,
						50.22944444444445
					],
					[
						1.538333333333333,
						50.60166666666667
					]
				]
			}
		},
		{
			"type": "Feature",
			"properties": {},
			"geometry": {
				"type": "LineString",
				"coordinates": [
					[
						-1.7200000000000002,
						44.81666666666667
					],
					[
						-1.7580552777777778,
						44.2
					],
					[
						-1.7580552777777778,
						44.2
					],
					[
						-1.7586111111111111,
						44.06527777777777
					],
					[
						-1.7586111111111111,
						44.06527777777777
					],
					[
						-2.0702772222222223,
						43.680277777777775
					],
					[
						-2.0702772222222223,
						43.680277777777775
					],
					[
						-1.7833333333333332,
						43.583333333333336
					],
					[
						-1.7833333333333332,
						43.583333333333336
					],
					[
						-1.7833333333333332,
						43.38333333333333
					],
					[
						-1.7833333333333332,
						43.38333333333333
					],
					[
						-1.786062222222222,
						43.37264361111111
					],
					[
						-1.786062222222222,
						43.37264361111111
					],
					[
						-1.7757755555555554,
						43.36346916666667
					],
					[
						-1.7757755555555554,
						43.36346916666667
					],
					[
						-1.7843802777777777,
						43.353789444444445
					],
					[
						-1.7843802777777777,
						43.353789444444445
					],
					[
						-1.7625,
						43.34166666666667
					],
					[
						-1.7625,
						43.34166666666667
					],
					[
						-1.7333480555555556,
						43.33261027777778
					],
					[
						-1.7333480555555556,
						43.33261027777778
					],
					[
						-1.7253250000000002,
						43.303081388888884
					],
					[
						-1.7253250000000002,
						43.303081388888884
					],
					[
						-1.6890802777777778,
						43.31980027777778
					],
					[
						-1.6890802777777778,
						43.31980027777778
					],
					[
						-1.634755,
						43.318733611111114
					],
					[
						-1.634755,
						43.318733611111114
					],
					[
						-1.6180555555555556,
						43.29083333333333
					],
					[
						-1.6180555555555556,
						43.29083333333333
					],
					[
						-1.6008755555555556,
						43.26105222222222
					],
					[
						-1.6008755555555556,
						43.26105222222222
					],
					[
						-1.573798888888889,
						43.262406666666664
					],
					[
						-1.573798888888889,
						43.262406666666664
					],
					[
						-1.5251294444444443,
						43.29520722222222
					],
					[
						-1.5251294444444443,
						43.29520722222222
					],
					[
						-1.4152777777777776,
						43.26722222222222
					],
					[
						-1.4152777777777776,
						43.26722222222222
					],
					[
						-1.3833333333333333,
						43.233333333333334
					],
					[
						-1.3833333333333333,
						43.233333333333334
					],
					[
						-1.4700000000000002,
						43.08166666666667
					],
					[
						-1.4700000000000002,
						43.08166666666667
					],
					[
						-1.358888888888889,
						43.02611111111111
					],
					[
						-1.358888888888889,
						43.02611111111111
					],
					[
						-1.3166666666666667,
						43.11666666666667
					],
					[
						-1.3166666666666667,
						43.11666666666667
					],
					[
						-1.25,
						43.05
					],
					[
						-1.25,
						43.05
					],
					[
						-1.1083333333333334,
						43.020833333333336
					],
					[
						-1.1083333333333334,
						43.020833333333336
					],
					[
						-1,
						42.988055
					],
					[
						-1,
						42.988055
					],
					[
						-0.9,
						42.95
					],
					[
						-0.9,
						42.95
					],
					[
						-0.75,
						42.96666666666667
					],
					[
						-0.75,
						42.96666666666667
					],
					[
						-0.5666666666666667,
						42.8
					],
					[
						-0.5666666666666667,
						42.8
					],
					[
						-0.46,
						42.81666666666667
					],
					[
						-0.46,
						42.81666666666667
					],
					[
						-0.27475527777777775,
						42.83827166666667
					],
					[
						-0.27475527777777775,
						42.83827166666667
					],
					[
						-0.15,
						42.8
					],
					[
						-0.15,
						42.8
					],
					[
						-0.06666666666666667,
						42.7
					],
					[
						-0.06666666666666667,
						42.7
					],
					[
						0.2,
						42.75
					],
					[
						0.2,
						42.75
					],
					[
						0.6333333333333333,
						42.71666666666667
					],
					[
						0.6333333333333333,
						42.71666666666667
					],
					[
						0.6333333333333333,
						42.88333333333333
					],
					[
						0.6333333333333333,
						42.88333333333333
					],
					[
						0.75,
						42.85027777777778
					],
					[
						0.75,
						42.85027777777778
					],
					[
						0.8847222222222222,
						42.81666666666667
					],
					[
						0.8847222222222222,
						42.81666666666667
					],
					[
						1.0863888888888888,
						42.78861111111111
					],
					[
						1.0863888888888888,
						42.78861111111111
					],
					[
						1.1833333333333333,
						42.71666666666667
					],
					[
						1.1833333333333333,
						42.71666666666667
					],
					[
						1.357777777777778,
						42.71944444444445
					],
					[
						1.357777777777778,
						42.71944444444445
					],
					[
						1.4166666666666667,
						42.666666666666664
					],
					[
						1.4166666666666667,
						42.666666666666664
					],
					[
						1.4483333333333333,
						42.61055555555556
					],
					[
						1.4483333333333333,
						42.61055555555556
					],
					[
						1.4583333333333333,
						42.45
					],
					[
						1.4583333333333333,
						42.45
					],
					[
						1.7016672222222222,
						42.4925
					],
					[
						1.7016672222222222,
						42.4925
					],
					[
						1.6969483333333333,
						42.49309
					],
					[
						1.6969483333333333,
						42.49309
					],
					[
						1.7316672222222222,
						42.49777805555556
					],
					[
						1.7316672222222222,
						42.49777805555556
					],
					[
						1.745277777777778,
						42.5
					],
					[
						1.745277777777778,
						42.5
					],
					[
						1.9461111111111111,
						42.45333333333333
					],
					[
						1.9461111111111111,
						42.45333333333333
					],
					[
						2.069444444444444,
						42.362500000000004
					],
					[
						2.069444444444444,
						42.362500000000004
					],
					[
						2.25,
						42.43333333333333
					],
					[
						2.25,
						42.43333333333333
					],
					[
						2.558333611111111,
						42.33305583333334
					],
					[
						2.558333611111111,
						42.33305583333334
					],
					[
						2.7055555555555557,
						42.42472222222222
					],
					[
						2.7055555555555557,
						42.42472222222222
					],
					[
						2.8758333333333335,
						42.465
					],
					[
						2.8758333333333335,
						42.465
					],
					[
						2.9494444444444445,
						42.48305555555556
					],
					[
						2.9494444444444445,
						42.48305555555556
					],
					[
						3.0425,
						42.47805555555556
					],
					[
						3.0425,
						42.47805555555556
					],
					[
						3.0994444444444444,
						42.43444444444444
					],
					[
						3.0994444444444444,
						42.43444444444444
					],
					[
						3.1666666666666665,
						42.43333333333333
					],
					[
						3.1666666666666665,
						42.43333333333333
					],
					[
						3.8419444444444446,
						43.60305555555556
					],
					[
						3.8419444444444446,
						43.60305555555556
					],
					[
						4.116665555555556,
						43.95
					],
					[
						4.116665555555556,
						43.95
					],
					[
						4.221944166666667,
						44.085
					],
					[
						4.221944166666667,
						44.085
					],
					[
						4.273611111111111,
						44.431666111111106
					],
					[
						4.273611111111111,
						44.431666111111106
					],
					[
						3.3691666666666666,
						44.85888888888889
					],
					[
						3.3691666666666666,
						44.85888888888889
					],
					[
						4.491665555555556,
						45.358333333333334
					],
					[
						4.491665555555556,
						45.358333333333334
					],
					[
						4.229444444444445,
						45.68944444444444
					],
					[
						4.229444444444445,
						45.68944444444444
					],
					[
						3.668888055555555,
						45.77777777777778
					],
					[
						3.668888055555555,
						45.77777777777778
					],
					[
						3.3697222222222223,
						46.52416611111111
					],
					[
						3.3697222222222223,
						46.52416611111111
					],
					[
						3.5,
						46.56666722222223
					],
					[
						3.5,
						46.56666722222223
					],
					[
						3.065,
						47.31388916666666
					],
					[
						3.065,
						47.31388916666666
					],
					[
						2.831667222222222,
						47.734167222222226
					],
					[
						2.831667222222222,
						47.734167222222226
					],
					[
						2.610278055555556,
						48.13333333333333
					],
					[
						2.610278055555556,
						48.13333333333333
					],
					[
						1.7822222222222222,
						48.13333333333333
					],
					[
						1.7822222222222222,
						48.13333333333333
					],
					[
						1.7683333333333333,
						48.110278055555554
					],
					[
						1.7683333333333333,
						48.110278055555554
					],
					[
						1.7152780555555556,
						47.953611111111115
					],
					[
						1.7152780555555556,
						47.953611111111115
					],
					[
						1.6905561111111111,
						47.83166722222222
					],
					[
						1.6905561111111111,
						47.83166722222222
					],
					[
						1.6766666666666665,
						47.76277777777778
					],
					[
						1.6766666666666665,
						47.76277777777778
					],
					[
						1.6336111111111111,
						47.55027805555555
					],
					[
						1.6336111111111111,
						47.55027805555555
					],
					[
						1.4666666666666668,
						47.166666388888885
					],
					[
						1.4666666666666668,
						47.166666388888885
					],
					[
						0.9866666666666666,
						47.00416666666667
					],
					[
						0.9866666666666666,
						47.00416666666667
					],
					[
						0.5744444444444444,
						47.06388888888888
					],
					[
						0.5744444444444444,
						47.06388888888888
					],
					[
						0.3219444444444444,
						47.083333333333336
					],
					[
						0.3219444444444444,
						47.083333333333336
					],
					[
						-0.25,
						47.044443611111106
					],
					[
						-0.25,
						47.044443611111106
					],
					[
						-0.25,
						46.5
					],
					[
						-0.25,
						46.5
					],
					[
						-0.7222222222222222,
						46.305
					],
					[
						-0.7222222222222222,
						46.305
					],
					[
						-0.9419444444444445,
						46.21333333333334
					],
					[
						-0.9419444444444445,
						46.21333333333334
					],
					[
						-1.66,
						45.981388888888894
					],
					[
						-1.66,
						45.981388888888894
					],
					[
						-1.6610991666666666,
						45.960012222222225
					],
					[
						-1.6610991666666666,
						45.960012222222225
					],
					[
						-1.6780549999999999,
						45.56111055555555
					],
					[
						-1.6780549999999999,
						45.56111055555555
					],
					[
						-1.7200000000000002,
						44.81666666666667
					]
				]
			}
		},
		{
			"type": "Feature",
			"properties": {},
			"geometry": {
				"type": "LineString",
				"coordinates": [
					[
						5.133333333333334,
						46.233333333333334
					],
					[
						4.599999722222222,
						46.27499972222222
					],
					[
						4.599999722222222,
						46.27499972222222
					],
					[
						4.5,
						46.28333333333333
					],
					[
						4.5,
						46.28333333333333
					],
					[
						4.05,
						46.28333333333333
					],
					[
						4.05,
						46.28333333333333
					],
					[
						3.6833333333333336,
						46.28333333333333
					],
					[
						3.6833333333333336,
						46.28333333333333
					],
					[
						3.5,
						46.56666722222223
					],
					[
						3.5,
						46.56666722222223
					],
					[
						3.065,
						47.31388916666666
					],
					[
						3.065,
						47.31388916666666
					],
					[
						2.831667222222222,
						47.734167222222226
					],
					[
						2.831667222222222,
						47.734167222222226
					],
					[
						2.610278055555556,
						48.13333333333333
					],
					[
						2.610278055555556,
						48.13333333333333
					],
					[
						2.7927780555555555,
						48.39527805555556
					],
					[
						2.7927780555555555,
						48.39527805555556
					],
					[
						2.9202780555555554,
						48.5025
					],
					[
						2.9202780555555554,
						48.5025
					],
					[
						3.016666388888889,
						48.583333333333336
					],
					[
						3.016666388888889,
						48.583333333333336
					],
					[
						3.116667222222222,
						48.66666722222222
					],
					[
						3.116667222222222,
						48.66666722222222
					],
					[
						3.5,
						48.7
					],
					[
						3.5,
						48.7
					],
					[
						3.963611111111111,
						48.49388916666667
					],
					[
						3.963611111111111,
						48.49388916666667
					],
					[
						4.458333333333334,
						48.27027805555556
					],
					[
						4.458333333333334,
						48.27027805555556
					],
					[
						4.586389166666667,
						48.19166722222222
					],
					[
						4.586389166666667,
						48.19166722222222
					],
					[
						4.945,
						47.969722222222224
					],
					[
						4.945,
						47.969722222222224
					],
					[
						5.269444444444445,
						47.77694416666667
					],
					[
						5.269444444444445,
						47.77694416666667
					],
					[
						5.783333333333333,
						47.46666722222223
					],
					[
						5.783333333333333,
						47.46666722222223
					],
					[
						5.9511111111111115,
						46.96666666666667
					],
					[
						5.9511111111111115,
						46.96666666666667
					],
					[
						5.894029722222221,
						46.92552333333333
					],
					[
						5.894029722222221,
						46.92552333333333
					],
					[
						5.820555555555555,
						46.8725
					],
					[
						5.820555555555555,
						46.8725
					],
					[
						5.583333333333333,
						46.7
					],
					[
						5.583333333333333,
						46.7
					],
					[
						5.462268333333333,
						46.70014777777778
					],
					[
						5.462268333333333,
						46.70014777777778
					],
					[
						5.419240277777778,
						46.70016944444445
					],
					[
						5.419240277777778,
						46.70016944444445
					],
					[
						5.183333333333334,
						46.7
					],
					[
						5.183333333333334,
						46.7
					],
					[
						5.161666666666667,
						46.5
					],
					[
						5.161666666666667,
						46.5
					],
					[
						5.150525833333334,
						46.3937975
					],
					[
						5.150525833333334,
						46.3937975
					],
					[
						5.133333333333334,
						46.233333333333334
					]
				]
			}
		}
	]
}