{
"type": "FeatureCollection",
"name": "CCA_LFBI_BI_Labels",
"crs": { "type": "name", "properties": { "name": "urn:ogc:def:crs:OGC:1.3:CRS84" } },
"features": [
{ "type": "Feature", "properties": { "fir": "LFBB", "identifier": "LFBB:POITIERS BI:\u0003d-\u0003d", "subsector_id": "", "name": "BI", "level_lower": 0, "level_upper": 145, "callout_x1": null, "callout_y1": null, "callout_x2": null, "callout_y2": null, "style": 10, "buffer": null }, "geometry": { "type": "Point", "coordinates": [ 0.729904072499474, 46.753089697703565 ] } }
]
}
