{
"type": "FeatureCollection",
"name": "CCA_LFML_Labels_13",
"crs": { "type": "name", "properties": { "name": "urn:ogc:def:crs:OGC:1.3:CRS84" } },
"xy_coordinate_resolution": 1e-15,
"features": [
{ "type": "Feature", "properties": { "fir": "LFML", "identifier": null, "subsector_id": null, "name": "ME2", "level_lower": "0", "level_upper": "145", "callout_x1": "4.3588", "callout_y1": "43.7871", "callout_x2": "5.0918", "callout_y2": "43.6572", "style": 30, "buffer": null }, "geometry": { "type": "Point", "coordinates": [ 4.290377984863221, 43.822063414477732 ] } },
{ "type": "Feature", "properties": { "fir": "LFLL", "identifier": null, "subsector_id": null, "name": "VW3", "level_lower": "85", "level_upper": "115", "callout_x1": null, "callout_y1": null, "callout_x2": null, "callout_y2": null, "style": 31, "buffer": null }, "geometry": { "type": "Point", "coordinates": [ 3.818369272311477, 46.237952428235054 ] } },
{ "type": "Feature", "properties": { "fir": "LFML", "identifier": null, "subsector_id": null, "name": "ME1", "level_lower": "0", "level_upper": "115", "callout_x1": "6.0330", "callout_y1": "43.5560", "callout_x2": "5.7849", "callout_y2": "43.4257", "style": 30, "buffer": null }, "geometry": { "type": "Point", "coordinates": [ 6.124311095275327, 43.609732899884634 ] } },
{ "type": "Feature", "properties": { "fir": "LFMM", "identifier": null, "subsector_id": null, "name": "ST", "level_lower": "115", "level_upper": "145", "callout_x1": null, "callout_y1": null, "callout_x2": null, "callout_y2": null, "style": 31, "buffer": null }, "geometry": { "type": "Point", "coordinates": [ 6.124311095275327, 43.609732899884634 ] } },
{ "type": "Feature", "properties": { "fir": "LFML", "identifier": null, "subsector_id": null, "name": "ME1", "level_lower": "0", "level_upper": "75", "callout_x1": "6.0616", "callout_y1": "43.2452", "callout_x2": "5.7878", "callout_y2": "43.2473", "style": 30, "buffer": null }, "geometry": { "type": "Point", "coordinates": [ 6.26977079765638, 43.234786172426404 ] } },
{ "type": "Feature", "properties": { "fir": "LFML", "identifier": null, "subsector_id": null, "name": "MAC6", "level_lower": "75", "level_upper": "115", "callout_x1": null, "callout_y1": null, "callout_x2": null, "callout_y2": null, "style": 31, "buffer": null }, "geometry": { "type": "Point", "coordinates": [ 6.26977079765638, 43.234786172426404 ] } },
{ "type": "Feature", "properties": { "fir": "LFMM", "identifier": null, "subsector_id": null, "name": "ST", "level_lower": "115", "level_upper": "145", "callout_x1": null, "callout_y1": null, "callout_x2": null, "callout_y2": null, "style": 32, "buffer": null }, "geometry": { "type": "Point", "coordinates": [ 6.26977079765638, 43.234786172426404 ] } },
{ "type": "Feature", "properties": { "fir": "LFML", "identifier": null, "subsector_id": null, "name": "ME1", "level_lower": "0", "level_upper": "45", "callout_x1": "5.9446", "callout_y1": "42.9954", "callout_x2": "5.5596", "callout_y2": "43.2514", "style": 30, "buffer": null }, "geometry": { "type": "Point", "coordinates": [ 6.084380980896214, 42.953618361377387 ] } },
{ "type": "Feature", "properties": { "fir": "LFML", "identifier": null, "subsector_id": null, "name": "MAC4", "level_lower": "45", "level_upper": "115", "callout_x1": null, "callout_y1": null, "callout_x2": null, "callout_y2": null, "style": 31, "buffer": null }, "geometry": { "type": "Point", "coordinates": [ 6.084380980896214, 42.953618361377387 ] } },
{ "type": "Feature", "properties": { "fir": "LFMM", "identifier": null, "subsector_id": null, "name": "ST", "level_lower": "115", "level_upper": "145", "callout_x1": null, "callout_y1": null, "callout_x2": null, "callout_y2": null, "style": 32, "buffer": null }, "geometry": { "type": "Point", "coordinates": [ 6.084380980896214, 42.953618361377387 ] } },
{ "type": "Feature", "properties": { "fir": "LFML", "identifier": null, "subsector_id": null, "name": "ME2", "level_lower": "0", "level_upper": "45", "callout_x1": "5.7849", "callout_y1": "42.7948", "callout_x2": "5.4284", "callout_y2": "43.2743", "style": 30, "buffer": null }, "geometry": { "type": "Point", "coordinates": [ 5.859061049756935, 42.740324557891547 ] } },
{ "type": "Feature", "properties": { "fir": "LFML", "identifier": null, "subsector_id": null, "name": "MAC5", "level_lower": "45", "level_upper": "145", "callout_x1": null, "callout_y1": null, "callout_x2": null, "callout_y2": null, "style": 31, "buffer": null }, "geometry": { "type": "Point", "coordinates": [ 5.859061049756935, 42.740324557891547 ] } },
{ "type": "Feature", "properties": { "fir": "LFML", "identifier": null, "subsector_id": null, "name": "MAC1", "level_lower": "0", "level_upper": "145", "callout_x1": null, "callout_y1": null, "callout_x2": null, "callout_y2": null, "style": 30, "buffer": null }, "geometry": { "type": "Point", "coordinates": [ 4.960633476226898, 42.984922972656271 ] } },
{ "type": "Feature", "properties": { "fir": "LFMT", "identifier": null, "subsector_id": null, "name": "FE4", "level_lower": "0", "level_upper": "95", "callout_x1": "4.0394", "callout_y1": "43.1828", "callout_x2": "4.3788", "callout_y2": "43.4567", "style": 30, "buffer": null }, "geometry": { "type": "Point", "coordinates": [ 4.085023110913498, 43.12871894791342 ] } },
{ "type": "Feature", "properties": { "fir": "LFML", "identifier": null, "subsector_id": null, "name": "MAC2", "level_lower": "95", "level_upper": "145", "callout_x1": null, "callout_y1": null, "callout_x2": null, "callout_y2": null, "style": 31, "buffer": null }, "geometry": { "type": "Point", "coordinates": [ 4.085023110913498, 43.12871894791342 ] } },
{ "type": "Feature", "properties": { "fir": "LFMT", "identifier": null, "subsector_id": null, "name": "FE3", "level_lower": "0", "level_upper": "115", "callout_x1": "3.7998", "callout_y1": "43.6035", "callout_x2": "4.1364", "callout_y2": "43.5188", "style": 30, "buffer": null }, "geometry": { "type": "Point", "coordinates": [ 3.722799930474404, 43.61799278611354 ] } },
{ "type": "Feature", "properties": { "fir": "LFML", "identifier": null, "subsector_id": null, "name": "MAC3", "level_lower": "115", "level_upper": "145", "callout_x1": null, "callout_y1": null, "callout_x2": null, "callout_y2": null, "style": 31, "buffer": null }, "geometry": { "type": "Point", "coordinates": [ 3.722799930474404, 43.61799278611354 ] } },
{ "type": "Feature", "properties": { "fir": "LFML", "identifier": null, "subsector_id": null, "name": "ME2", "level_lower": "0", "level_upper": "105", "callout_x1": "5.4883", "callout_y1": "43.9187", "callout_x2": "5.2630", "callout_y2": "43.7768", "style": 30, "buffer": null }, "geometry": { "type": "Point", "coordinates": [ 5.642297571698895, 43.959777395901483 ] } },
{ "type": "Feature", "properties": { "fir": "LFML", "identifier": null, "subsector_id": null, "name": "MAC7", "level_lower": "105", "level_upper": "145", "callout_x1": null, "callout_y1": null, "callout_x2": null, "callout_y2": null, "style": 31, "buffer": null }, "geometry": { "type": "Point", "coordinates": [ 5.642297571698895, 43.959777395901483 ] } },
{ "type": "Feature", "properties": { "fir": "LFML", "identifier": null, "subsector_id": null, "name": "MB", "level_lower": "0", "level_upper": "105", "callout_x1": "5.4227", "callout_y1": "44.1054", "callout_x2": "5.1574", "callout_y2": "43.9885", "style": 30, "buffer": null }, "geometry": { "type": "Point", "coordinates": [ 5.553880889859431, 44.148358308649406 ] } },
{ "type": "Feature", "properties": { "fir": "LFML", "identifier": null, "subsector_id": null, "name": "MAC7", "level_lower": "105", "level_upper": "145", "callout_x1": null, "callout_y1": null, "callout_x2": null, "callout_y2": null, "style": 31, "buffer": null }, "geometry": { "type": "Point", "coordinates": [ 5.553880889859431, 44.148358308649406 ] } },
{ "type": "Feature", "properties": { "fir": "LFML", "identifier": null, "subsector_id": null, "name": "MB", "level_lower": "0", "level_upper": "145", "callout_x1": null, "callout_y1": null, "callout_x2": null, "callout_y2": null, "style": 30, "buffer": null }, "geometry": { "type": "Point", "coordinates": [ 4.763835055358415, 44.154497575417757 ] } },
{ "type": "Feature", "properties": { "fir": "LFML", "identifier": null, "subsector_id": null, "name": "ME2", "level_lower": "0", "level_upper": "145", "callout_x1": "5.6993", "callout_y1": "43.6097", "callout_x2": "5.3913", "callout_y2": "43.5188", "style": 30, "buffer": null }, "geometry": { "type": "Point", "coordinates": [ 5.850504596675697, 43.651020985810952 ] } },
{ "type": "Feature", "properties": { "fir": "LFML", "identifier": null, "subsector_id": null, "name": "ME2", "level_lower": "0", "level_upper": "75", "callout_x1": "5.5396", "callout_y1": "43.7438", "callout_x2": "5.2259", "callout_y2": "43.6242", "style": 30, "buffer": null }, "geometry": { "type": "Point", "coordinates": [ 5.693636290186326, 43.782952244043386 ] } },
{ "type": "Feature", "properties": { "fir": "LFML", "identifier": null, "subsector_id": null, "name": "MAC8", "level_lower": "75", "level_upper": "145", "callout_x1": null, "callout_y1": null, "callout_x2": null, "callout_y2": null, "style": 31, "buffer": null }, "geometry": { "type": "Point", "coordinates": [ 5.693636290186326, 43.782952244043386 ] } }
]
}
