{
"type": "FeatureCollection",
"name": "CCA_LFRS_RS_Labels",
"crs": { "type": "name", "properties": { "name": "urn:ogc:def:crs:OGC:1.3:CRS84" } },
"xy_coordinate_resolution": 1e-15,
"features": [
{ "type": "Feature", "properties": { "fir": "LFRN", "identifier": null, "subsector_id": null, "name": "RN", "level_lower": "0", "level_upper": "115", "callout_x1": "-1.5257", "callout_y1": "48.0756", "callout_x2": "-1.6025", "callout_y2": "47.7510", "style": 50, "buffer": null }, "geometry": { "type": "Point", "coordinates": [ -1.377530618802819, 48.167460457943868 ] } },
{ "type": "Feature", "properties": { "fir": "LFRS", "identifier": null, "subsector_id": null, "name": "LU", "level_lower": "115", "level_upper": "195", "callout_x1": null, "callout_y1": null, "callout_x2": null, "callout_y2": null, "style": 31, "buffer": null }, "geometry": { "type": "Point", "coordinates": [ -1.377530618802819, 48.167460457943868 ] } },
{ "type": "Feature", "properties": { "fir": "LFRH", "identifier": null, "subsector_id": null, "name": "RH", "level_lower": "0", "level_upper": "195", "callout_x1": "-3.2778", "callout_y1": "47.7332", "callout_x2": "-3.0687", "callout_y2": "47.5316", "style": 30, "buffer": null }, "geometry": { "type": "Point", "coordinates": [ -3.367770855485871, 47.820321185275098 ] } },
{ "type": "Feature", "properties": { "fir": "LFRS", "identifier": null, "subsector_id": null, "name": "NA", "level_lower": "0", "level_upper": "115", "callout_x1": null, "callout_y1": null, "callout_x2": null, "callout_y2": null, "style": 30, "buffer": null }, "geometry": { "type": "Point", "coordinates": [ -2.740527589403579, 46.891626021321088 ] } },
{ "type": "Feature", "properties": { "fir": "LFRS", "identifier": null, "subsector_id": null, "name": "LU", "level_lower": "115", "level_upper": "195", "callout_x1": null, "callout_y1": null, "callout_x2": null, "callout_y2": null, "style": 31, "buffer": null }, "geometry": { "type": "Point", "coordinates": [ -2.740527589403579, 46.891626021321088 ] } },
{ "type": "Feature", "properties": { "fir": "LFRS", "identifier": null, "subsector_id": null, "name": "NB", "level_lower": "0", "level_upper": "115", "callout_x1": null, "callout_y1": null, "callout_x2": null, "callout_y2": null, "style": 30, "buffer": null }, "geometry": { "type": "Point", "coordinates": [ -0.535913071907593, 47.162234819405498 ] } },
{ "type": "Feature", "properties": { "fir": "LFRS", "identifier": null, "subsector_id": null, "name": "LU", "level_lower": "115", "level_upper": "195", "callout_x1": null, "callout_y1": null, "callout_x2": null, "callout_y2": null, "style": 31, "buffer": null }, "geometry": { "type": "Point", "coordinates": [ -0.535913071907593, 47.162234819405498 ] } },
{ "type": "Feature", "properties": { "fir": "LFRS", "identifier": null, "subsector_id": null, "name": "NB", "level_lower": "0", "level_upper": "145", "callout_x1": "0.0728", "callout_y1": "47.0054", "callout_x2": "0.0225", "callout_y2": "47.3204", "style": 30, "buffer": null }, "geometry": { "type": "Point", "coordinates": [ 0.093976790234118, 46.915133084747453 ] } },
{ "type": "Feature", "properties": { "fir": "LFFF", "identifier": null, "subsector_id": null, "name": "RT", "level_lower": "145", "level_upper": "195", "callout_x1": null, "callout_y1": null, "callout_x2": null, "callout_y2": null, "style": 51, "buffer": null }, "geometry": { "type": "Point", "coordinates": [ 0.093976790234118, 46.915133084747453 ] } },
{ "type": "Feature", "properties": { "fir": "LFRS", "identifier": null, "subsector_id": null, "name": "NB", "level_lower": "0", "level_upper": "115", "callout_x1": null, "callout_y1": null, "callout_x2": null, "callout_y2": null, "style": 30, "buffer": null }, "geometry": { "type": "Point", "coordinates": [ 0.083390405996441, 47.909099035145928 ] } },
{ "type": "Feature", "properties": { "fir": "LFFF", "identifier": null, "subsector_id": null, "name": "RT", "level_lower": "115", "level_upper": "195", "callout_x1": null, "callout_y1": null, "callout_x2": null, "callout_y2": null, "style": 51, "buffer": null }, "geometry": { "type": "Point", "coordinates": [ 0.083390405996441, 47.909099035145928 ] } },
{ "type": "Feature", "properties": { "fir": "LFBH", "identifier": null, "subsector_id": null, "name": "BH", "level_lower": "0", "level_upper": "115", "callout_x1": null, "callout_y1": null, "callout_x2": null, "callout_y2": null, "style": 50, "buffer": null }, "geometry": { "type": "Point", "coordinates": [ -1.213441663118844, 46.348117582477457 ] } },
{ "type": "Feature", "properties": { "fir": "LFRS", "identifier": null, "subsector_id": null, "name": "LU", "level_lower": "115", "level_upper": "195", "callout_x1": null, "callout_y1": null, "callout_x2": null, "callout_y2": null, "style": 31, "buffer": null }, "geometry": { "type": "Point", "coordinates": [ -1.213441663118844, 46.348117582477457 ] } },
{ "type": "Feature", "properties": { "fir": "LFRS", "identifier": null, "subsector_id": null, "name": "RS", "level_lower": "25", "level_upper": "115", "callout_x1": null, "callout_y1": null, "callout_x2": null, "callout_y2": null, "style": 30, "buffer": null }, "geometry": { "type": "Point", "coordinates": [ -2.060352402132908, 47.144236909410296 ] } },
{ "type": "Feature", "properties": { "fir": "LFRS", "identifier": null, "subsector_id": null, "name": "LU", "level_lower": "115", "level_upper": "195", "callout_x1": null, "callout_y1": null, "callout_x2": null, "callout_y2": null, "style": 31, "buffer": null }, "geometry": { "type": "Point", "coordinates": [ -2.060352402132908, 47.144236909410296 ] } },
{ "type": "Feature", "properties": { "fir": "LFRS", "identifier": null, "subsector_id": null, "name": "RS", "level_lower": "55", "level_upper": "115", "callout_x1": null, "callout_y1": null, "callout_x2": null, "callout_y2": null, "style": 30, "buffer": null }, "geometry": { "type": "Point", "coordinates": [ -1.086405052266734, 46.78299830061232 ] } },
{ "type": "Feature", "properties": { "fir": "LFRS", "identifier": null, "subsector_id": null, "name": "LU", "level_lower": "115", "level_upper": "195", "callout_x1": null, "callout_y1": null, "callout_x2": null, "callout_y2": null, "style": 31, "buffer": null }, "geometry": { "type": "Point", "coordinates": [ -1.086405052266734, 46.78299830061232 ] } },
{ "type": "Feature", "properties": { "fir": "LFRS", "identifier": null, "subsector_id": null, "name": "RS", "level_lower": "35", "level_upper": "115", "callout_x1": null, "callout_y1": null, "callout_x2": null, "callout_y2": null, "style": 30, "buffer": null }, "geometry": { "type": "Point", "coordinates": [ -1.04670611137545, 47.340085311723605 ] } },
{ "type": "Feature", "properties": { "fir": "LFRS", "identifier": null, "subsector_id": null, "name": "LU", "level_lower": "115", "level_upper": "195", "callout_x1": null, "callout_y1": null, "callout_x2": null, "callout_y2": null, "style": 31, "buffer": null }, "geometry": { "type": "Point", "coordinates": [ -1.04670611137545, 47.340085311723605 ] } }
]
}
