{
"type": "FeatureCollection",
"name": "CCA_LFBB_TZ_Labels",
"crs": { "type": "name", "properties": { "name": "urn:ogc:def:crs:OGC:1.3:CRS84" } },
"features": [
{ "type": "Feature", "properties": { "fir": "LFBB", "identifier": "LFBB:TZ UAC:145-195", "subsector_id": "", "name": "TZ UAC", "level_lower": 145, "level_upper": 195, "callout_x1": -0.23547683445743939, "callout_y1": 43.888194444444444, "callout_x2": -0.23547683445743939, "callout_y2": 43.888194444444444, "style": 10, "buffer": 1 }, "geometry": { "type": "Point", "coordinates": [ -0.235476834457439, 43.888194444444444 ] } }
]
}
