{
"type": "FeatureCollection",
"name": "CCR_LFBB_Adjacent_Labels",
"crs": { "type": "name", "properties": { "name": "urn:ogc:def:crs:OGC:1.3:CRS84" } },
"xy_coordinate_resolution": 1e-15,
"features": [
{ "type": "Feature", "properties": { "fir": "LFRR", "identifier": "LU", "subsector_id": "LU", "name": "LU", "level_lower": 115, "level_upper": 195, "callout_x1": null, "callout_y1": null, "callout_x2": null, "callout_y2": null, "style": 20, "buffer": null }, "geometry": { "type": "Point", "coordinates": [ -1.266189421503059, 46.43794343221964 ] } },
{ "type": "Feature", "properties": { "fir": "LFRR", "identifier": "GS1", "subsector_id": "GS1", "name": "GS1", "level_lower": 0, "level_upper": 195, "callout_x1": null, "callout_y1": null, "callout_x2": null, "callout_y2": null, "style": 20, "buffer": null }, "geometry": { "type": "Point", "coordinates": [ -2.160160509053284, 44.821198221959747 ] } },
{ "type": "Feature", "properties": { "fir": "LFFF", "identifier": "NB", "subsector_id": "NB", "name": "NB", "level_lower": 0, "level_upper": 145, "callout_x1": null, "callout_y1": null, "callout_x2": null, "callout_y2": null, "style": 20, "buffer": null }, "geometry": { "type": "Point", "coordinates": [ 0.058099952257782, 47.30800625964396 ] } },
{ "type": "Feature", "properties": { "fir": "LFFF", "identifier": "OT1", "subsector_id": "OT1", "name": "OT1", "level_lower": 115, "level_upper": 195, "callout_x1": null, "callout_y1": null, "callout_x2": null, "callout_y2": null, "style": 20, "buffer": null }, "geometry": { "type": "Point", "coordinates": [ 1.012679249133446, 47.30800625964396 ] } },
{ "type": "Feature", "properties": { "fir": "LFFF", "identifier": "S", "subsector_id": "S", "name": "S", "level_lower": 0, "level_upper": 195, "callout_x1": null, "callout_y1": null, "callout_x2": null, "callout_y2": null, "style": 20, "buffer": null }, "geometry": { "type": "Point", "coordinates": [ 2.549097355533323, 47.112440596289325 ] } },
{ "type": "Feature", "properties": { "fir": "LFMM", "identifier": "LO1", "subsector_id": "LO1", "name": "LO1", "level_lower": 145, "level_upper": 195, "callout_x1": null, "callout_y1": null, "callout_x2": null, "callout_y2": null, "style": 20, "buffer": null }, "geometry": { "type": "Point", "coordinates": [ 3.276395867438591, 46.058635928398878 ] } },
{ "type": "Feature", "properties": { "fir": "LFMM", "identifier": "LS1", "subsector_id": "LS1", "name": "LS1", "level_lower": 145, "level_upper": 195, "callout_x1": null, "callout_y1": null, "callout_x2": null, "callout_y2": null, "style": 20, "buffer": null }, "geometry": { "type": "Point", "coordinates": [ 3.406703517488284, 44.992901808948446 ] } },
{ "type": "Feature", "properties": { "fir": "LFMM", "identifier": "ML1", "subsector_id": "ML1", "name": "ML1", "level_lower": 145, "level_upper": 195, "callout_x1": null, "callout_y1": null, "callout_x2": null, "callout_y2": null, "style": 20, "buffer": null }, "geometry": { "type": "Point", "coordinates": [ 3.085480008063458, 43.640014725531856 ] } },
{ "type": "Feature", "properties": { "fir": "LFFF", "identifier": "RT1", "subsector_id": "RT1", "name": "RT1", "level_lower": 145, "level_upper": 195, "callout_x1": null, "callout_y1": null, "callout_x2": null, "callout_y2": null, "style": 21, "buffer": null }, "geometry": { "type": "Point", "coordinates": [ 0.058099952257782, 47.30800625964396 ] } },
{ "type": "Feature", "properties": { "fir": "LECB", "identifier": "BL1", "subsector_id": "BL1", "name": "BL1", "level_lower": 0, "level_upper": 195, "callout_x1": null, "callout_y1": null, "callout_x2": null, "callout_y2": null, "style": 20, "buffer": null }, "geometry": { "type": "Point", "coordinates": [ 2.346059854293098, 42.361294852945441 ] } },
{ "type": "Feature", "properties": { "fir": "LECB", "identifier": "NW4", "subsector_id": "NW4", "name": "NW4", "level_lower": 0, "level_upper": 195, "callout_x1": null, "callout_y1": null, "callout_x2": null, "callout_y2": null, "style": 20, "buffer": null }, "geometry": { "type": "Point", "coordinates": [ 1.069009231918265, 42.656829655812807 ] } },
{ "type": "Feature", "properties": { "fir": "LECB", "identifier": "DDN", "subsector_id": "DDN", "name": "DDN", "level_lower": 0, "level_upper": 245, "callout_x1": null, "callout_y1": null, "callout_x2": null, "callout_y2": null, "style": 20, "buffer": null }, "geometry": { "type": "Point", "coordinates": [ 0.312654431424625, 42.651716681682537 ] } },
{ "type": "Feature", "properties": { "fir": "LECM", "identifier": "ZGZ", "subsector_id": "ZGZ", "name": "ZGZ", "level_lower": 0, "level_upper": 245, "callout_x1": null, "callout_y1": null, "callout_x2": null, "callout_y2": null, "style": 20, "buffer": null }, "geometry": { "type": "Point", "coordinates": [ -0.347975050222659, 42.734128491079851 ] } },
{ "type": "Feature", "properties": { "fir": "LECM", "identifier": "PAL", "subsector_id": "PAL", "name": "PAL", "level_lower": 0, "level_upper": 245, "callout_x1": null, "callout_y1": null, "callout_x2": null, "callout_y2": null, "style": 20, "buffer": null }, "geometry": { "type": "Point", "coordinates": [ -1.732872633308939, 43.171073742977072 ] } },
{ "type": "Feature", "properties": { "fir": "LECM", "identifier": "PAL", "subsector_id": "PAL", "name": "PAL", "level_lower": 0, "level_upper": 245, "callout_x1": null, "callout_y1": null, "callout_x2": null, "callout_y2": null, "style": 20, "buffer": null }, "geometry": { "type": "Point", "coordinates": [ -1.09648643539183, 42.898623978930097 ] } }
]
}
