{
"type": "FeatureCollection",
"name": "CCR_LFBB_UAC_Adjacent_Labels",
"crs": { "type": "name", "properties": { "name": "urn:ogc:def:crs:OGC:1.3:CRS84" } },
"xy_coordinate_resolution": 1e-15,
"features": [
{ "type": "Feature", "properties": { "fir": "LFRR", "identifier": "GS2", "subsector_id": "GS2", "name": "GS2", "level_lower": 195, "level_upper": 345, "callout_x1": null, "callout_y1": null, "callout_x2": null, "callout_y2": null, "style": 41, "buffer": null }, "geometry": { "type": "Point", "coordinates": [ -2.160160509053284, 44.821198221959747 ] } },
{ "type": "Feature", "properties": { "fir": "LFRR", "identifier": "GS1", "subsector_id": "GS1", "name": "GS1", "level_lower": 0, "level_upper": 195, "callout_x1": null, "callout_y1": null, "callout_x2": null, "callout_y2": null, "style": 40, "buffer": null }, "geometry": { "type": "Point", "coordinates": [ -2.160160509053284, 44.821198221959747 ] } },
{ "type": "Feature", "properties": { "fir": "LFRR", "identifier": "GI", "subsector_id": "GI", "name": "GI", "level_lower": 345, "level_upper": 365, "callout_x1": null, "callout_y1": null, "callout_x2": null, "callout_y2": null, "style": 42, "buffer": null }, "geometry": { "type": "Point", "coordinates": [ -2.160160509053284, 44.821198221959747 ] } },
{ "type": "Feature", "properties": { "fir": "LFRR", "identifier": "GU", "subsector_id": "GU", "name": "GU", "level_lower": 365, "level_upper": 660, "callout_x1": null, "callout_y1": null, "callout_x2": null, "callout_y2": null, "style": 43, "buffer": null }, "geometry": { "type": "Point", "coordinates": [ -2.160160509053284, 44.821198221959747 ] } },
{ "type": "Feature", "properties": { "fir": "LFRR", "identifier": "NS", "subsector_id": "NS", "name": "NS", "level_lower": 195, "level_upper": 325, "callout_x1": null, "callout_y1": null, "callout_x2": null, "callout_y2": null, "style": 40, "buffer": null }, "geometry": { "type": "Point", "coordinates": [ -0.932844270213149, 46.552683089687612 ] } },
{ "type": "Feature", "properties": { "fir": "LFRR", "identifier": "NF", "subsector_id": "NF", "name": "NF", "level_lower": 325, "level_upper": 355, "callout_x1": null, "callout_y1": null, "callout_x2": null, "callout_y2": null, "style": 41, "buffer": null }, "geometry": { "type": "Point", "coordinates": [ -0.932844270213149, 46.552683089687612 ] } },
{ "type": "Feature", "properties": { "fir": "LFRR", "identifier": "NI", "subsector_id": "NI", "name": "NI", "level_lower": 355, "level_upper": 375, "callout_x1": null, "callout_y1": null, "callout_x2": null, "callout_y2": null, "style": 42, "buffer": null }, "geometry": { "type": "Point", "coordinates": [ -0.932844270213149, 46.552683089687612 ] } },
{ "type": "Feature", "properties": { "fir": "LFRR", "identifier": "NU", "subsector_id": "NU", "name": "NU", "level_lower": 375, "level_upper": 660, "callout_x1": null, "callout_y1": null, "callout_x2": null, "callout_y2": null, "style": 43, "buffer": null }, "geometry": { "type": "Point", "coordinates": [ -0.932844270213149, 46.552683089687612 ] } }
]
}
