{
"type": "FeatureCollection",
"name": "CCA_LFBE_BE_Labels",
"crs": { "type": "name", "properties": { "name": "urn:ogc:def:crs:OGC:1.3:CRS84" } },
"xy_coordinate_resolution": 1e-15,
"features": [
{ "type": "Feature", "properties": { "fir": "LFBB", "identifier": "LFBB:AQUITAINE BE:020-075", "name": "BE1", "level_lower": 0, "level_upper": 75, "subsector_id": "BE1", "style": 10, "buffer": false }, "geometry": { "type": "Point", "coordinates": [ 0.788353175239193, 45.019146184602789 ] } },
{ "type": "Feature", "properties": { "fir": "LFBB", "identifier": "LFBB:AQUITAINE BE:075-145", "name": "BE2", "level_lower": 75, "level_upper": 145, "subsector_id": "BE2", "style": 11, "buffer": false }, "geometry": { "type": "Point", "coordinates": [ 0.788353175239193, 45.019146184602789 ] } },
{ "type": "Feature", "properties": { "fir": "LFBB", "identifier": null, "name": "BE1", "level_lower": 0, "level_upper": 75, "subsector_id": "BE1", "style": 10, "buffer": false, "callout_x1": null, "callout_y1": null, "callout_x2": null, "callout_y2": null }, "geometry": { "type": "Point", "coordinates": [ -0.064083462979187, 45.39141088031198 ] } },
{ "type": "Feature", "properties": { "fir": "LFMM", "identifier": null, "name": "CN1", "level_lower": 0, "level_upper": 145, "subsector_id": "CN1", "style": 20, "buffer": false, "callout_x1": null, "callout_y1": null, "callout_x2": null, "callout_y2": null }, "geometry": { "type": "Point", "coordinates": [ 1.256818981436998, 44.63987935086498 ] } },
{ "type": "Feature", "properties": { "fir": "LFBB", "identifier": null, "name": "AW", "level_lower": 115, "level_upper": 145, "subsector_id": "AW", "style": 21, "buffer": false, "callout_x1": null, "callout_y1": null, "callout_x2": null, "callout_y2": null }, "geometry": { "type": "Point", "coordinates": [ 1.177671790435542, 44.417233259357545 ] } },
{ "type": "Feature", "properties": { "fir": "LFMM", "identifier": null, "name": "CN2", "level_lower": 0, "level_upper": 115, "subsector_id": "CN2", "style": 20, "buffer": false, "callout_x1": null, "callout_y1": null, "callout_x2": null, "callout_y2": null }, "geometry": { "type": "Point", "coordinates": [ 1.177671790435542, 44.417233259357545 ] } },
{ "type": "Feature", "properties": { "fir": "LFBB", "identifier": null, "name": "WB", "level_lower": 0, "level_upper": 75, "subsector_id": "WB", "style": 20, "buffer": false, "callout_x1": null, "callout_y1": null, "callout_x2": null, "callout_y2": null }, "geometry": { "type": "Point", "coordinates": [ 0.664284605561236, 44.368320410602998 ] } },
{ "type": "Feature", "properties": { "fir": "LFBB", "identifier": null, "name": "AW", "level_lower": 75, "level_upper": 145, "subsector_id": "AW", "style": 21, "buffer": false, "callout_x1": null, "callout_y1": null, "callout_x2": null, "callout_y2": null }, "geometry": { "type": "Point", "coordinates": [ 0.664284605561236, 44.368320410602998 ] } },
{ "type": "Feature", "properties": { "fir": "LFBB", "identifier": null, "name": "PY", "level_lower": 0, "level_upper": 145, "subsector_id": "PY", "style": 20, "buffer": false, "callout_x1": null, "callout_y1": null, "callout_x2": null, "callout_y2": null }, "geometry": { "type": "Point", "coordinates": [ -0.12504819118301, 43.983242514033762 ] } },
{ "type": "Feature", "properties": { "fir": "LFBB", "identifier": null, "name": "BZ", "level_lower": 0, "level_upper": 145, "subsector_id": "BZ", "style": 20, "buffer": false, "callout_x1": null, "callout_y1": null, "callout_x2": null, "callout_y2": null }, "geometry": { "type": "Point", "coordinates": [ -1.064118916848929, 44.037089505592725 ] } },
{ "type": "Feature", "properties": { "fir": "LFBB", "identifier": null, "name": "BL", "level_lower": 0, "level_upper": 145, "subsector_id": "BL", "style": 20, "buffer": false, "callout_x1": null, "callout_y1": null, "callout_x2": null, "callout_y2": null }, "geometry": { "type": "Point", "coordinates": [ 1.160558884273065, 45.587109728351706 ] } },
{ "type": "Feature", "properties": { "fir": "LFBB", "identifier": "BH", "name": "BH", "level_lower": 0, "level_upper": 115, "subsector_id": "BH", "style": 20, "buffer": false, "callout_x1": null, "callout_y1": null, "callout_x2": null, "callout_y2": null }, "geometry": { "type": "Point", "coordinates": [ -0.942189460441282, 45.763478143626749 ] } },
{ "type": "Feature", "properties": { "fir": "LFBB", "identifier": "BW", "name": "BW", "level_lower": 115, "level_upper": 145, "subsector_id": "BW", "style": 21, "buffer": false, "callout_x1": null, "callout_y1": null, "callout_x2": null, "callout_y2": null }, "geometry": { "type": "Point", "coordinates": [ -0.942189460441282, 45.763478143626749 ] } },
{ "type": "Feature", "properties": { "fir": "LFBB", "identifier": "BI", "name": "BI", "level_lower": 0, "level_upper": 145, "subsector_id": "BI", "style": 20, "buffer": false, "callout_x1": null, "callout_y1": null, "callout_x2": null, "callout_y2": null }, "geometry": { "type": "Point", "coordinates": [ -0.160343560143119, 45.893156517347968 ] } }
]
}
