{
"type": "FeatureCollection",
"name": "CCA_LFSB_Labels",
"crs": { "type": "name", "properties": { "name": "urn:ogc:def:crs:OGC:1.3:CRS84" } },
"xy_coordinate_resolution": 1e-15,
"features": [
{ "type": "Feature", "properties": { "fir": "f", "identifier": null, "subsector_id": null, "name": "BA2", "level_lower": "0", "level_upper": "105", "callout_x1": "8.0114", "callout_y1": "47.2908", "callout_x2": "7.5864", "callout_y2": "47.3527", "style": 30, "buffer": null }, "geometry": { "type": "Point", "coordinates": [ 8.194651783263446, 47.314736782266387 ] } },
{ "type": "Feature", "properties": { "fir": "LSAS", "identifier": null, "subsector_id": null, "name": "ZURICH", "level_lower": "105", "level_upper": "245", "callout_x1": null, "callout_y1": null, "callout_x2": null, "callout_y2": null, "style": 51, "buffer": null }, "geometry": { "type": "Point", "coordinates": [ 8.194651783263446, 47.314736782266387 ] } },
{ "type": "Feature", "properties": { "fir": "LFSB", "identifier": null, "subsector_id": null, "name": "BA1", "level_lower": "0", "level_upper": "115", "callout_x1": "7.8631", "callout_y1": "47.4974", "callout_x2": "7.6007", "callout_y2": "47.5898", "style": 30, "buffer": null }, "geometry": { "type": "Point", "coordinates": [ 8.149730404586943, 47.486794555048242 ] } },
{ "type": "Feature", "properties": { "fir": "LSAS", "identifier": null, "subsector_id": null, "name": "ZURICH", "level_lower": "115", "level_upper": "245", "callout_x1": null, "callout_y1": null, "callout_x2": null, "callout_y2": null, "style": 51, "buffer": null }, "geometry": { "type": "Point", "coordinates": [ 8.149730404586943, 47.486794555048242 ] } },
{ "type": "Feature", "properties": { "fir": "LFSB", "identifier": null, "subsector_id": null, "name": "BA1", "level_lower": "0", "level_upper": "115", "callout_x1": "7.8232", "callout_y1": "47.6782", "callout_x2": "7.7119", "callout_y2": "47.7569", "style": 30, "buffer": null }, "geometry": { "type": "Point", "coordinates": [ 8.092687384045355, 47.663813346169668 ] } },
{ "type": "Feature", "properties": { "fir": "LSAS", "identifier": null, "subsector_id": null, "name": "ZURICH", "level_lower": "115", "level_upper": "245", "callout_x1": null, "callout_y1": null, "callout_x2": null, "callout_y2": null, "style": 51, "buffer": null }, "geometry": { "type": "Point", "coordinates": [ 8.092687384045355, 47.663813346169668 ] } },
{ "type": "Feature", "properties": { "fir": "LFSB", "identifier": null, "subsector_id": null, "name": "BA3", "level_lower": "0", "level_upper": "145", "callout_x1": "7.9686", "callout_y1": "47.9349", "callout_x2": "7.7462", "callout_y2": "47.9483", "style": 30, "buffer": null }, "geometry": { "type": "Point", "coordinates": [ 8.243851388480568, 47.926308763475767 ] } },
{ "type": "Feature", "properties": { "fir": "LSAS", "identifier": null, "subsector_id": null, "name": "ZURICH", "level_lower": "145", "level_upper": "245", "callout_x1": null, "callout_y1": null, "callout_x2": null, "callout_y2": null, "style": 51, "buffer": null }, "geometry": { "type": "Point", "coordinates": [ 8.243851388480568, 47.926308763475767 ] } },
{ "type": "Feature", "properties": { "fir": "LFSB", "identifier": null, "subsector_id": null, "name": "BA3", "level_lower": "0", "level_upper": "145", "callout_x1": "7.8346", "callout_y1": "48.1922", "callout_x2": "7.4809", "callout_y2": "48.1142", "style": 30, "buffer": null }, "geometry": { "type": "Point", "coordinates": [ 7.935819077555982, 48.250190350519624 ] } },
{ "type": "Feature", "properties": { "fir": "LFSB", "identifier": null, "subsector_id": null, "name": "BO1", "level_lower": "145", "level_upper": "195", "callout_x1": null, "callout_y1": null, "callout_x2": null, "callout_y2": null, "style": 31, "buffer": null }, "geometry": { "type": "Point", "coordinates": [ 7.935819077555982, 48.250190350519624 ] } },
{ "type": "Feature", "properties": { "fir": "LFSB", "identifier": null, "subsector_id": null, "name": "BA3", "level_lower": "0", "level_upper": "50", "callout_x1": "6.8934", "callout_y1": "48.3782", "callout_x2": "7.3212", "callout_y2": "48.2758", "style": 30, "buffer": null }, "geometry": { "type": "Point", "coordinates": [ 6.820628025967906, 48.371593955277447 ] } },
{ "type": "Feature", "properties": { "fir": "LFST", "identifier": null, "subsector_id": null, "name": "RW", "level_lower": "50", "level_upper": "115", "callout_x1": null, "callout_y1": null, "callout_x2": null, "callout_y2": null, "style": 31, "buffer": null }, "geometry": { "type": "Point", "coordinates": [ 6.820628025967906, 48.371593955277447 ] } },
{ "type": "Feature", "properties": { "fir": "LFST", "identifier": null, "subsector_id": null, "name": "SU", "level_lower": "115", "level_upper": "195", "callout_x1": null, "callout_y1": null, "callout_x2": null, "callout_y2": null, "style": 32, "buffer": null }, "geometry": { "type": "Point", "coordinates": [ 6.820628025967906, 48.371593955277447 ] } },
{ "type": "Feature", "properties": { "fir": "LFSB", "identifier": null, "subsector_id": null, "name": "BA1", "level_lower": "0", "level_upper": "115", "callout_x1": null, "callout_y1": null, "callout_x2": null, "callout_y2": null, "style": 30, "buffer": null }, "geometry": { "type": "Point", "coordinates": [ 6.829184479049144, 47.677257671459266 ] } },
{ "type": "Feature", "properties": { "fir": "LFSB", "identifier": null, "subsector_id": null, "name": "BC1", "level_lower": "115", "level_upper": "145", "callout_x1": null, "callout_y1": null, "callout_x2": null, "callout_y2": null, "style": 31, "buffer": null }, "geometry": { "type": "Point", "coordinates": [ 6.829184479049144, 47.677257671459266 ] } },
{ "type": "Feature", "properties": { "fir": "LFSB", "identifier": null, "subsector_id": null, "name": "BO1", "level_lower": "145", "level_upper": "195", "callout_x1": null, "callout_y1": null, "callout_x2": null, "callout_y2": null, "style": 32, "buffer": null }, "geometry": { "type": "Point", "coordinates": [ 6.829184479049144, 47.677257671459266 ] } },
{ "type": "Feature", "properties": { "fir": "LFSB", "identifier": null, "subsector_id": null, "name": "BM1", "level_lower": "0", "level_upper": "115", "callout_x1": null, "callout_y1": null, "callout_x2": null, "callout_y2": null, "style": 30, "buffer": null }, "geometry": { "type": "Point", "coordinates": [ 5.967834868871141, 47.584998455807956 ] } },
{ "type": "Feature", "properties": { "fir": "LFSB", "identifier": null, "subsector_id": null, "name": "BO1", "level_lower": "115", "level_upper": "145", "callout_x1": null, "callout_y1": null, "callout_x2": null, "callout_y2": null, "style": 31, "buffer": null }, "geometry": { "type": "Point", "coordinates": [ 5.967834868871141, 47.584998455807956 ] } },
{ "type": "Feature", "properties": { "fir": "LFSB", "identifier": null, "subsector_id": null, "name": "BU2", "level_lower": "145", "level_upper": "195", "callout_x1": null, "callout_y1": null, "callout_x2": null, "callout_y2": null, "style": 32, "buffer": null }, "geometry": { "type": "Point", "coordinates": [ 5.967834868871141, 47.584998455807956 ] } },
{ "type": "Feature", "properties": { "fir": "LFSB", "identifier": null, "subsector_id": null, "name": "BM1", "level_lower": "0", "level_upper": "115", "callout_x1": null, "callout_y1": null, "callout_x2": null, "callout_y2": null, "style": 30, "buffer": null }, "geometry": { "type": "Point", "coordinates": [ 5.126450315882694, 47.342042877689941 ] } },
{ "type": "Feature", "properties": { "fir": "LFSB", "identifier": null, "subsector_id": null, "name": "BU1", "level_lower": "115", "level_upper": "195", "callout_x1": null, "callout_y1": null, "callout_x2": null, "callout_y2": null, "style": 31, "buffer": null }, "geometry": { "type": "Point", "coordinates": [ 5.126450315882694, 47.342042877689941 ] } },
{ "type": "Feature", "properties": { "fir": "LFSB", "identifier": null, "subsector_id": null, "name": "BM1", "level_lower": "0", "level_upper": "115", "callout_x1": "5.3133", "callout_y1": "46.3855", "callout_x2": "5.3133", "callout_y2": "46.5898", "style": 30, "buffer": null }, "geometry": { "type": "Point", "coordinates": [ 5.37173530421153, 46.299897756379437 ] } },
{ "type": "Feature", "properties": { "fir": "LFSB", "identifier": null, "subsector_id": null, "name": "BU3", "level_lower": "115", "level_upper": "145", "callout_x1": null, "callout_y1": null, "callout_x2": null, "callout_y2": null, "style": 31, "buffer": null }, "geometry": { "type": "Point", "coordinates": [ 5.37173530421153, 46.299897756379437 ] } },
{ "type": "Feature", "properties": { "fir": "LSAS", "identifier": null, "subsector_id": null, "name": "GENEVA", "level_lower": "145", "level_upper": "245", "callout_x1": null, "callout_y1": null, "callout_x2": null, "callout_y2": null, "style": 52, "buffer": null }, "geometry": { "type": "Point", "coordinates": [ 5.37173530421153, 46.299897756379437 ] } },
{ "type": "Feature", "properties": { "fir": "LFSB", "identifier": null, "subsector_id": null, "name": "BM2", "level_lower": "0", "level_upper": "65", "callout_x1": "6.3286", "callout_y1": "46.5309", "callout_x2": "5.9037", "callout_y2": "46.6877", "style": 30, "buffer": null }, "geometry": { "type": "Point", "coordinates": [ 6.387101069851824, 46.476955992978347 ] } },
{ "type": "Feature", "properties": { "fir": "LFFF", "identifier": null, "subsector_id": null, "name": "TM", "level_lower": "115", "level_upper": "195", "callout_x1": null, "callout_y1": null, "callout_x2": null, "callout_y2": null, "style": 32, "buffer": null }, "geometry": { "type": "Point", "coordinates": [ 4.976645539671324, 49.199963814060666 ] } },
{ "type": "Feature", "properties": { "fir": "LSAS", "identifier": null, "subsector_id": null, "name": "GENEVA", "level_lower": "65", "level_upper": "245", "callout_x1": null, "callout_y1": null, "callout_x2": null, "callout_y2": null, "style": 51, "buffer": null }, "geometry": { "type": "Point", "coordinates": [ 6.387101069851824, 46.476955992978347 ] } },
{ "type": "Feature", "properties": { "fir": "LFSB", "identifier": null, "subsector_id": null, "name": "BM1", "level_lower": "0", "level_upper": "115", "callout_x1": "6.5853", "callout_y1": "46.8752", "callout_x2": "6.2858", "callout_y2": "46.9395", "style": 30, "buffer": null }, "geometry": { "type": "Point", "coordinates": [ 6.886227499590734, 46.864463038225118 ] } },
{ "type": "Feature", "properties": { "fir": "LSAS", "identifier": null, "subsector_id": null, "name": "GENEVA", "level_lower": "115", "level_upper": "245", "callout_x1": null, "callout_y1": null, "callout_x2": null, "callout_y2": null, "style": 51, "buffer": null }, "geometry": { "type": "Point", "coordinates": [ 6.886227499590734, 46.864463038225118 ] } },
{ "type": "Feature", "properties": { "fir": "47.4955", "identifier": null, "subsector_id": null, "name": null, "level_lower": null, "level_upper": null, "callout_x1": null, "callout_y1": null, "callout_x2": null, "callout_y2": null, "style": null, "buffer": null }, "geometry": null }
]
}
