{
"type": "FeatureCollection",
"name": "CCR_LFEE_Adjacent_Labels",
"crs": { "type": "name", "properties": { "name": "urn:ogc:def:crs:OGC:1.3:CRS84" } },
"xy_coordinate_resolution": 1e-15,
"features": [
{ "type": "Feature", "properties": { "fir": "EBBU", "identifier": null, "subsector_id": null, "name": "BRUSSELS ACC (EBBU)", "level_lower": "0", "level_upper": "245", "callout_x1": null, "callout_y1": null, "callout_x2": null, "callout_y2": null, "style": 60, "buffer": null }, "geometry": { "type": "Point", "coordinates": [ 4.575836618123679, 50.544518977699802 ] } },
{ "type": "Feature", "properties": { "fir": "EDYY", "identifier": null, "subsector_id": null, "name": "MAASTRICHT UAC (EDYY)", "level_lower": null, "level_upper": null, "callout_x1": null, "callout_y1": null, "callout_x2": null, "callout_y2": null, "style": 61, "buffer": null }, "geometry": { "type": "Point", "coordinates": [ 4.630428571376374, 50.565754201318079 ] } },
{ "type": "Feature", "properties": { "fir": null, "identifier": null, "subsector_id": null, "name": "LANGEN ACC (EDGG)", "level_lower": null, "level_upper": null, "callout_x1": null, "callout_y1": null, "callout_x2": null, "callout_y2": null, "style": 60, "buffer": null }, "geometry": { "type": "Point", "coordinates": [ 8.393559607495741, 49.288713449951139 ] } },
{ "type": "Feature", "properties": { "fir": null, "identifier": null, "subsector_id": null, "name": "RHEIN UAC (EDUU)", "level_lower": null, "level_upper": null, "callout_x1": null, "callout_y1": null, "callout_x2": null, "callout_y2": null, "style": 61, "buffer": null }, "geometry": { "type": "Point", "coordinates": [ 8.344166887886157, 49.311477599859515 ] } },
{ "type": "Feature", "properties": { "fir": null, "identifier": null, "subsector_id": null, "name": "ZURICH ACC (LSAZ)", "level_lower": null, "level_upper": null, "callout_x1": null, "callout_y1": null, "callout_x2": null, "callout_y2": null, "style": 60, "buffer": null }, "geometry": { "type": "Point", "coordinates": [ 8.343052766391205, 47.283476539667241 ] } },
{ "type": "Feature", "properties": { "fir": null, "identifier": null, "subsector_id": null, "name": "SWISS UAC (LSAS)", "level_lower": null, "level_upper": null, "callout_x1": null, "callout_y1": null, "callout_x2": null, "callout_y2": null, "style": 61, "buffer": null }, "geometry": { "type": "Point", "coordinates": [ 8.317799345838937, 47.308159865115762 ] } },
{ "type": "Feature", "properties": { "fir": null, "identifier": null, "subsector_id": null, "name": "GENEVA ACC (LSAG)", "level_lower": null, "level_upper": null, "callout_x1": null, "callout_y1": null, "callout_x2": null, "callout_y2": null, "style": 60, "buffer": null }, "geometry": { "type": "Point", "coordinates": [ 6.439019131516638, 46.588683554615983 ] } },
{ "type": "Feature", "properties": { "fir": null, "identifier": null, "subsector_id": null, "name": "SWISS UAC (LSAS)", "level_lower": null, "level_upper": null, "callout_x1": null, "callout_y1": null, "callout_x2": null, "callout_y2": null, "style": 61, "buffer": null }, "geometry": { "type": "Point", "coordinates": [ 6.394454271718519, 46.614199507202343 ] } },
{ "type": "Feature", "properties": { "fir": null, "identifier": null, "subsector_id": null, "name": "PARIS ACC/UAC (LFFF)", "level_lower": null, "level_upper": null, "callout_x1": null, "callout_y1": null, "callout_x2": null, "callout_y2": null, "style": 60, "buffer": null }, "geometry": { "type": "Point", "coordinates": [ 4.558382048036083, 46.77823439040062 ] } },
{ "type": "Feature", "properties": { "fir": null, "identifier": null, "subsector_id": null, "name": "BREST UAC (LFRR)", "level_lower": null, "level_upper": null, "callout_x1": null, "callout_y1": null, "callout_x2": null, "callout_y2": null, "style": 60, "buffer": null }, "geometry": { "type": "Point", "coordinates": [ 1.504203656538434, 49.168422067755984 ] } },
{ "type": "Feature", "properties": { "fir": null, "identifier": null, "subsector_id": null, "name": "LONDON ACC/UAC (EGTT)", "level_lower": null, "level_upper": null, "callout_x1": null, "callout_y1": null, "callout_x2": null, "callout_y2": null, "style": 60, "buffer": null }, "geometry": { "type": "Point", "coordinates": [ 1.040729114638012, 50.622805922022799 ] } }
]
}
