{"type":"FeatureCollection","headerFile":{"software":"(aixmParser v2.26.4) ","created":"2026-05-17T14:46:23.656100","content":"airspaces-all","allMap":true,"numberOfAreas":4549,"srcFiles":{"1":{"srcAixmFile":"..\\tst\\AIXM4.5_all_FR_OM_2026-05-14.xml","srcAixmOrigin":"Sia-France","srcAixmVersion":"4.5","srcAixmCreated":"2026-03-23T19:09:15.593+01:00","srcAixmEffective":"2026-05-14T00:00:00.000+02:00"}}},"features":[{"type":"Feature","properties":{"name":"22 B","nameV":"TRA 22 B","class":"R","type":"TRA","lower":"FL195","lowerM":5943,"upper":"FL285","upperM":8686,"desc":"Entry: GAT: Avoidance mandatory throughout activity except clearance from control.","activationCode":"HX","activationDesc":"Activable H24 Horaires d'activation planifiés spécifiés dans l'AUP France. Activité connue de REIMS UAC.\\\\ Possible activation H24 Activation schedules stated in France AUP Activity available on REIMS UAC.","UId":"25229539","id":"LFTR22B","stroke":"#800080","stroke-width":2,"stroke-opacity":0.8,"fill":"#ffb9dc","fill-opacity":0.1},"geometry":{"type":"Polygon","coordinates":[[[6.81,48.21],[7.617243170844533,47.98779178102144],[7.6185,47.985861],[7.621175,47.978586],[7.621822,47.972328],[7.620067,47.967481],[7.609389,47.954028],[7.588986,47.938008],[7.583478,47.931578],[7.580558,47.922142],[7.582919,47.901947],[7.579072,47.894144],[7.572092,47.889089],[7.562561,47.884856],[7.557078,47.879],[7.555561,47.873847],[7.555853,47.867189],[7.562608,47.854292],[7.563578,47.848758],[7.563128,47.843628],[7.560292,47.836792],[7.555621738426889,47.83078191657449],[7.555556,47.830833],[6.801111,48.031944],[6.81,48.21]]]}},{"type":"Feature","properties":{"name":"42 S","nameV":"TRA 42 S","class":"R","type":"TRA","lower":"FL195","lowerM":5943,"upper":"FL999","upperM":30449,"desc":"Entry: GAT: Avoidance mandatory throughout activity except clearance from control.","activationCode":"HX","activationDesc":"Activable H24 Horaires d'activation planifiés spécifiés dans l'AUP France Activité réelle connue de MARSEILLE UAC et BORDEAUX UAC\\\\ Possible activation H24 Activation schedules stated in France AUP Activity available on MARSEILLE UAC and BORDEAUX UAC","UId":"25181880","id":"LFTR42S","stroke":"#800080","stroke-width":2,"stroke-opacity":0.8,"fill":"#ffb9dc","fill-opacity":0.1},"geometry":{"type":"Polygon","coordinates":[[[4.507222,44.383056],[4.635278,43.969722],[4.896389,43.505833],[4.026667,43.657222],[3.666389,43.886389],[4.507222,44.383056]]]}},{"type":"Feature","properties":{"name":"42 N","nameV":"TRA 42 N","class":"R","type":"TRA","lower":"FL195","lowerM":5943,"upper":"FL999","upperM":30449,"desc":"Entry: GAT: Avoidance mandatory throughout activity except clearance from control. Lower limit FL 205 West of the line joining 44°34'32\"N, 003°19'24\"E and 43°58'06\"N, 003°48'13\"E points","activationCode":"HX","activationDesc":"Activable H24 Horaires d'activation planifiés spécifiés dans l'AUP France Activité réelle connue de MARSEILLE UAC et BORDEAUX UAC\\\\ Possible activation H24 Activation schedules stated in France AUP Activity available on MARSEILLE UAC and BORDEAUX UAC","UId":"25177681","id":"LFTR42N","stroke":"#800080","stroke-width":2,"stroke-opacity":0.8,"fill":"#ffb9dc","fill-opacity":0.1},"geometry":{"type":"Polygon","coordinates":[[[4.2,44.915278],[4.428611,44.634444],[4.507222,44.383056],[3.666389,43.886389],[3.286111,44.125278],[3.28,44.558333],[3.505556,44.646944],[4.2,44.915278]]]}},{"type":"Feature","properties":{"name":"40","nameV":"TRA 40","class":"R","type":"TRA","lower":"FL195","lowerM":5943,"upper":"FL999","upperM":30449,"desc":"Entry: IFR: avoidance mandatory throughout activity. Activity known on MARSEILLE UAC and BORDEAUX UAC.","activationCode":"HX","activationDesc":"Possible activation H24. Activation schedules stated in France AUP. ","UId":"41853287","id":"LFTR40","stroke":"#800080","stroke-width":2,"stroke-opacity":0.8,"fill":"#ffb9dc","fill-opacity":0.1},"geometry":{"type":"Polygon","coordinates":[[[1.951667,43.848056],[2.739167,43.714444],[2.755,42.751111],[2.693666488749747,42.4121110162574],[2.685556,42.408056],[2.666389,42.393889],[2.658333,42.389722],[2.654167,42.384722],[2.659444,42.371667],[2.674722,42.359444],[2.678889,42.354167],[2.68,42.35],[2.678056,42.347222],[2.671389,42.344167],[2.659167,42.342778],[2.647222,42.343889],[2.638333,42.345],[2.604167,42.353611],[2.575556,42.357222],[2.5625,42.357222],[2.535833,42.344444],[2.521944,42.343056],[2.510833,42.345],[2.4975,42.345278],[2.4875,42.349722],[2.455833,42.363611],[2.449167,42.366389],[2.446667,42.37],[2.440556,42.373611],[2.417222,42.394167],[2.3638566591983166,42.408210101371125],[2.363889,42.408333],[2.057222,42.705],[1.951667,43.848056]]]}},{"type":"Feature","properties":{"name":"34 C","nameV":"TRA 34 C","class":"R","type":"TRA","lower":"FL195","lowerM":5943,"upper":"FL999","upperM":30449,"desc":"Entry:  IFR: Avoidance mandatory throughout activity. Activity known on BORDEAUX UAC.","activationCode":"HX","activationDesc":"Possible activation H24. Activation schedules stated in France AUP. ","UId":"41853375","id":"LFTR34C","stroke":"#800080","stroke-width":2,"stroke-opacity":0.8,"fill":"#ffb9dc","fill-opacity":0.1},"geometry":{"type":"Polygon","coordinates":[[[-0.219722,44.606944],[0.386111,44.391667],[-0.023056,43.413889],[-0.7361109999999998,42.935833],[-0.736111,42.935833],[-0.746111,42.955833],[-0.751944,42.961944],[-0.756944,42.967222],[-0.767222,42.972222],[-0.775,42.9725],[-0.781667,42.971389],[-0.801667,42.963333],[-0.815278,42.960833],[-0.855556,42.959167],[-0.874444,42.959722],[-0.898333,42.9625],[-0.900278,42.961944],[-0.913056,42.959444],[-0.916111,42.958611],[-0.931944,42.9575],[-0.969167,42.969167],[-0.979167,42.977778],[-1.01,42.994444],[-1.051944,42.995],[-1.066667,43.0],[-1.075556,43.003333],[-1.087778,43.011667],[-1.108056,43.025278],[-1.118611,43.025556],[-1.124167,43.0175],[-1.133056,43.010278],[-1.139722,43.013333],[-1.148611,43.029167],[-1.156944,43.033611],[-1.172778,43.035278],[-1.185278,43.038889],[-1.195,43.041389],[-1.2,43.043056],[-1.203889,43.046111],[-1.21,43.055556],[-1.215833,43.058333],[-1.220556,43.058611],[-1.238333,43.053611],[-1.253889,43.055],[-1.270556,43.063333],[-1.297222,43.071944],[-1.305833,43.077778],[-1.300278,43.091389],[-1.291667,43.104444],[-1.293889,43.106389],[-1.293611,43.108333],[-1.293056,43.113611],[-1.285278,43.118889],[-1.284722,43.122778],[-1.29,43.124444],[-1.321389,43.114167],[-1.329167,43.109167],[-1.334722,43.094722],[-1.341111,43.0525],[-1.348333,43.043889],[-1.351667,43.039722],[-1.356667,43.036389],[-1.386111,43.040278],[-1.394167,43.041667],[-1.418333,43.046389],[-1.436389,43.054722],[-1.459444,43.068889],[-1.470833,43.085],[-1.474444,43.098056],[-1.456111,43.105278],[-1.434444,43.118611],[-1.427778,43.123056],[-1.418333,43.135],[-1.410556,43.156111],[-1.411944,43.166389],[-1.409722,43.178611],[-1.407778,43.180833],[-1.391944,43.196111],[-1.390556,43.199722],[-1.386944,43.21],[-1.388889,43.23],[-1.386389,43.2375],[-1.387778,43.248056],[-1.3925,43.258056],[-1.393333,43.258889],[-1.398611,43.263611],[-1.409444,43.270556],[-1.417778,43.271667],[-1.440556,43.270556],[-1.4575,43.266944],[-1.466111,43.268056],[-1.473333,43.271111],[-1.473333,43.271111],[-0.219722,44.606944]]]}},{"type":"Feature","properties":{"name":"34 B","nameV":"TRA 34 B","class":"R","type":"TRA","lower":"FL195","lowerM":5943,"upper":"FL999","upperM":30449,"desc":"Entry:  IFR: Avoidance mandatory throughout activity. Activity known on BORDEAUX UAC.","activationCode":"HX","activationDesc":"Possible activation H24. Activation schedules stated in France AUP. ","UId":"41853349","id":"LFTR34B","stroke":"#800080","stroke-width":2,"stroke-opacity":0.8,"fill":"#ffb9dc","fill-opacity":0.1},"geometry":{"type":"Polygon","coordinates":[[[-0.219722,44.606944],[0.400278,44.386667],[0.422778,43.744167],[0.382222,43.6875],[-0.7361109999999998,42.935833],[-0.736111,42.935833],[-0.746111,42.955833],[-0.751944,42.961944],[-0.756944,42.967222],[-0.767222,42.972222],[-0.775,42.9725],[-0.781667,42.971389],[-0.801667,42.963333],[-0.815278,42.960833],[-0.855556,42.959167],[-0.874444,42.959722],[-0.898333,42.9625],[-0.900278,42.961944],[-0.913056,42.959444],[-0.916111,42.958611],[-0.931944,42.9575],[-0.969167,42.969167],[-0.979167,42.977778],[-1.01,42.994444],[-1.051944,42.995],[-1.066667,43.0],[-1.075556,43.003333],[-1.087778,43.011667],[-1.108056,43.025278],[-1.118611,43.025556],[-1.124167,43.0175],[-1.133056,43.010278],[-1.139722,43.013333],[-1.148611,43.029167],[-1.156944,43.033611],[-1.172778,43.035278],[-1.185278,43.038889],[-1.195,43.041389],[-1.2,43.043056],[-1.203889,43.046111],[-1.21,43.055556],[-1.215833,43.058333],[-1.220556,43.058611],[-1.238333,43.053611],[-1.253889,43.055],[-1.270556,43.063333],[-1.297222,43.071944],[-1.305833,43.077778],[-1.300278,43.091389],[-1.291667,43.104444],[-1.293889,43.106389],[-1.293611,43.108333],[-1.293056,43.113611],[-1.285278,43.118889],[-1.284722,43.122778],[-1.29,43.124444],[-1.321389,43.114167],[-1.329167,43.109167],[-1.334722,43.094722],[-1.341111,43.0525],[-1.348333,43.043889],[-1.351667,43.039722],[-1.356667,43.036389],[-1.386111,43.040278],[-1.394167,43.041667],[-1.418333,43.046389],[-1.436389,43.054722],[-1.459444,43.068889],[-1.470833,43.085],[-1.474444,43.098056],[-1.456111,43.105278],[-1.434444,43.118611],[-1.427778,43.123056],[-1.418333,43.135],[-1.410556,43.156111],[-1.411944,43.166389],[-1.409722,43.178611],[-1.407778,43.180833],[-1.391944,43.196111],[-1.390556,43.199722],[-1.386944,43.21],[-1.388889,43.23],[-1.386389,43.2375],[-1.387778,43.248056],[-1.3925,43.258056],[-1.393333,43.258889],[-1.398611,43.263611],[-1.409444,43.270556],[-1.417778,43.271667],[-1.440556,43.270556],[-1.4575,43.266944],[-1.466111,43.268056],[-1.473333,43.271111],[-1.473333,43.271111],[-0.219722,44.606944]]]}},{"type":"Feature","properties":{"name":"34 N","nameV":"TRA 34 N","class":"R","type":"TRA","lower":"FL245","lowerM":7467,"upper":"FL999","upperM":30449,"desc":"Entry:  IFR: Avoidance mandatory throughout activity. Activity known on BORDEAUX UAC.","activationCode":"HX","activationDesc":"Possible activation H24. Activation schedules stated in France AUP. ","UId":"41853495","id":"LFTR34N","stroke":"#800080","stroke-width":2,"stroke-opacity":0.8,"fill":"#ffb9dc","fill-opacity":0.1},"geometry":{"type":"Polygon","coordinates":[[[0.041667,44.775],[0.400278,44.386667],[-0.219722,44.606944],[0.041667,44.775]]]}},{"type":"Feature","properties":{"name":"34 A","nameV":"TRA 34 A","class":"R","type":"TRA","lower":"FL195","lowerM":5943,"upper":"FL999","upperM":30449,"desc":"Entry:  IFR: Avoidance mandatory throughout activity. Activity known on BORDEAUX UAC.","activationCode":"HX","activationDesc":"Possible activation H24. Activation schedules stated in France AUP. ","UId":"41853319","id":"LFTR34A","stroke":"#800080","stroke-width":2,"stroke-opacity":0.8,"fill":"#ffb9dc","fill-opacity":0.1},"geometry":{"type":"Polygon","coordinates":[[[-0.219722,44.606944],[0.400278,44.386667],[0.551944,44.005278],[0.422778,43.744167],[0.382222,43.6875],[-0.7361109999999998,42.935833],[-0.736111,42.935833],[-0.746111,42.955833],[-0.751944,42.961944],[-0.756944,42.967222],[-0.767222,42.972222],[-0.775,42.9725],[-0.781667,42.971389],[-0.801667,42.963333],[-0.815278,42.960833],[-0.855556,42.959167],[-0.874444,42.959722],[-0.898333,42.9625],[-0.900278,42.961944],[-0.913056,42.959444],[-0.916111,42.958611],[-0.931944,42.9575],[-0.969167,42.969167],[-0.979167,42.977778],[-1.01,42.994444],[-1.051944,42.995],[-1.066667,43.0],[-1.075556,43.003333],[-1.087778,43.011667],[-1.108056,43.025278],[-1.118611,43.025556],[-1.124167,43.0175],[-1.133056,43.010278],[-1.139722,43.013333],[-1.148611,43.029167],[-1.156944,43.033611],[-1.172778,43.035278],[-1.185278,43.038889],[-1.195,43.041389],[-1.2,43.043056],[-1.203889,43.046111],[-1.21,43.055556],[-1.215833,43.058333],[-1.220556,43.058611],[-1.238333,43.053611],[-1.253889,43.055],[-1.270556,43.063333],[-1.297222,43.071944],[-1.305833,43.077778],[-1.300278,43.091389],[-1.291667,43.104444],[-1.293889,43.106389],[-1.293611,43.108333],[-1.293056,43.113611],[-1.285278,43.118889],[-1.284722,43.122778],[-1.29,43.124444],[-1.321389,43.114167],[-1.329167,43.109167],[-1.334722,43.094722],[-1.341111,43.0525],[-1.348333,43.043889],[-1.351667,43.039722],[-1.356667,43.036389],[-1.386111,43.040278],[-1.394167,43.041667],[-1.418333,43.046389],[-1.436389,43.054722],[-1.459444,43.068889],[-1.470833,43.085],[-1.474444,43.098056],[-1.456111,43.105278],[-1.434444,43.118611],[-1.427778,43.123056],[-1.418333,43.135],[-1.410556,43.156111],[-1.411944,43.166389],[-1.409722,43.178611],[-1.407778,43.180833],[-1.391944,43.196111],[-1.390556,43.199722],[-1.386944,43.21],[-1.388889,43.23],[-1.386389,43.2375],[-1.387778,43.248056],[-1.3925,43.258056],[-1.393333,43.258889],[-1.398611,43.263611],[-1.409444,43.270556],[-1.417778,43.271667],[-1.440556,43.270556],[-1.4575,43.266944],[-1.466111,43.268056],[-1.473333,43.271111],[-1.473333,43.271111],[-0.219722,44.606944]]]}},{"type":"Feature","properties":{"name":"34 E","nameV":"TRA 34 E","class":"R","type":"TRA","lower":"FL195","lowerM":5943,"upper":"FL345","upperM":10515,"desc":"Entry:  IFR: Avoidance mandatory throughout activity. Activity known on BORDEAUX UAC.","activationCode":"HX","activationDesc":"Possible activation H24. Activation schedules stated in France AUP.","UId":"41853427","id":"LFTR34E","stroke":"#800080","stroke-width":2,"stroke-opacity":0.8,"fill":"#ffb9dc","fill-opacity":0.1},"geometry":{"type":"Polygon","coordinates":[[[0.386111,44.391667],[0.400278,44.386667],[0.422778,43.744167],[0.382222,43.6875],[-0.023056,43.413889],[0.386111,44.391667]]]}},{"type":"Feature","properties":{"name":"34 D","nameV":"TRA 34 D","class":"R","type":"TRA","lower":"FL195","lowerM":5943,"upper":"FL999","upperM":30449,"desc":"Entry:  IFR: Avoidance mandatory throughout activity. Activity known on BORDEAUX UAC.","activationCode":"HX","activationDesc":"Possible activation H24. Activation schedules stated in France AUP. ","UId":"41853404","id":"LFTR34D","stroke":"#800080","stroke-width":2,"stroke-opacity":0.8,"fill":"#ffb9dc","fill-opacity":0.1},"geometry":{"type":"Polygon","coordinates":[[[-0.166667,44.544444],[0.303889,44.197778],[0.011667,43.498056],[-0.752778,43.203611],[-1.264167,43.283889],[-1.391389,43.347778],[-0.851389,43.936667],[-0.166667,44.544444]]]}},{"type":"Feature","properties":{"name":"6","nameV":"TRA 6","class":"R","type":"TRA","lower":"FL195","lowerM":5943,"upper":"FL999","upperM":30449,"desc":"Entry: GAT: Avoidance mandatory throughout activity except clearance from control.","activationCode":"HX","activationDesc":"Possible activation H24","UId":"41170216","id":"LFTR6","stroke":"#800080","stroke-width":2,"stroke-opacity":0.8,"fill":"#ffb9dc","fill-opacity":0.1},"geometry":{"type":"Polygon","coordinates":[[[-1.876389,48.803611],[-1.875278,48.065556],[-2.045278,47.732778],[-3.090556,47.821111],[-3.488611,48.063889],[-3.477778,48.293333],[-2.890556,48.633889],[-1.876389,48.803611]]]}},{"type":"Feature","properties":{"name":"6 C","nameV":"TRA 6 C","class":"R","type":"TRA","lower":"FL195","lowerM":5943,"upper":"FL275","upperM":8382,"desc":"Entry conditions: - VFR: avoidance mandatory, - IFR: avoidance mandatory except for FL 200 upon notification, - OAT I and T: upon coordination. Actual activity known on: - PARIS ACC, - BREST ACC.","activationCode":"HX","activationDesc":"MON-FRI. Possible activation H24. ","UId":"41170229","id":"LFTR6C","stroke":"#800080","stroke-width":2,"stroke-opacity":0.8,"fill":"#ffb9dc","fill-opacity":0.1},"geometry":{"type":"Polygon","coordinates":[[[-2.890556,48.633889],[-3.477778,48.293333],[-3.488611,48.063889],[-4.5,48.303889],[-4.008333,48.496667],[-2.890556,48.633889]]]}},{"type":"Feature","properties":{"name":"8 A","nameV":"TRA 8 A","class":"R","type":"TRA","lower":"FL195","lowerM":5943,"upper":"FL335","upperM":10210,"desc":"Entry: GAT: Avoidance mandatory throughout activity except clearance from control.","activationCode":"HX","activationDesc":"Possible activation H24","UId":"41170269","id":"LFTR8A","stroke":"#800080","stroke-width":2,"stroke-opacity":0.8,"fill":"#ffb9dc","fill-opacity":0.1},"geometry":{"type":"Polygon","coordinates":[[[-1.366389,48.81],[0.221667,48.726389],[-1.025,48.0175],[-1.298333,47.848056],[-1.366389,48.81]]]}},{"type":"Feature","properties":{"name":"8 B","nameV":"TRA 8 B","class":"R","type":"TRA","lower":"FL195","lowerM":5943,"upper":"FL335","upperM":10210,"desc":"Entry: GAT: Avoidance mandatory throughout activity except clearance from control.","activationCode":"HX","activationDesc":"Possible activation H24","UId":"41170280","id":"LFTR8B","stroke":"#800080","stroke-width":2,"stroke-opacity":0.8,"fill":"#ffb9dc","fill-opacity":0.1},"geometry":{"type":"Polygon","coordinates":[[[-1.367222,48.82],[-0.264444,48.846111],[0.266944,48.751667],[-1.025,48.0175],[-1.298889,47.8425],[-1.367222,48.82]]]}},{"type":"Feature","properties":{"name":"24 A","nameV":"TRA 24 A","class":"R","type":"TRA","lower":"FL195","lowerM":5943,"upper":"FL999","upperM":30449,"desc":"Entry: GAT: Avoidance mandatory throughout activity except clearance from control. Activity available on PARIS ACC and REIMS ACC.","activationCode":"HX","activationDesc":"Possible activation H24.","UId":"1566347","id":"LFTR24A","stroke":"#800080","stroke-width":2,"stroke-opacity":0.8,"fill":"#ffb9dc","fill-opacity":0.1},"geometry":{"type":"Polygon","coordinates":[[[4.048611,47.828333],[4.968056,47.24],[4.886944,46.799444],[4.349444,46.878056],[3.939722,47.571111],[3.997778,47.835556],[4.048611,47.828333]]]}},{"type":"Feature","properties":{"name":"43 A","nameV":"TRA 43 A","class":"R","type":"TRA","lower":"FL195","lowerM":5943,"upper":"FL999","upperM":30449,"desc":"Entry: GAT: Avoidance mandatory throughout activity except clearance from control. Activity available on MARSEILLE ACC and BORDEAUX ACC.","activationCode":"HX","activationDesc":"Possible activation H24","UId":"1566365","id":"LFTR43A","stroke":"#800080","stroke-width":2,"stroke-opacity":0.8,"fill":"#ffb9dc","fill-opacity":0.1},"geometry":{"type":"Polygon","coordinates":[[[1.778333,45.734444],[1.870833,45.827778],[2.028056,45.889444],[2.736111,45.912222],[2.833333,45.728611],[2.815833,45.006389],[2.620556,44.838889],[2.369444,44.711111],[1.878056,44.711111],[1.738333,44.802778],[1.554444,45.508333],[1.778333,45.734444]]]}},{"type":"Feature","properties":{"name":"9 C","nameV":"TRA 9 C","class":"R","type":"TRA","lower":"FL335","lowerM":10210,"upper":"FL999","upperM":30449,"desc":"Entry: GAT: Avoidance mandatory throughout activity except clearance from control.","activationCode":"HX","activationDesc":"Possible activation H24","UId":"41170334","id":"LFTR9C","stroke":"#800080","stroke-width":2,"stroke-opacity":0.8,"fill":"#ffb9dc","fill-opacity":0.1},"geometry":{"type":"Polygon","coordinates":[[[-0.433889,47.430833],[0.000278,47.405833],[0.195556,47.329167],[-0.095278,46.323333],[-0.549167,46.486111],[-0.674722,47.225556],[-0.433889,47.430833]]]}},{"type":"Feature","properties":{"name":"44 D2","nameV":"TRA 44 D2","class":"R","type":"TRA","lower":"FL265","lowerM":8077,"upper":"FL999","upperM":30449,"desc":"Entry: GAT: Avoidance mandatory throughout activity except clearance from control. Activity available on MARSEILLE ACC.","activationCode":"HX","activationDesc":"Possible activation H24.","UId":"1564231","id":"LFTR44D2","stroke":"#800080","stroke-width":2,"stroke-opacity":0.8,"fill":"#ffb9dc","fill-opacity":0.1},"geometry":{"type":"Polygon","coordinates":[[[9.225,41.501389],[8.889444,41.798056],[8.557222,42.240556],[8.551944,42.437222],[8.5675,42.466667],[9.224444,41.569444],[9.225,41.501389]]]}},{"type":"Feature","properties":{"name":"46 N","nameV":"TRA 46 N","class":"R","type":"TRA","lower":"FL195","lowerM":5943,"upper":"FL999","upperM":30449,"desc":"Entry:  GAT: Avoidance mandatory throughout activity except clearance from control. Activity available on MARSEILLE ACC.","activationCode":"HX","activationDesc":"Possible activation H24.","UId":"1566369","id":"LFTR46N","stroke":"#800080","stroke-width":2,"stroke-opacity":0.8,"fill":"#ffb9dc","fill-opacity":0.1},"geometry":{"type":"Polygon","coordinates":[[[3.040833,43.094722],[4.521389,43.094722],[4.363333,42.760278],[2.984444,42.760278],[3.040833,43.094722]]]}},{"type":"Feature","properties":{"name":"9 D","nameV":"TRA 9 D","class":"R","type":"TRA","lower":"FL335","lowerM":10210,"upper":"FL999","upperM":30449,"desc":"Entry: GAT: Avoidance mandatory throughout activity except clearance from control.","activationCode":"HX","activationDesc":"Possible activation H24","UId":"41170347","id":"LFTR9D","stroke":"#800080","stroke-width":2,"stroke-opacity":0.8,"fill":"#ffb9dc","fill-opacity":0.1},"geometry":{"type":"Polygon","coordinates":[[[0.195556,47.329167],[0.275,47.298333],[0.322222,47.083333],[0.191389,46.633889],[-0.095278,46.323333],[0.195556,47.329167]]]}},{"type":"Feature","properties":{"name":"10 C3","nameV":"TRA 10 C3","class":"R","type":"TRA","lower":"FL315","lowerM":9601,"upper":"FL325","upperM":9906,"desc":"Entry: GAT: Avoidance mandatory throughout activity except clearance from control. Except for LF-R 25H when active. Activity available on PARIS ACC, BREST ACC and BORDEAUX ACC.","activationCode":"HO","activationDesc":"Possible activation H24 sauf si LF-TRA 10 C1 ou C2 actives. Unless LF-TRA 10 C1 or C2 active.","UId":"25229672","id":"LFTR10C3","stroke":"#800080","stroke-width":2,"stroke-opacity":0.8,"fill":"#ffb9dc","fill-opacity":0.1},"geometry":{"type":"Polygon","coordinates":[[[1.288056,48.008333],[1.653333,48.011389],[1.899167,47.850556],[1.915556,47.578611],[1.929444,47.3475],[1.716667,46.487778],[1.163889,46.540556],[0.957222,46.701389],[0.932222,46.72],[1.080278,47.844167],[1.288056,48.008333]]]}},{"type":"Feature","properties":{"name":"24 B","nameV":"TRA 24 B","class":"R","type":"TRA","lower":"FL195","lowerM":5943,"upper":"FL999","upperM":30449,"desc":"Entry: GAT: Avoidance mandatory throughout activity except clearance from control. Activity available on PARIS ACC and REIMS ACC.","activationCode":"HX","activationDesc":"Possible activation H24","UId":"1566345","id":"LFTR24B","stroke":"#800080","stroke-width":2,"stroke-opacity":0.8,"fill":"#ffb9dc","fill-opacity":0.1},"geometry":{"type":"Polygon","coordinates":[[[3.967778,47.699444],[4.966667,47.231667],[4.886944,46.799444],[4.349444,46.878056],[3.939722,47.571111],[3.967778,47.699444]]]}},{"type":"Feature","properties":{"name":"41","nameV":"TRA 41","class":"R","type":"TRA","lower":"FL195","lowerM":5943,"upper":"FL999","upperM":30449,"desc":"Entry:  GAT: Avoidance mandatory throughout activity except clearance from control. Activity available on MARSEILLE ACC and BORDEAUX ACC.","activationCode":"HX","activationDesc":"Possible activation H24","UId":"1566333","id":"LFTR41","stroke":"#800080","stroke-width":2,"stroke-opacity":0.8,"fill":"#ffb9dc","fill-opacity":0.1},"geometry":{"type":"Polygon","coordinates":[[[3.124444,43.647778],[3.915278,43.505],[4.521389,43.094722],[3.040833,43.094722],[3.124444,43.647778]]]}},{"type":"Feature","properties":{"name":"9 B","nameV":"TRA 9 B","class":"R","type":"TRA","lower":"FL305","lowerM":9296,"upper":"FL335","upperM":10210,"desc":"Entry: GAT: Avoidance mandatory throughout activity except clearance from control.","activationCode":"HX","activationDesc":"Possible activation H24","UId":"41170315","id":"LFTR9B","stroke":"#800080","stroke-width":2,"stroke-opacity":0.8,"fill":"#ffb9dc","fill-opacity":0.1},"geometry":{"type":"Polygon","coordinates":[[[0.39,48.069167],[0.526111,48.069167],[0.597778,47.328611],[0.322222,47.083333],[0.275,47.298333],[0.000278,47.405833],[-0.816111,47.451667],[0.39,48.069167]]]}},{"type":"Feature","properties":{"name":"10 A","nameV":"TRA 10 A","class":"R","type":"TRA","lower":"FL195","lowerM":5943,"upper":"FL999","upperM":30449,"desc":"Entry: GAT: Avoidance mandatory throughout activity except clearance from control. Except for LF-R 25C, LF-R 25H and TRA 10 C1 or C2 or C3 when active. Activity available on PARIS ACC, BREST ACC and BORDEAUX ACC.","activationCode":"HX","activationDesc":"Possible activation H24.","UId":"25229605","id":"LFTR10A","stroke":"#800080","stroke-width":2,"stroke-opacity":0.8,"fill":"#ffb9dc","fill-opacity":0.1},"geometry":{"type":"Polygon","coordinates":[[[1.358611,47.749444],[1.915556,47.578611],[1.929444,47.3475],[1.716667,46.487778],[1.163889,46.540556],[1.188056,47.398056],[1.358611,47.749444]]]}},{"type":"Feature","properties":{"name":"10 B","nameV":"TRA 10 B","class":"R","type":"TRA","lower":"FL195","lowerM":5943,"upper":"FL285","upperM":8686,"desc":"Entry: IFR: Avoidance mandatory throughout activity except clearance from control. Except for LF-TRA 10 C1 when active. Activity available on PARIS ACC, BREST ACC and BORDEAUX ACC.","activationCode":"HO","activationDesc":"Possible activation H24.","UId":"25229622","id":"LFTR10B","stroke":"#800080","stroke-width":2,"stroke-opacity":0.8,"fill":"#ffb9dc","fill-opacity":0.1},"geometry":{"type":"Polygon","coordinates":[[[1.188056,47.398056],[1.163889,46.540556],[1.716667,46.487778],[1.6675,46.293333],[1.439167,46.11],[1.183611,46.11],[0.941944,46.25],[0.901389,46.524722],[0.957222,46.701389],[1.188056,47.398056]]]}},{"type":"Feature","properties":{"name":"10 C1","nameV":"TRA 10 C1","class":"R","type":"TRA","lower":"FL275","lowerM":8382,"upper":"FL285","upperM":8686,"desc":"Entry: GAT: Avoidance mandatory throughout activity except clearance from control. Except for LF-R 25H when active. Activity available on PARIS ACC, BREST ACC and BORDEAUX ACC.","activationCode":"HO","activationDesc":"Possible activation H24 sauf si LF-TRA 10 C2 ou C3 actives. Unless LF-TRA 10 C2 or C3 active.","UId":"25229638","id":"LFTR10C1","stroke":"#800080","stroke-width":2,"stroke-opacity":0.8,"fill":"#ffb9dc","fill-opacity":0.1},"geometry":{"type":"Polygon","coordinates":[[[1.288056,48.008333],[1.653333,48.011389],[1.899167,47.850556],[1.915556,47.578611],[1.929444,47.3475],[1.716667,46.487778],[1.163889,46.540556],[0.957222,46.701389],[0.932222,46.72],[1.080278,47.844167],[1.288056,48.008333]]]}},{"type":"Feature","properties":{"name":"10 C2","nameV":"TRA 10 C2","class":"R","type":"TRA","lower":"FL295","lowerM":8991,"upper":"FL305","upperM":9296,"desc":"Entry: GAT: Avoidance mandatory throughout activity except clearance from control. Except for LF-R 25H when active. Activity available on PARIS ACC, BREST ACC and BORDEAUX ACC.","activationCode":"HO","activationDesc":"Possible activation H24 sauf si LF-TRA 10 C1 ou C3 actives. Unless LF-TRA 10 C1 or C3 active.","UId":"25229655","id":"LFTR10C2","stroke":"#800080","stroke-width":2,"stroke-opacity":0.8,"fill":"#ffb9dc","fill-opacity":0.1},"geometry":{"type":"Polygon","coordinates":[[[1.288056,48.008333],[1.653333,48.011389],[1.899167,47.850556],[1.915556,47.578611],[1.929444,47.3475],[1.716667,46.487778],[1.163889,46.540556],[0.957222,46.701389],[0.932222,46.72],[1.080278,47.844167],[1.288056,48.008333]]]}},{"type":"Feature","properties":{"name":"46 S","nameV":"TRA 46 S","class":"R","type":"TRA","lower":"FL195","lowerM":5943,"upper":"FL999","upperM":30449,"desc":"Entry: GAT: Avoidance mandatory throughout activity except clearance from control. Activity available on MARSEILLE ACC.","activationCode":"HX","activationDesc":"Possible activation H24.","UId":"1566371","id":"LFTR46S","stroke":"#800080","stroke-width":2,"stroke-opacity":0.8,"fill":"#ffb9dc","fill-opacity":0.1},"geometry":{"type":"Polygon","coordinates":[[[3.200556,42.449722],[2.984444,42.760278],[4.363333,42.760278],[3.924444,42.275833],[3.854167,42.2525],[3.200556,42.449722]]]}},{"type":"Feature","properties":{"name":"200 A","nameV":"TRA 200 A","class":"R","type":"TRA","lower":"FL195","lowerM":5943,"upper":"FL999","upperM":30449,"desc":"Entry: GAT: Avoidance mandatory throughout activity except clearance from control. Activity available on REIMS ACC and PARIS ACC.","activationCode":"HX","activationDesc":"Possible activation H24.","UId":"1566283","id":"LFTR200A","stroke":"#800080","stroke-width":2,"stroke-opacity":0.8,"fill":"#ffb9dc","fill-opacity":0.1},"geometry":{"type":"Polygon","coordinates":[[[5.906389,49.451667],[6.079444,49.446389],[6.25,49.310556],[6.225,48.690556],[5.942222,48.495556],[5.169167,48.389444],[4.288056,48.809444],[4.288056,49.028889],[5.811111,49.431111],[5.906389,49.451667]]]}},{"type":"Feature","properties":{"name":"200 C","nameV":"TRA 200 C","class":"R","type":"TRA","lower":"FL195","lowerM":5943,"upper":"FL999","upperM":30449,"desc":"Entry: GAT: Avoidance mandatory throughout activity except clearance from control. Activity available on REIMS ACC and PARIS ACC.","activationCode":"HX","activationDesc":"Possible activation H24.","UId":"1566277","id":"LFTR200C","stroke":"#800080","stroke-width":2,"stroke-opacity":0.8,"fill":"#ffb9dc","fill-opacity":0.1},"geometry":{"type":"Polygon","coordinates":[[[5.830556,49.347778],[5.9575,48.805556],[5.951389,48.679722],[5.201389,48.631111],[4.5875,48.861389],[4.5875,49.018889],[5.830556,49.347778]]]}},{"type":"Feature","properties":{"name":"200 E","nameV":"TRA 200 E","class":"R","type":"TRA","lower":"FL195","lowerM":5943,"upper":"FL999","upperM":30449,"desc":"Entry: GAT: Avoidance mandatory throughout activity except clearance from control. Activity available on REIMS ACC and PARIS ACC.","activationCode":"HX","activationDesc":"Possible activation H24.","UId":"1566279","id":"LFTR200E","stroke":"#800080","stroke-width":2,"stroke-opacity":0.8,"fill":"#ffb9dc","fill-opacity":0.1},"geometry":{"type":"Polygon","coordinates":[[[5.906389,49.451667],[6.079444,49.446389],[6.25,49.310556],[6.225,48.690556],[5.942222,48.495556],[5.616111,48.475556],[4.5875,48.861389],[4.5875,49.108056],[5.811111,49.431111],[5.906389,49.451667]]]}},{"type":"Feature","properties":{"name":"200 W","nameV":"TRA 200 W","class":"R","type":"TRA","lower":"FL195","lowerM":5943,"upper":"FL999","upperM":30449,"desc":"Entry: GAT: Avoidance mandatory throughout activity except clearance from control. Activity available on REIMS ACC and PARIS ACC.","activationCode":"HX","activationDesc":"Possible activation H24.","UId":"1566281","id":"LFTR200W","stroke":"#800080","stroke-width":2,"stroke-opacity":0.8,"fill":"#ffb9dc","fill-opacity":0.1},"geometry":{"type":"Polygon","coordinates":[[[5.811111,49.431111],[5.9575,48.805556],[5.942222,48.495556],[5.178333,48.446111],[4.288056,48.809444],[4.288056,49.028889],[5.811111,49.431111]]]}},{"type":"Feature","properties":{"name":"9 A","nameV":"TRA 9 A","class":"R","type":"TRA","lower":"FL195","lowerM":5943,"upper":"FL335","upperM":10210,"desc":"Entry: GAT: Avoidance mandatory throughout activity except clearance from control.","activationCode":"HX","activationDesc":"Possible activation H24","UId":"41170294","id":"LFTR9A","stroke":"#800080","stroke-width":2,"stroke-opacity":0.8,"fill":"#ffb9dc","fill-opacity":0.1},"geometry":{"type":"Polygon","coordinates":[[[-0.816111,47.451667],[0.000278,47.405833],[0.275,47.298333],[0.322222,47.083333],[0.191389,46.633889],[-0.095278,46.323333],[-0.593056,46.501389],[-1.245833,47.006389],[-1.230833,47.247778],[-0.816111,47.451667]]]}},{"type":"Feature","properties":{"name":"44 B","nameV":"TRA 44 B","class":"R","type":"TRA","lower":"FL195","lowerM":5943,"upper":"FL999","upperM":30449,"desc":"Entry: GAT: Avoidance mandatory throughout activity except clearance from control. Activity available on MARSEILLE ACC.","activationCode":"HX","activationDesc":"Possible activation H24","UId":"1564219","id":"LFTR44B","stroke":"#800080","stroke-width":2,"stroke-opacity":0.8,"fill":"#ffb9dc","fill-opacity":0.1},"geometry":{"type":"Polygon","coordinates":[[[9.2175,42.5725],[9.224444,41.569444],[8.912222,41.999444],[8.987222,42.653889],[9.2175,42.5725]]]}},{"type":"Feature","properties":{"name":"44 C1","nameV":"TRA 44 C1","class":"R","type":"TRA","lower":"FL195","lowerM":5943,"upper":"FL265","upperM":8077,"desc":"Entry: GAT: Avoidance mandatory throughout activity except clearance from control. Activity available on MARSEILLE ACC.","activationCode":"HX","activationDesc":"Possible activation H24","UId":"1564223","id":"LFTR44C1","stroke":"#800080","stroke-width":2,"stroke-opacity":0.8,"fill":"#ffb9dc","fill-opacity":0.1},"geometry":{"type":"Polygon","coordinates":[[[8.987222,42.653889],[8.912222,41.999444],[8.5675,42.466667],[8.724444,42.7625],[8.987222,42.653889]]]}},{"type":"Feature","properties":{"name":"44 C2","nameV":"TRA 44 C2","class":"R","type":"TRA","lower":"FL265","lowerM":8077,"upper":"FL999","upperM":30449,"desc":"Entry: GAT: Avoidance mandatory throughout activity except clearance from control. Activity available on MARSEILLE ACC.","activationCode":"HX","activationDesc":"Possible activation H24","UId":"1564227","id":"LFTR44C2","stroke":"#800080","stroke-width":2,"stroke-opacity":0.8,"fill":"#ffb9dc","fill-opacity":0.1},"geometry":{"type":"Polygon","coordinates":[[[8.987222,42.653889],[8.912222,41.999444],[8.5675,42.466667],[8.724444,42.7625],[8.987222,42.653889]]]}},{"type":"Feature","properties":{"name":"44 D1","nameV":"TRA 44 D1","class":"R","type":"TRA","lower":"FL195","lowerM":5943,"upper":"FL265","upperM":8077,"desc":"Entry: GAT: Avoidance mandatory throughout activity except clearance from control. Activity available on MARSEILL ACC.","activationCode":"HX","activationDesc":"Possible activation H24","UId":"1564117","id":"LFTR44D1","stroke":"#800080","stroke-width":2,"stroke-opacity":0.8,"fill":"#ffb9dc","fill-opacity":0.1},"geometry":{"type":"Polygon","coordinates":[[[9.225,41.501389],[8.889444,41.798056],[8.557222,42.240556],[8.551944,42.437222],[8.5675,42.466667],[9.224444,41.569444],[9.225,41.501389]]]}},{"type":"Feature","properties":{"name":"43 C","nameV":"TRA 43 C","class":"R","type":"TRA","lower":"FL195","lowerM":5943,"upper":"FL999","upperM":30449,"desc":"Entry: GAT: Avoidance mandatory throughout activity except clearance from control. Activity available on MARSEILLE ACC and BORDEAUX ACC.","activationCode":"HX","activationDesc":"Possible activation H24","UId":"24649154","id":"LFTR43C","stroke":"#800080","stroke-width":2,"stroke-opacity":0.8,"fill":"#ffb9dc","fill-opacity":0.1},"geometry":{"type":"Polygon","coordinates":[[[1.778333,45.734444],[2.833333,45.728611],[2.815833,45.006389],[2.620556,44.838889],[2.369444,44.711111],[1.878056,44.711111],[1.820556,44.748889],[1.723056,45.679167],[1.778333,45.734444]]]}},{"type":"Feature","properties":{"name":"43 N","nameV":"TRA 43 N","class":"R","type":"TRA","lower":"FL195","lowerM":5943,"upper":"FL999","upperM":30449,"desc":"Entry: GAT: Avoidance mandatory throughout activity except clearance from control. Activity available on MARSEILLE ACC and BORDEAUX ACC.","activationCode":"HX","activationDesc":"Possible activation H24","UId":"24649195","id":"LFTR43N","stroke":"#800080","stroke-width":2,"stroke-opacity":0.8,"fill":"#ffb9dc","fill-opacity":0.1},"geometry":{"type":"Polygon","coordinates":[[[1.870833,45.827778],[2.028056,45.889444],[2.736111,45.912222],[2.833333,45.728611],[2.815833,45.006389],[2.620556,44.838889],[2.369444,44.711111],[1.878056,44.711111],[1.820556,44.748889],[1.723056,45.679167],[1.870833,45.827778]]]}},{"type":"Feature","properties":{"name":"43 W","nameV":"TRA 43 W","class":"R","type":"TRA","lower":"FL195","lowerM":5943,"upper":"FL999","upperM":30449,"desc":"Entry: GAT: Avoidance mandatory throughout activity except clearance from control. Activity available on MARSEILLE ACC and BORDEAUX ACC.","activationCode":"HX","activationDesc":"Possible activation H24","UId":"24649219","id":"LFTR43W","stroke":"#800080","stroke-width":2,"stroke-opacity":0.8,"fill":"#ffb9dc","fill-opacity":0.1},"geometry":{"type":"Polygon","coordinates":[[[1.778333,45.734444],[2.833333,45.728611],[2.815833,45.006389],[2.620556,44.838889],[2.369444,44.711111],[1.878056,44.711111],[1.738333,44.802778],[1.554444,45.508333],[1.778333,45.734444]]]}},{"type":"Feature","properties":{"name":"44 A","nameV":"TRA 44 A","class":"R","type":"TRA","lower":"FL195","lowerM":5943,"upper":"FL999","upperM":30449,"desc":"Entry: GAT: Avoidance mandatory throughout activity except clearance from control. Activity available on MARSEILLE ACC.","activationCode":"HX","activationDesc":"Possible activation H24","UId":"1564217","id":"LFTR44A","stroke":"#800080","stroke-width":2,"stroke-opacity":0.8,"fill":"#ffb9dc","fill-opacity":0.1},"geometry":{"type":"Polygon","coordinates":[[[9.749444,42.31],[9.7,42.3],[9.7,41.333611],[9.320278,41.416389],[9.225,41.501389],[9.2175,42.5725],[9.749444,42.31]]]}},{"type":"Feature","properties":{"name":"22 A2","nameV":"TRA 22 A2","class":"R","type":"TRA","lower":"FL195","lowerM":5943,"upper":"FL999","upperM":30449,"desc":"Entry: GAT: Avoidance mandatory throughout activity except clearance from control.","activationCode":"H24","activationDesc":"Activable H24 Horaires d'activation planifiés spécifiés dans l'AUP France. Activité connue de REIMS UAC.\\\\ Possible activation H24 Activation schedules stated in France AUP Activity available on REIMS UAC.","UId":"48585750","id":"LFTR22A2","stroke":"#800080","stroke-width":2,"stroke-opacity":0.8,"fill":"#ffb9dc","fill-opacity":0.1},"geometry":{"type":"Polygon","coordinates":[[[6.830833,48.941944],[6.833333,49.033333],[6.685833,49.2175],[6.689647622602753,49.22053055171377],[6.689681,49.220433],[6.696103,49.215128],[6.701878,49.216711],[6.706361,49.216417],[6.719647,49.221183],[6.7232,49.218944],[6.731461,49.205936],[6.711153,49.188322],[6.720328,49.175356],[6.726811,49.172567],[6.729825,49.169242],[6.738333,49.163667],[6.749853,49.166733],[6.761192,49.164778],[6.773558,49.167533],[6.780664,49.168186],[6.789836,49.166372],[6.794253,49.1632],[6.802953,49.162011],[6.808033,49.158667],[6.816894,49.157736],[6.824417,49.154033],[6.834042,49.151072],[6.847706,49.157208],[6.844553,49.163986],[6.845406,49.168333],[6.844331,49.173047],[6.855614,49.175033],[6.859069,49.174644],[6.861731,49.181844],[6.859519,49.183525],[6.858489,49.186786],[6.850533,49.193278],[6.852167,49.200092],[6.842375,49.208847],[6.836222,49.211275],[6.838092,49.2135],[6.858839,49.222775],[6.862928,49.222289],[6.870497,49.218803],[6.873092,49.214867],[6.8934,49.209139],[6.900586,49.213689],[6.911522,49.215061],[6.918839,49.219992],[6.918733,49.222692],[6.925144,49.223356],[6.928533,49.222108],[6.938192,49.222453],[6.939853,49.216797],[6.951131,49.207742],[6.959636,49.203097],[6.972597,49.209517],[6.975178,49.209439],[6.992569,49.200775],[6.997147,49.197728],[6.999486,49.194464],[7.008903,49.193981],[7.0108,49.187939],[7.01345,49.188658],[7.015622,49.191225],[7.02135,49.193211],[7.023228,49.189192],[7.027922,49.191267],[7.035022,49.191417],[7.033308,49.187958],[7.033833,49.182614],[7.0285,49.175719],[7.027647,49.170589],[7.029275,49.166842],[7.032914,49.164228],[7.032139,49.156728],[7.041436,49.146706],[7.046783,49.136736],[7.044206,49.120378],[7.047486,49.115622],[7.052042,49.112953],[7.056997,49.111914],[7.066639,49.114308],[7.068481,49.116797],[7.068686,49.120597],[7.072014,49.124408],[7.090022,49.130739],[7.090094,49.132842],[7.081775,49.141992],[7.084164,49.1442],[7.082317,49.152183],[7.084736,49.153453],[7.087028,49.152064],[7.09335,49.152636],[7.101317,49.156092],[7.106733,49.155161],[7.107242,49.152761],[7.113406,49.152425],[7.112761,49.150819],[7.104425,49.146242],[7.103053,49.140583],[7.104236,49.138522],[7.126389,49.142111],[7.131531,49.134683],[7.131586,49.131692],[7.134017,49.130808],[7.135883,49.128486],[7.140486,49.127947],[7.143178,49.125906],[7.148343471014248,49.125381030145725],[7.148333,49.125278],[6.830833,48.941944]]]}},{"type":"Feature","properties":{"name":"42 NT","nameV":"TRA 42 NT","class":"R","type":"TRA","lower":"FL195","lowerM":5943,"upper":"FL999","upperM":30449,"desc":"Entry: GAT: Avoidance mandatory throughout activity except clearance from control. Lower limit FL 205 West of the line joining 44°33'34\"N, 003°20'11\"E and 43°58'06\"N, 003°48'13\"E points.","activationCode":"H24","activationDesc":"Activable H24.  Horaires d'activation planifiés spécifiés dans l'AUP France. Activité réelle connue de MARSEILLE UAC et BORDEAUX UAC. Possible activation H24. Activation schedules stated in France AUP.  Activity available on MARSEILLE UAC and BORDEAUX UAC.","UId":"48585655","id":"LFTR42NT","stroke":"#800080","stroke-width":2,"stroke-opacity":0.8,"fill":"#ffb9dc","fill-opacity":0.1},"geometry":{"type":"Polygon","coordinates":[[[4.314167,44.775278],[4.428611,44.634444],[4.507222,44.383056],[3.666389,43.886389],[3.286111,44.125278],[3.279444,44.547222],[4.314167,44.775278]]]}},{"type":"Feature","properties":{"name":"22 A1","nameV":"TRA 22 A1","class":"R","type":"TRA","lower":"FL195","lowerM":5943,"upper":"FL999","upperM":30449,"desc":"Entry: GAT: Avoidance mandatory throughout activity except clearance from control.","activationCode":"HX","activationDesc":"Activable H24 Horaires d'activation planifiés spécifiés dans l'AUP France. Activité connue de REIMS UAC.\\\\ Possible activation H24 Activation schedules stated in France AUP Activity available on REIMS UAC.","UId":"25181898","id":"LFTR22A1","stroke":"#800080","stroke-width":2,"stroke-opacity":0.8,"fill":"#ffb9dc","fill-opacity":0.1},"geometry":{"type":"Polygon","coordinates":[[[6.830833,48.941944],[7.148343471014248,49.125381030145725],[7.150292,49.125183],[7.155947,49.121464],[7.159467,49.120464],[7.159547,49.122186],[7.165114,49.128617],[7.167797,49.127378],[7.174492,49.129222],[7.178242,49.128583],[7.17745,49.130272],[7.183567,49.129961],[7.183939,49.131433],[7.185425,49.131244],[7.187175,49.127806],[7.190211,49.128022],[7.191561,49.126386],[7.190525,49.125836],[7.196336,49.121625],[7.198133,49.115172],[7.201303,49.117303],[7.203675,49.120303],[7.203806,49.122622],[7.205461,49.1236],[7.228764,49.126169],[7.235647,49.128692],[7.245047,49.130086],[7.248828,49.127372],[7.265617,49.122658],[7.271669,49.124272],[7.279819,49.122161],[7.281592,49.124375],[7.283831,49.123439],[7.282333,49.116908],[7.293164,49.114947],[7.298408,49.117275],[7.304175,49.123189],[7.305608,49.127072],[7.310172,49.129467],[7.313806,49.137114],[7.32115,49.141289],[7.329889,49.144792],[7.341558,49.145228],[7.345325,49.143283],[7.362722,49.143194],[7.361508,49.144733],[7.362986,49.145236],[7.361308,49.152917],[7.362464,49.156403],[7.366683,49.160697],[7.368956,49.161656],[7.365789,49.164214],[7.364756,49.166942],[7.365189,49.171861],[7.381128,49.175053],[7.445614,49.184189],[7.443664,49.182206],[7.436,49.18005],[7.4361,49.176936],[7.439375,49.175822],[7.441792,49.172186],[7.440428,49.1704],[7.433081,49.168086],[7.432572,49.165653],[7.439142,49.164222],[7.446189,49.168317],[7.448739,49.168497],[7.453903,49.166903],[7.457653,49.163069],[7.459758,49.162803],[7.465517,49.164989],[7.467414,49.167339],[7.482219,49.169633],[7.493964,49.169508],[7.492572,49.164336],[7.495953,49.155178],[7.506436,49.154719],[7.505939,49.150617],[7.497728,49.146314],[7.495231,49.143622],[7.496758,49.142456],[7.495381,49.141408],[7.489878,49.142292],[7.489531,49.136564],[7.495489,49.135828],[7.4977,49.134539],[7.505489,49.1224],[7.511775,49.122419],[7.515347,49.121047],[7.519053,49.116464],[7.521839,49.108047],[7.525194,49.103947],[7.528311,49.103644],[7.529558,49.102058],[7.528444,49.097106],[7.537789,49.096436],[7.535633,49.093683],[7.549836,49.085839],[7.563706,49.080247],[7.569336,49.079769],[7.600989,49.083233],[7.620214,49.074153],[7.629392,49.073583],[7.630942,49.072644],[7.630617,49.065725],[7.6326,49.063819],[7.632653,49.058589],[7.631208,49.054889],[7.674697,49.044992],[7.680703,49.048928],[7.683858,49.048278],[7.685653,49.049197],[7.697314,49.049625],[7.697194,49.051808],[7.692478,49.054144],[7.695947,49.057803],[7.698047,49.055847],[7.700811,49.056975],[7.705664,49.056158],[7.708247,49.052486],[7.717575,49.053928],[7.720225,49.051611],[7.722789,49.051178],[7.727083,49.054942],[7.731464,49.055553],[7.732247,49.043972],[7.737417,49.044803],[7.74075,49.047347],[7.747039,49.046369],[7.751578,49.047897],[7.756736,49.045506],[7.761078,49.045514],[7.768778,49.047697],[7.76985,49.050472],[7.776494,49.056711],[7.779889,49.0583],[7.788967,49.058403],[7.794422,49.065711],[7.810456,49.061286],[7.812644,49.057094],[7.815689,49.054961],[7.825931,49.052189],[7.830536,49.047297],[7.836294,49.047272],[7.844067,49.044739],[7.8437,49.043169],[7.845711,49.042606],[7.849836,49.044047],[7.851569,49.042283],[7.852225,49.037747],[7.85465,49.035531],[7.860808,49.034958],[7.8674,49.033011],[7.874469,49.040547],[7.880378,49.043761],[7.881308,49.046036],[7.884367,49.046486],[7.888739,49.049028],[7.9026,49.044522],[7.910667,49.045156],[7.91075,49.043728],[7.91385,49.041947],[7.913525,49.039997],[7.923153,49.043722],[7.926533,49.049822],[7.931194,49.054267],[7.931747,49.058089],[7.940289,49.056356],[7.940947,49.0544],[7.945464,49.055486],[7.946497,49.051611],[7.945661,49.04975],[7.949739,49.048617],[7.949053,49.047228],[7.95745,49.044964],[7.956894,49.043081],[7.965117,49.042986],[7.966761,49.041589],[7.966856,49.036369],[7.972189,49.035964],[7.9722,49.034136],[7.974069,49.031797],[7.972958,49.030733],[7.974683,49.029878],[7.975181,49.026553],[7.978678,49.027228],[7.982386,49.025844],[7.989672,49.028628],[8.000397,49.028558],[8.002275,49.026342],[8.007253,49.025033],[8.010678,49.025397],[8.012614,49.024042],[8.013667,49.020761],[8.016339,49.020103],[8.018528,49.021381],[8.022817,49.018114],[8.031486,49.018464],[8.0449,49.013664],[8.049608,49.014292],[8.058828,49.006789],[8.064,49.005481],[8.065231,49.002936],[8.064161,49.000972],[8.069164,48.999039],[8.068992,48.997611],[8.071625,48.996317],[8.087617,48.991772],[8.088025,48.990483],[8.091431,48.98935],[8.096667,48.989703],[8.097642,48.988847],[8.100728,48.989922],[8.106575,48.989056],[8.108728,48.987022],[8.115106,48.986908],[8.11985,48.984711],[8.123503,48.986422],[8.128094,48.982519],[8.131081,48.983158],[8.132886,48.981175],[8.135672,48.981156],[8.136533,48.979564],[8.139586,48.978481],[8.144656,48.978556],[8.148608,48.977319],[8.153831,48.977183],[8.160808,48.978614],[8.162153,48.97755],[8.166981,48.977692],[8.170122,48.976397],[8.171625,48.979072],[8.180319,48.978283],[8.180456,48.977539],[8.184644,48.978519],[8.187633,48.976592],[8.19455,48.977114],[8.197583,48.972364],[8.195536,48.969228],[8.199767,48.9669],[8.203836,48.969642],[8.207789,48.970125],[8.214361,48.974961],[8.223311,48.975833],[8.226761,48.973928],[8.229592,48.968789],[8.232572,48.966508],[8.203267,48.959828],[8.197353,48.957261],[8.192078,48.951975],[8.179667,48.935094],[8.146672,48.902403],[8.134203,48.886142],[8.123578,48.868989],[8.109611,48.840039],[8.102211,48.817481],[8.088447,48.803214],[8.073036,48.792825],[8.063825,48.789522],[8.05845,48.7889],[8.042686,48.790692],[8.036403,48.789736],[8.030439,48.787389],[8.02605,48.782789],[8.022564,48.767911],[8.019211,48.764125],[8.013122,48.760497],[8.002206,48.758853],[7.983239,48.761125],[7.973147,48.758639],[7.96895,48.753889],[7.967375,48.747586],[7.967258,48.727075],[7.962436,48.720811],[7.891472,48.663583],[7.884122,48.659644],[7.862839,48.651161],[7.845389,48.645922],[7.839778,48.641422],[7.833283,48.625444],[7.828933,48.617917],[7.8055,48.593439],[7.8007,48.585236],[7.800508,48.577522],[7.804142,48.567036],[7.805658,48.558125],[7.80565,48.549242],[7.803636,48.537119],[7.806669,48.523364],[7.805392,48.5141],[7.801128,48.507361],[7.794264,48.501361],[7.772875,48.493078],[7.768189,48.489619],[7.76715,48.4868],[7.766375,48.461733],[7.762964,48.450775],[7.733628,48.398997],[7.730997,48.385633],[7.733147,48.371092],[7.745522,48.333514],[7.744436,48.327325],[7.740017,48.321728],[7.733817,48.318019],[7.705931,48.310231],[7.699164,48.306525],[7.693558,48.301769],[7.689406,48.293547],[7.688806,48.279128],[7.666283,48.221142],[7.6613,48.216872],[7.645533,48.208539],[7.642728,48.20555],[7.629378,48.183706],[7.602083,48.159417],[7.599811,48.156222],[7.598942,48.152017],[7.600564,48.140947],[7.598856,48.1357],[7.593486,48.130725],[7.580194,48.124492],[7.577147,48.119967],[7.579589,48.105653],[7.577586,48.096558],[7.571944,48.089097],[7.569169,48.080369],[7.573492,48.059517],[7.573903,48.052608],[7.572394,48.045778],[7.568917,48.038169],[7.568931,48.034681],[7.572633,48.029567],[7.609875,47.999111],[7.617243170844533,47.98779178102144],[7.617222,47.987778],[6.81,48.21],[6.830833,48.941944]]]}}]}