{
"type": "FeatureCollection",
"name": "CCA_LFBI_BI_Labels",
"crs": { "type": "name", "properties": { "name": "urn:ogc:def:crs:OGC:1.3:CRS84" } },
"features": [
{ "type": "Feature", "properties": { "fir": "LFBB", "identifier": "LFBB:POITIERS BI:\u0003d-\u0003d", "subsector_id": "", "name": "BI", "level_lower": 0, "level_upper": 145, "callout_x1": null, "callout_y1": null, "callout_x2": null, "callout_y2": null, "style": 10, "buffer": null }, "geometry": { "type": "Point", "coordinates": [ 0.953853634199931, 46.802672085944224 ] } },
{ "type": "Feature", "properties": { "fir": "LFFF", "identifier": "SK", "subsector_id": "SK", "name": "SK", "level_lower": 0, "level_upper": 115, "callout_x1": null, "callout_y1": null, "callout_x2": null, "callout_y2": null, "style": 20, "buffer": null }, "geometry": { "type": "Point", "coordinates": [ 0.873993405441706, 47.247899703416131 ] } },
{ "type": "Feature", "properties": { "fir": "LFFF", "identifier": "S", "subsector_id": "S", "name": "S", "level_lower": 0, "level_upper": 195, "callout_x1": null, "callout_y1": null, "callout_x2": null, "callout_y2": null, "style": 20, "buffer": null }, "geometry": { "type": "Point", "coordinates": [ 2.069044685788008, 47.276933527166371 ] } },
{ "type": "Feature", "properties": { "fir": "LFBB", "identifier": "BL", "subsector_id": "BL", "name": "BL", "level_lower": 0, "level_upper": 145, "callout_x1": null, "callout_y1": null, "callout_x2": null, "callout_y2": null, "style": 20, "buffer": null }, "geometry": { "type": "Point", "coordinates": [ 1.239068736907879, 46.223649324404249 ] } },
{ "type": "Feature", "properties": { "fir": "LFBB", "identifier": "BE", "subsector_id": "BE", "name": "BE", "level_lower": 0, "level_upper": 75, "callout_x1": null, "callout_y1": null, "callout_x2": null, "callout_y2": null, "style": 20, "buffer": null }, "geometry": { "type": "Point", "coordinates": [ -0.326762176958756, 45.568614888745429 ] } },
{ "type": "Feature", "properties": { "fir": "LFBB", "identifier": "BW", "subsector_id": "BW", "name": "BW", "level_lower": 75, "level_upper": 145, "callout_x1": null, "callout_y1": null, "callout_x2": null, "callout_y2": null, "style": 21, "buffer": null }, "geometry": { "type": "Point", "coordinates": [ -0.326762176958756, 45.568614888745429 ] } },
{ "type": "Feature", "properties": { "fir": "LFBB", "identifier": "BH", "subsector_id": "BH", "name": "BH", "level_lower": 0, "level_upper": 115, "callout_x1": null, "callout_y1": null, "callout_x2": null, "callout_y2": null, "style": 20, "buffer": null }, "geometry": { "type": "Point", "coordinates": [ -0.654759545072896, 46.033890762426282 ] } },
{ "type": "Feature", "properties": { "fir": "LFBB", "identifier": "BW", "subsector_id": "BW", "name": "BW", "level_lower": 115, "level_upper": 145, "callout_x1": null, "callout_y1": null, "callout_x2": null, "callout_y2": null, "style": 21, "buffer": null }, "geometry": { "type": "Point", "coordinates": [ -0.654759545072896, 46.033890762426282 ] } },
{ "type": "Feature", "properties": { "fir": "LFRR", "identifier": "NB", "subsector_id": "NB", "name": "NB", "level_lower": 0, "level_upper": 115, "callout_x1": null, "callout_y1": null, "callout_x2": null, "callout_y2": null, "style": 20, "buffer": null }, "geometry": { "type": "Point", "coordinates": [ -0.443700369069014, 46.798767274715487 ] } },
{ "type": "Feature", "properties": { "fir": "LFRR", "identifier": "LU", "subsector_id": "LU", "name": "LU", "level_lower": 115, "level_upper": 195, "callout_x1": null, "callout_y1": null, "callout_x2": null, "callout_y2": null, "style": 21, "buffer": null }, "geometry": { "type": "Point", "coordinates": [ -0.443700369069014, 46.798767274715487 ] } }
]
}
