{
"type": "FeatureCollection",
"name": "CCA_Overview_Labels",
"crs": { "type": "name", "properties": { "name": "urn:ogc:def:crs:OGC:1.3:CRS84" } },
"xy_coordinate_resolution": 1e-15,
"features": [
{ "type": "Feature", "properties": { "fir": null, "identifier": null, "subsector_id": null, "name": "IROISE", "level_lower": null, "level_upper": null, "callout_x1": null, "callout_y1": null, "callout_x2": null, "callout_y2": null, "style": 10, "buffer": null }, "geometry": { "type": "Point", "coordinates": [ -4.004111795522414, 48.486892019307625 ] } },
{ "type": "Feature", "properties": { "fir": null, "identifier": null, "subsector_id": null, "name": "RENNES", "level_lower": null, "level_upper": null, "callout_x1": null, "callout_y1": null, "callout_x2": null, "callout_y2": null, "style": 10, "buffer": null }, "geometry": { "type": "Point", "coordinates": [ -1.024044632616676, 48.836507381147122 ] } },
{ "type": "Feature", "properties": { "fir": null, "identifier": null, "subsector_id": null, "name": "NANTES", "level_lower": null, "level_upper": null, "callout_x1": null, "callout_y1": null, "callout_x2": null, "callout_y2": null, "style": 10, "buffer": null }, "geometry": { "type": "Point", "coordinates": [ -1.498861111111111, 47.06605555555555 ] } }
]
}
