{
"type": "FeatureCollection",
"name": "CCA_LFBB_H_Labels",
"crs": { "type": "name", "properties": { "name": "urn:ogc:def:crs:OGC:1.3:CRS84" } },
"features": [
{ "type": "Feature", "properties": { "fir": "LFBB", "identifier": "H1", "subsector_id": "H1", "name": "H1", "level_lower": 195, "level_upper": 295, "callout_x1": null, "callout_y1": null, "callout_x2": null, "callout_y2": null, "style": 30, "buffer": null }, "geometry": { "type": "Point", "coordinates": [ 2.680714070257536, 43.539542353453882 ] } },
{ "type": "Feature", "properties": { "fir": "LFBB", "identifier": "H2", "subsector_id": "H2", "name": "H2", "level_lower": 245, "level_upper": 295, "callout_x1": null, "callout_y1": null, "callout_x2": null, "callout_y2": null, "style": 31, "buffer": null }, "geometry": { "type": "Point", "coordinates": [ 2.680714070257536, 43.539542353453882 ] } },
{ "type": "Feature", "properties": { "fir": "LFBB", "identifier": "H3", "subsector_id": "H3", "name": "H3", "level_lower": 346, "level_upper": 365, "callout_x1": null, "callout_y1": null, "callout_x2": null, "callout_y2": null, "style": 32, "buffer": null }, "geometry": { "type": "Point", "coordinates": [ 2.680714070257536, 43.539542353453882 ] } },
{ "type": "Feature", "properties": { "fir": "LFBB", "identifier": "H4", "subsector_id": "H4", "name": "H4", "level_lower": 365, "level_upper": 385, "callout_x1": null, "callout_y1": null, "callout_x2": null, "callout_y2": null, "style": 33, "buffer": null }, "geometry": { "type": "Point", "coordinates": [ 2.680714070257536, 43.539542353453882 ] } },
{ "type": "Feature", "properties": { "fir": "LFBB", "identifier": "H5", "subsector_id": "H5", "name": "H5", "level_lower": 385, "level_upper": 660, "callout_x1": null, "callout_y1": null, "callout_x2": null, "callout_y2": null, "style": 34, "buffer": null }, "geometry": { "type": "Point", "coordinates": [ 2.680714070257536, 43.539542353453882 ] } }
]
}
