{
"type": "FeatureCollection",
"name": "CCA_LFRR_G_Labels",
"crs": { "type": "name", "properties": { "name": "urn:ogc:def:crs:OGC:1.3:CRS84" } },
"features": [
{ "type": "Feature", "properties": { "fir": "LFRR", "identifier": "GS2", "subsector_id": "GS2", "name": "GS2", "level_lower": 195, "level_upper": 345, "callout_x1": null, "callout_y1": null, "callout_x2": null, "callout_y2": null, "style": 30, "buffer": null }, "geometry": { "type": "Point", "coordinates": [ -3.074240003134928, 45.1888875 ] } },
{ "type": "Feature", "properties": { "fir": "LFRR", "identifier": "GI", "subsector_id": "GI", "name": "GI", "level_lower": 345, "level_upper": 365, "callout_x1": null, "callout_y1": null, "callout_x2": null, "callout_y2": null, "style": 31, "buffer": null }, "geometry": { "type": "Point", "coordinates": [ -3.074240003134928, 45.1888875 ] } },
{ "type": "Feature", "properties": { "fir": "LFRR", "identifier": "GU", "subsector_id": "GU", "name": "GU", "level_lower": 365, "level_upper": 660, "callout_x1": null, "callout_y1": null, "callout_x2": null, "callout_y2": null, "style": 32, "buffer": null }, "geometry": { "type": "Point", "coordinates": [ -3.074240003134928, 45.1888875 ] } }
]
}
