{
"type": "FeatureCollection",
"name": "CCA_LFRR_GS_Labels",
"crs": { "type": "name", "properties": { "name": "urn:ogc:def:crs:OGC:1.3:CRS84" } },
"features": [
{ "type": "Feature", "properties": { "fir": "LFRR", "identifier": "LFRR:GS1 UAC", "subsector_id": "", "name": "GS1 UAC", "level_lower": 0, "level_upper": 195, "callout_x1": null, "callout_y1": null, "callout_x2": null, "callout_y2": null, "style": 30, "buffer": null }, "geometry": { "type": "Point", "coordinates": [ -2.671352874582504, 45.220019278183798 ] } }
]
}
