{
"type": "FeatureCollection",
"name": "CCA_LFRR_Jersey_Labels",
"crs": { "type": "name", "properties": { "name": "urn:ogc:def:crs:OGC:1.3:CRS84" } },
"features": [
{ "type": "Feature", "properties": { "fir": "EGTT", "identifier": "EGTT:JJ", "subsector_id": "", "name": "JERSEY", "level_lower": 0, "level_upper": 195, "callout_x1": "-2.2259", "callout_y1": "50.2846", "callout_x2": "-2.4623", "callout_y2": "49.4703", "style": 10, "buffer": null }, "geometry": { "type": "Point", "coordinates": [ -2.207700073242896, 50.52215030745181 ] } }
]
}
