{"type":"FeatureCollection","headerFile":{"software":"(aixmParser v2.26.4) ","created":"2026-05-17T14:46:23.656100","content":"airspaces-all","allMap":true,"numberOfAreas":4549,"srcFiles":{"1":{"srcAixmFile":"..\\tst\\AIXM4.5_all_FR_OM_2026-05-14.xml","srcAixmOrigin":"Sia-France","srcAixmVersion":"4.5","srcAixmCreated":"2026-03-23T19:09:15.593+01:00","srcAixmEffective":"2026-05-14T00:00:00.000+02:00"}}},"features":[{"type":"Feature","properties":{"name":"FRANCE 3 ALPES 5","nameV":"LTA FRANCE 3 ALPES 5","class":"D","type":"LTA","lower":"FL175","lowerM":5334,"upper":"FL195","upperM":5943,"desc":"Unless otherwise specified, except for: - TMA and AWY - P,R,D areas - CTA - TRA - CBA when active.","activationCode":"HX","UId":"1565981","id":"LTA130735","stroke":"#800080","stroke-width":2,"stroke-opacity":0.8,"fill":"#ff96dc","fill-opacity":0},"geometry":{"type":"Polygon","coordinates":[[[6.820405366633185,45.71551877663448],[6.821519,45.712361],[6.829728,45.702644],[6.837978,45.701594],[6.841717,45.699556],[6.847628,45.689428],[6.860392,45.684653],[6.867139,45.683875],[6.869803,45.680483],[6.878139,45.678711],[6.884114,45.680303],[6.892731,45.675797],[6.901089,45.680964],[6.903667,45.679822],[6.906869,45.675078],[6.905603,45.671158],[6.906289,45.668622],[6.902831,45.663578],[6.916044,45.6602],[6.915917,45.651283],[6.924639,45.648986],[6.931044,45.645681],[6.941358,45.648881],[6.962158,45.654708],[6.970583,45.653403],[6.974428,45.646792],[6.990158,45.643294],[6.992306,45.639628],[7.000922,45.639733],[7.00075,45.634761],[6.993681,45.628228],[6.987019,45.623811],[6.983667,45.616483],[6.986011,45.612247],[6.980658,45.598286],[6.979478,45.59265],[6.978058,45.587958],[6.982208,45.582547],[6.993575,45.576686],[6.99525,45.574506],[6.994411,45.571153],[6.996733,45.5684],[6.989878,45.562778],[6.990642,45.555797],[6.993789,45.547422],[6.995722,45.544297],[6.991706,45.532453],[6.992114,45.529939],[7.003717,45.521119],[7.004919,45.516558],[7.000881,45.509242],[7.000708,45.504242],[7.005994,45.502164],[7.015019,45.498492],[7.025006,45.496528],[7.038108,45.4964],[7.047369,45.497131],[7.054803,45.494781],[7.055836,45.487942],[7.049433,45.484597],[7.046381,45.477942],[7.049389,45.472458],[7.060778,45.471464],[7.065117,45.473903],[7.086264,45.4727],[7.091378,45.470681],[7.103969,45.467939],[7.103067,45.465983],[7.100444,45.464203],[7.099197,45.458753],[7.10225,45.453328],[7.111575,45.445617],[7.1151,45.439622],[7.114197,45.433658],[7.120986,45.4317],[7.136331,45.426158],[7.143378,45.425403],[7.152747,45.422483],[7.157431,45.416728],[7.169336,45.411397],[7.185064,45.406692],[7.185108,45.402469],[7.178575,45.396192],[7.178919,45.389978],[7.172944,45.385389],[7.16985,45.384967],[7.165081,45.382764],[7.163147,45.380139],[7.161642,45.375522],[7.158719,45.369122],[7.159622,45.367131],[7.161042,45.363058],[7.163661,45.36025],[7.157861,45.358078],[7.152789,45.354153],[7.151458,45.352978],[7.137619,45.350381],[7.133622,45.345853],[7.132097,45.338769],[7.134353,45.334086],[7.133967,45.330856],[7.125328,45.326958],[7.113725,45.328772],[7.111147,45.325992],[7.111661,45.322819],[7.110935428032703,45.32052362236073],[7.110833,45.320556],[6.835556,45.503611],[6.746944,45.457222],[6.399172,45.465811],[6.339722,45.572222],[6.363333,45.672222],[6.3908,45.797353],[6.513842,45.716769],[6.820405366633185,45.71551877663448]]]}},{"type":"Feature","properties":{"name":"FRANCE 3 ALPES 5.20","nameV":"LTA FRANCE 3 ALPES 5.20 Lower(3000FT AGL-FL115)","class":"E","type":"LTA","lower":"FL115","lowerMin":"3000FT AGL","lowerM":3505,"upper":"FL175","upperM":5334,"desc":"Unless otherwise specified, except for: - TMA and AWY - P,R,D areas - CTA - TRA - CBA when active.","activationCode":"HX","UId":"7997013","id":"LTA130735.","stroke":"#008040","stroke-width":2,"stroke-opacity":0.8,"fill":"#80ff80","fill-opacity":0.1},"geometry":{"type":"Polygon","coordinates":[[[6.820405366633185,45.71551877663448],[6.821519,45.712361],[6.829728,45.702644],[6.837978,45.701594],[6.841717,45.699556],[6.847628,45.689428],[6.860392,45.684653],[6.867139,45.683875],[6.869803,45.680483],[6.878139,45.678711],[6.884114,45.680303],[6.892731,45.675797],[6.901089,45.680964],[6.903667,45.679822],[6.906869,45.675078],[6.905603,45.671158],[6.906289,45.668622],[6.902831,45.663578],[6.916044,45.6602],[6.915917,45.651283],[6.924639,45.648986],[6.931044,45.645681],[6.941358,45.648881],[6.962158,45.654708],[6.970583,45.653403],[6.974428,45.646792],[6.990158,45.643294],[6.992306,45.639628],[7.000922,45.639733],[7.00075,45.634761],[6.993681,45.628228],[6.987019,45.623811],[6.983667,45.616483],[6.986011,45.612247],[6.980658,45.598286],[6.979478,45.59265],[6.978058,45.587958],[6.982208,45.582547],[6.993575,45.576686],[6.99525,45.574506],[6.994411,45.571153],[6.996733,45.5684],[6.989878,45.562778],[6.990642,45.555797],[6.993789,45.547422],[6.995722,45.544297],[6.991706,45.532453],[6.992114,45.529939],[7.003717,45.521119],[7.004919,45.516558],[7.000881,45.509242],[7.000708,45.504242],[7.005994,45.502164],[7.015019,45.498492],[7.025006,45.496528],[7.038108,45.4964],[7.047369,45.497131],[7.054803,45.494781],[7.055836,45.487942],[7.049433,45.484597],[7.046381,45.477942],[7.049389,45.472458],[7.060778,45.471464],[7.065117,45.473903],[7.086264,45.4727],[7.091378,45.470681],[7.103969,45.467939],[7.103067,45.465983],[7.100444,45.464203],[7.099197,45.458753],[7.10225,45.453328],[7.111575,45.445617],[7.1151,45.439622],[7.114197,45.433658],[7.120986,45.4317],[7.136331,45.426158],[7.143378,45.425403],[7.152747,45.422483],[7.157431,45.416728],[7.169336,45.411397],[7.185064,45.406692],[7.185108,45.402469],[7.178575,45.396192],[7.178919,45.389978],[7.172944,45.385389],[7.16985,45.384967],[7.165081,45.382764],[7.163147,45.380139],[7.161642,45.375522],[7.158719,45.369122],[7.159622,45.367131],[7.161042,45.363058],[7.163661,45.36025],[7.157861,45.358078],[7.152789,45.354153],[7.151458,45.352978],[7.137619,45.350381],[7.133622,45.345853],[7.132097,45.338769],[7.134353,45.334086],[7.133967,45.330856],[7.125328,45.326958],[7.113725,45.328772],[7.111147,45.325992],[7.111661,45.322819],[7.110935428032703,45.32052362236073],[7.110833,45.320556],[6.835556,45.503611],[6.746944,45.457222],[6.399172,45.465811],[6.339722,45.572222],[6.363333,45.672222],[6.3908,45.797353],[6.513842,45.716769],[6.820405366633185,45.71551877663448]]]}},{"type":"Feature","properties":{"name":"FRANCE 3 ALPES 6","nameV":"LTA FRANCE 3 ALPES 6","class":"D","type":"LTA","lower":"FL175","lowerM":5334,"upper":"FL195","upperM":5943,"desc":"Unless otherwise specified, except for: - TMA and AWY - P,R,D areas - CTA - TRA - CBA when active.","activationCode":"HX","UId":"7215294","id":"LTA130736","stroke":"#800080","stroke-width":2,"stroke-opacity":0.8,"fill":"#ff96dc","fill-opacity":0},"geometry":{"type":"Polygon","coordinates":[[[6.959908713948608,46.034308418978256],[6.962636,46.030542],[6.966453,46.031286],[6.970864,46.025917],[6.981192,46.02005],[6.980769,46.018131],[6.985036,46.008028],[6.984242,46.005803],[6.995622,46.000128],[7.000808,45.999033],[7.005214,46.001622],[7.010436,45.997442],[7.010278,45.994436],[7.013078,45.991289],[7.01205,45.987389],[7.015653,45.987214],[7.023281,45.978553],[7.020678,45.976286],[7.010061,45.972989],[7.009108,45.969333],[7.017767,45.960561],[7.037311,45.954828],[7.038508,45.944928],[7.035744,45.938378],[7.042508,45.9302],[7.043878,45.924483],[7.044686,45.922331],[7.044686,45.922331],[7.039364,45.921817],[7.0367,45.920739],[7.032017,45.920439],[7.023078,45.916428],[7.019853,45.915172],[7.015814,45.910714],[7.013408,45.906317],[7.007261,45.903083],[7.002878,45.896111],[7.006186,45.886628],[7.002275,45.881511],[6.999053,45.877711],[6.999311,45.873819],[6.990372,45.868133],[6.981433,45.869033],[6.969358,45.865981],[6.966692,45.864394],[6.956292,45.860983],[6.951136,45.860833],[6.948386,45.856375],[6.942711,45.851708],[6.941722,45.850242],[6.941636,45.847189],[6.935364,45.845633],[6.932611,45.845333],[6.926639,45.847367],[6.921225,45.846978],[6.915767,45.843269],[6.913186,45.840875],[6.906797,45.843614],[6.901842,45.842461],[6.893247,45.843328],[6.881514,45.849492],[6.875497,45.847158],[6.874078,45.844914],[6.873197,45.840258],[6.869997,45.838333],[6.872103,45.835764],[6.869136,45.832617],[6.871972,45.830433],[6.868364,45.824658],[6.865828,45.825494],[6.859597,45.833186],[6.850828,45.838183],[6.841117,45.840547],[6.833253,45.837494],[6.822378,45.837525],[6.818167,45.835131],[6.816664,45.830311],[6.810861,45.823011],[6.805017,45.815472],[6.810989,45.810889],[6.812708,45.806106],[6.811033,45.802306],[6.812108,45.795133],[6.805231,45.792131],[6.801236,45.781269],[6.803083,45.773369],[6.805875,45.769211],[6.805253,45.764667],[6.806047,45.7538],[6.806564,45.7499],[6.806178,45.746992],[6.816964,45.740006],[6.811206,45.730111],[6.808153,45.727233],[6.809614,45.724592],[6.8195,45.718086],[6.820583586129741,45.71501342417396],[6.822003,45.715514],[6.513842,45.716769],[6.753014,45.932019],[6.798097,45.954483],[6.959908713948608,46.034308418978256]]]}},{"type":"Feature","properties":{"name":"FRANCE 3 ALPES 6.20","nameV":"LTA FRANCE 3 ALPES 6.20 Lower(3000FT AGL-FL115)","class":"E","type":"LTA","lower":"FL115","lowerMin":"3000FT AGL","lowerM":3505,"upper":"FL175","upperM":5334,"desc":"Unless otherwise specified, except for: - TMA and AWY - P,R,D areas - CTA - TRA - CBA when active. Note: when 3000 ft ASFC is higher than FL 175, the upper limit of G class is FL 175.","activationCode":"HX","UId":"7215326","id":"LTA130736.","stroke":"#008040","stroke-width":2,"stroke-opacity":0.8,"fill":"#80ff80","fill-opacity":0.1},"geometry":{"type":"Polygon","coordinates":[[[6.959908713948608,46.034308418978256],[6.962636,46.030542],[6.966453,46.031286],[6.970864,46.025917],[6.981192,46.02005],[6.980769,46.018131],[6.985036,46.008028],[6.984242,46.005803],[6.995622,46.000128],[7.000808,45.999033],[7.005214,46.001622],[7.010436,45.997442],[7.010278,45.994436],[7.013078,45.991289],[7.01205,45.987389],[7.015653,45.987214],[7.023281,45.978553],[7.020678,45.976286],[7.010061,45.972989],[7.009108,45.969333],[7.017767,45.960561],[7.037311,45.954828],[7.038508,45.944928],[7.035744,45.938378],[7.042508,45.9302],[7.043878,45.924483],[7.044686,45.922331],[7.044686,45.922331],[7.039364,45.921817],[7.0367,45.920739],[7.032017,45.920439],[7.023078,45.916428],[7.019853,45.915172],[7.015814,45.910714],[7.013408,45.906317],[7.007261,45.903083],[7.002878,45.896111],[7.006186,45.886628],[7.002275,45.881511],[6.999053,45.877711],[6.999311,45.873819],[6.990372,45.868133],[6.981433,45.869033],[6.969358,45.865981],[6.966692,45.864394],[6.956292,45.860983],[6.951136,45.860833],[6.948386,45.856375],[6.942711,45.851708],[6.941722,45.850242],[6.941636,45.847189],[6.935364,45.845633],[6.932611,45.845333],[6.926639,45.847367],[6.921225,45.846978],[6.915767,45.843269],[6.913186,45.840875],[6.906797,45.843614],[6.901842,45.842461],[6.893247,45.843328],[6.881514,45.849492],[6.875497,45.847158],[6.874078,45.844914],[6.873197,45.840258],[6.869997,45.838333],[6.872103,45.835764],[6.869136,45.832617],[6.871972,45.830433],[6.868364,45.824658],[6.865828,45.825494],[6.859597,45.833186],[6.850828,45.838183],[6.841117,45.840547],[6.833253,45.837494],[6.822378,45.837525],[6.818167,45.835131],[6.816664,45.830311],[6.810861,45.823011],[6.805017,45.815472],[6.810989,45.810889],[6.812708,45.806106],[6.811033,45.802306],[6.812108,45.795133],[6.805231,45.792131],[6.801236,45.781269],[6.803083,45.773369],[6.805875,45.769211],[6.805253,45.764667],[6.806047,45.7538],[6.806564,45.7499],[6.806178,45.746992],[6.816964,45.740006],[6.811206,45.730111],[6.808153,45.727233],[6.809614,45.724592],[6.8195,45.718086],[6.820583586129741,45.71501342417396],[6.822003,45.715514],[6.513842,45.716769],[6.753014,45.932019],[6.798097,45.954483],[6.959908713948608,46.034308418978256]]]}},{"type":"Feature","properties":{"name":"FRANCE 3 ALPES 7","nameV":"LTA FRANCE 3 ALPES 7","class":"D","type":"LTA","lower":"FL135","lowerM":4114,"upper":"FL195","upperM":5943,"desc":"Unless otherwise specified, except for: - TMA and AWY - P,R,D areas - CTA - TRA - CBA when active.","activationCode":"HX","UId":"7215373","id":"LTA130737","stroke":"#800080","stroke-width":2,"stroke-opacity":0.8,"fill":"#ff96dc","fill-opacity":0},"geometry":{"type":"Polygon","coordinates":[[[6.854816082189817,46.25758826135665],[6.855403,46.255114],[6.852233,46.252144],[6.843011,46.248797],[6.839917,46.248339],[6.837322,46.2413],[6.834136,46.237603],[6.829692,46.233944],[6.827017,46.234417],[6.821203,46.232594],[6.8218,46.223411],[6.816822,46.220083],[6.813133,46.21515],[6.809994,46.214253],[6.808908,46.211744],[6.803525,46.203528],[6.812661,46.181775],[6.807272,46.178711],[6.805436,46.172711],[6.791736,46.163097],[6.792889,46.159711],[6.790469,46.155172],[6.7944,46.148008],[6.797714,46.136889],[6.798339950753542,46.136518872597904],[6.798097,46.136108],[6.798097,45.954483],[6.753014,45.932019],[6.513842,45.716769],[6.3908,45.797353],[6.274222,45.873367],[6.479458,46.076664],[6.854816082189817,46.25758826135665]]]}},{"type":"Feature","properties":{"name":"FRANCE 3 ALPES 7.20","nameV":"LTA FRANCE 3 ALPES 7.20 Lower(3000FT AGL-FL115)","class":"E","type":"LTA","lower":"FL115","lowerMin":"3000FT AGL","lowerM":3505,"upper":"FL135","upperM":4114,"desc":"Unless otherwise specified, except for: - TMA and AWY - P,R,D areas - CTA - TRA - CBA when active.","activationCode":"HX","UId":"7215422","id":"LTA130737.","stroke":"#008040","stroke-width":2,"stroke-opacity":0.8,"fill":"#80ff80","fill-opacity":0.1},"geometry":{"type":"Polygon","coordinates":[[[6.854816082189817,46.25758826135665],[6.855403,46.255114],[6.852233,46.252144],[6.843011,46.248797],[6.839917,46.248339],[6.837322,46.2413],[6.834136,46.237603],[6.829692,46.233944],[6.827017,46.234417],[6.821203,46.232594],[6.8218,46.223411],[6.816822,46.220083],[6.813133,46.21515],[6.809994,46.214253],[6.808908,46.211744],[6.803525,46.203528],[6.812661,46.181775],[6.807272,46.178711],[6.805436,46.172711],[6.791736,46.163097],[6.792889,46.159711],[6.790469,46.155172],[6.7944,46.148008],[6.797714,46.136889],[6.798339950753542,46.136518872597904],[6.798097,46.136108],[6.798097,45.954483],[6.753014,45.932019],[6.513842,45.716769],[6.3908,45.797353],[6.274222,45.873367],[6.479458,46.076664],[6.854816082189817,46.25758826135665]]]}},{"type":"Feature","properties":{"name":"FRANCE 5 PYRENEES 1","nameV":"LTA FRANCE 5 PYRENEES 1 Lower(3000FT AGL-FL115)","class":"E","type":"LTA","lower":"FL115","lowerMin":"3000FT AGL","lowerM":3505,"upper":"FL195","upperM":5943,"desc":"Unless otherwise specified, except for: - TMA and AWY - P,R,D areas - CTA - TRA - CBA when active. Frequencies: see GEN 3.4","activationCode":"HX","UId":"1565957","id":"LTA130751","stroke":"#008040","stroke-width":2,"stroke-opacity":0.8,"fill":"#80ff80","fill-opacity":0.1},"geometry":{"type":"Polygon","coordinates":[[[-1.339722,43.061389],[-1.378056,43.2925],[-1.385,43.368056],[-1.133333,43.334444],[-0.9,43.302778],[-0.716667,43.288889],[-0.160278,43.1625],[-0.051944,43.083333],[0.055556,43.065278],[0.140556,43.051389],[0.75,43.0],[0.866389,42.998611],[0.8838685514988293,42.814114913408915],[0.846944,42.828611],[0.827222,42.833333],[0.793056,42.841111],[0.771944,42.842778],[0.741111,42.853611],[0.736389,42.855556],[0.703056,42.8675],[0.688611,42.864444],[0.678056,42.849722],[0.676944,42.848333],[0.666667,42.843056],[0.667778,42.8175],[0.665833,42.808611],[0.647222,42.791389],[0.646944,42.786389],[0.6625,42.778889],[0.658611,42.768611],[0.655833,42.765833],[0.655,42.759722],[0.663333,42.748056],[0.664444,42.741667],[0.665556,42.735556],[0.672778,42.724444],[0.6725,42.705556],[0.679167,42.694722],[0.678333,42.687222],[0.675833,42.687222],[0.672222,42.687222],[0.647778,42.694444],[0.645833,42.694722],[0.607778,42.701111],[0.5875,42.699722],[0.580278,42.699444],[0.523889,42.701667],[0.511944,42.698333],[0.501667,42.6975],[0.478889,42.699167],[0.44,42.696389],[0.418333,42.696944],[0.414722,42.697222],[0.404722,42.700278],[0.383056,42.717778],[0.369722,42.723056],[0.360833,42.724167],[0.353889,42.721389],[0.330556,42.696667],[0.313611,42.684167],[0.304167,42.679722],[0.288611,42.676667],[0.282222,42.679444],[0.272778,42.692222],[0.270278,42.701111],[0.259722,42.711667],[0.249444,42.717222],[0.243056,42.718056],[0.227222,42.72],[0.201389,42.733889],[0.191389,42.737222],[0.181944,42.737222],[0.1675,42.731111],[0.133889,42.708056],[0.131111,42.7075],[0.125,42.706389],[0.108056,42.706111],[0.085556,42.711111],[0.0725,42.7125],[0.044722,42.703333],[0.039444,42.704444],[0.031667,42.706111],[0.026111,42.705833],[0.007778,42.696944],[-0.0,42.695833],[-0.002778,42.695556],[-0.013889,42.693889],[-0.030556,42.696944],[-0.053611,42.700556],[-0.066667,42.7],[-0.0775,42.728333],[-0.095278,42.730278],[-0.098333,42.730556],[-0.103611,42.731944],[-0.107222,42.735556],[-0.113611,42.756944],[-0.133056,42.779722],[-0.135278,42.782222],[-0.14,42.796944],[-0.141944,42.802778],[-0.146111,42.808889],[-0.148889,42.808889],[-0.158611,42.801111],[-0.17,42.795833],[-0.183056,42.794167],[-0.189167,42.795278],[-0.210278,42.804167],[-0.216944,42.809444],[-0.217778,42.810556],[-0.234167,42.829722],[-0.246111,42.828889],[-0.247222,42.828889],[-0.263056,42.831944],[-0.290278,42.846667],[-0.305278,42.844444],[-0.3075,42.843889],[-0.343333,42.834722],[-0.350278,42.834722],[-0.356389,42.832778],[-0.387222,42.814444],[-0.3975,42.811389],[-0.404167,42.809444],[-0.416111,42.809167],[-0.422222,42.807778],[-0.436667,42.805],[-0.451111,42.805556],[-0.456111,42.808056],[-0.466111,42.821944],[-0.483889,42.821944],[-0.496667,42.829444],[-0.503333,42.83],[-0.511111,42.828333],[-0.521944,42.816944],[-0.529444,42.8025],[-0.530556,42.8],[-0.5325,42.798611],[-0.536111,42.795833],[-0.543889,42.793889],[-0.545,42.793889],[-0.561111,42.791111],[-0.569167,42.794167],[-0.573889,42.799167],[-0.577778,42.808611],[-0.580278,42.814722],[-0.599444,42.815833],[-0.603889,42.818333],[-0.608333,42.828333],[-0.615278,42.836667],[-0.620833,42.838611],[-0.656389,42.870278],[-0.671944,42.883889],[-0.686944,42.890278],[-0.703056,42.890278],[-0.715556,42.894444],[-0.732222,42.9175],[-0.7325,42.919167],[-0.736111,42.935833],[-0.746111,42.955833],[-0.751944,42.961944],[-0.756944,42.967222],[-0.767222,42.972222],[-0.775,42.9725],[-0.781667,42.971389],[-0.801667,42.963333],[-0.815278,42.960833],[-0.855556,42.959167],[-0.874444,42.959722],[-0.898333,42.9625],[-0.900278,42.961944],[-0.913056,42.959444],[-0.916111,42.958611],[-0.931944,42.9575],[-0.969167,42.969167],[-0.979167,42.977778],[-1.01,42.994444],[-1.051944,42.995],[-1.066667,43.0],[-1.075556,43.003333],[-1.087778,43.011667],[-1.108056,43.025278],[-1.118611,43.025556],[-1.124167,43.0175],[-1.133056,43.010278],[-1.139722,43.013333],[-1.148611,43.029167],[-1.156944,43.033611],[-1.172778,43.035278],[-1.185278,43.038889],[-1.195,43.041389],[-1.2,43.043056],[-1.203889,43.046111],[-1.21,43.055556],[-1.215833,43.058333],[-1.220556,43.058611],[-1.238333,43.053611],[-1.253889,43.055],[-1.270556,43.063333],[-1.297222,43.071944],[-1.305833,43.077778],[-1.300278,43.091389],[-1.291667,43.104444],[-1.293889,43.106389],[-1.293611,43.108333],[-1.293056,43.113611],[-1.285278,43.118889],[-1.284722,43.122778],[-1.29,43.124444],[-1.321389,43.114167],[-1.329167,43.109167],[-1.334722,43.094722],[-1.3397649402512706,43.06139549768522],[-1.339722,43.061389]]]}},{"type":"Feature","properties":{"name":"FRANCE 5 PYRENEES 2","nameV":"LTA FRANCE 5 PYRENEES 2 Lower(3000FT AGL-FL115)","class":"E","type":"LTA","lower":"FL115","lowerMin":"3000FT AGL","lowerM":3505,"upper":"FL195","upperM":5943,"desc":"Unless otherwise specified, except for: - TMA and AWY - P,R,D areas - CTA - TRA - CBA when active. Frequencies: see GEN 3.4","activationCode":"HX","UId":"1565959","id":"LTA130752","stroke":"#008040","stroke-width":2,"stroke-opacity":0.8,"fill":"#80ff80","fill-opacity":0.1},"geometry":{"type":"Polygon","coordinates":[[[1.109444,42.766667],[1.093056,43.001944],[1.823056,43.002222],[1.8857848325176338,42.45600789156773],[1.855833,42.47],[1.841111,42.481667],[1.823889,42.49],[1.764167,42.489722],[1.761111,42.490556],[1.731667,42.497778],[1.723611,42.503889],[1.723611,42.503889],[1.701667,42.4925],[1.692778,42.493611],[1.674722,42.503056],[1.670833,42.503333],[1.668333,42.501111],[1.663333,42.488333],[1.664444,42.485],[1.646389,42.47],[1.628611,42.468333],[1.603611,42.460278],[1.589444,42.453333],[1.571944,42.454722],[1.548333,42.440278],[1.5175,42.435556],[1.515278,42.435],[1.475833,42.438611],[1.473611,42.438889],[1.471944,42.439167],[1.470833,42.439444],[1.464722,42.441111],[1.4525,42.448333],[1.448333,42.467778],[1.431111,42.482778],[1.430278,42.485278],[1.432222,42.490833],[1.46,42.508056],[1.462778,42.511389],[1.464444,42.516944],[1.463611,42.521389],[1.448056,42.540833],[1.441667,42.542222],[1.428889,42.540278],[1.423889,42.542222],[1.422222,42.555],[1.429444,42.565],[1.432778,42.576389],[1.426944,42.588333],[1.426667,42.592222],[1.435556,42.597222],[1.44,42.606389],[1.44,42.606389],[1.415278,42.653056],[1.386389,42.690278],[1.365,42.701944],[1.359444,42.706389],[1.359722,42.713333],[1.355833,42.717222],[1.348056,42.720833],[1.335278,42.721111],[1.286111,42.721389],[1.254167,42.718889],[1.235,42.724167],[1.226389,42.724444],[1.205556,42.720278],[1.195833,42.717222],[1.178056,42.711389],[1.171944,42.710833],[1.160278,42.712778],[1.141111,42.725],[1.1325,42.7375],[1.127222,42.751667],[1.121389,42.756389],[1.120556,42.756944],[1.1093642276287206,42.76657429314178],[1.109444,42.766667]]]}},{"type":"Feature","properties":{"name":"FRANCE 5 PYRENEES 3","nameV":"LTA FRANCE 5 PYRENEES 3 Lower(3000FT AGL-FL115)","class":"E","type":"LTA","lower":"FL115","lowerMin":"3000FT AGL","lowerM":3505,"upper":"FL195","upperM":5943,"desc":"Unless otherwise specified, except for: - TMA and AWY - P,R,D areas - CTA - TRA - CBA when active. Frequencies: see GEN 3.4","activationCode":"HX","UId":"1565961","id":"LTA130753","stroke":"#008040","stroke-width":2,"stroke-opacity":0.8,"fill":"#80ff80","fill-opacity":0.1},"geometry":{"type":"Polygon","coordinates":[[[2.117778,42.393889],[2.069167,42.835],[2.049722,43.001389],[2.275,43.0],[2.495278,42.805556],[2.735556,42.591111],[2.716368356066064,42.41700968493724],[2.715278,42.416667],[2.703333,42.416944],[2.685556,42.408056],[2.666389,42.393889],[2.658333,42.389722],[2.654167,42.384722],[2.659444,42.371667],[2.674722,42.359444],[2.678889,42.354167],[2.68,42.35],[2.678056,42.347222],[2.671389,42.344167],[2.659167,42.342778],[2.647222,42.343889],[2.638333,42.345],[2.604167,42.353611],[2.575556,42.357222],[2.5625,42.357222],[2.535833,42.344444],[2.521944,42.343056],[2.510833,42.345],[2.4975,42.345278],[2.4875,42.349722],[2.455833,42.363611],[2.449167,42.366389],[2.446667,42.37],[2.440556,42.373611],[2.417222,42.394167],[2.348611,42.412222],[2.346111,42.413333],[2.333889,42.418056],[2.31,42.430278],[2.259722,42.435],[2.239722,42.4325],[2.228333,42.428889],[2.219167,42.4225],[2.205278,42.418889],[2.196667,42.418611],[2.189444,42.420833],[2.176111,42.424722],[2.150556,42.426111],[2.1325,42.411667],[2.117760087147316,42.39390386414841],[2.117778,42.393889]]]}},{"type":"Feature","properties":{"name":"FRANCE  6","nameV":"LTA FRANCE  6 Lower(3000FT AGL-FL115)","class":"D","type":"LTA","lower":"FL115","lowerMin":"3000FT AGL","lowerM":3505,"upper":"FL195","upperM":5943,"activationCode":"H24","UId":"52920937","id":"LTA130754","stroke":"#800080","stroke-width":2,"stroke-opacity":0.8,"fill":"#ff96dc","fill-opacity":0},"geometry":{"type":"Polygon","coordinates":[[[6.79830825794162,46.136537612695385],[6.799669,46.135733],[6.807839,46.136364],[6.815233,46.129289],[6.819092,46.131136],[6.838467,46.132922],[6.841817,46.131997],[6.843014,46.128961],[6.852953,46.126314],[6.877936,46.125156],[6.881542,46.122961],[6.890833,46.1253],[6.895194,46.123864],[6.899942,46.123967],[6.892947,46.113086],[6.895542,46.108428],[6.888081,46.100675],[6.886706,46.097186],[6.882656,46.094917],[6.8916,46.084967],[6.8909,46.081319],[6.888275,46.078789],[6.89135,46.073928],[6.887747,46.073442],[6.879969,46.069356],[6.872808,46.055853],[6.872486,46.051975],[6.875819,46.049481],[6.875503,46.047725],[6.890631,46.042447],[6.891358,46.045933],[6.894617,46.048342],[6.909411,46.050786],[6.910397,46.054408],[6.913631,46.055411],[6.924572,46.065078],[6.927633,46.064006],[6.932997,46.0667],[6.937308,46.064578],[6.936142,46.059131],[6.9347,46.058503],[6.935778,46.055056],[6.936939,46.055347],[6.943661,46.050728],[6.950153,46.051583],[6.954072,46.042369],[6.959875708572812,46.034353999849294],[6.96,46.034444],[6.798056,45.954444],[6.79830825794162,46.136537612695385]]]}},{"type":"Feature","properties":{"name":"FRANCE 3 ALPES 1","nameV":"LTA FRANCE 3 ALPES 1 Lower(3000FT AGL-FL115)","class":"E","type":"LTA","lower":"FL115","lowerMin":"3000FT AGL","lowerM":3505,"upper":"FL195","upperM":5943,"desc":"Unless otherwise specified, except for: - TMA and AWY - P,R,D areas - CTA - TRA - CBA when active. Frequencies: see GEN 3.4","activationCode":"HX","UId":"1566263","id":"LTA130731","stroke":"#008040","stroke-width":2,"stroke-opacity":0.8,"fill":"#80ff80","fill-opacity":0.1},"geometry":{"type":"Polygon","coordinates":[[[6.399172,45.465811],[6.746944,45.457222],[6.835556,45.503611],[7.110935428032703,45.32052362236073],[7.110114,45.317925],[7.118086,45.310597],[7.118236,45.306033],[7.120342,45.302378],[7.123394,45.294111],[7.129111,45.288958],[7.136436,45.280797],[7.133772,45.275433],[7.128786,45.271519],[7.131925,45.268858],[7.133236,45.265142],[7.132161,45.261664],[7.136436,45.259292],[7.137275,45.255347],[7.130508,45.249653],[7.128122,45.246614],[7.124039,45.244089],[7.116539,45.245783],[7.1102,45.245797],[7.106869,45.240611],[7.10515,45.236572],[7.0975,45.233378],[7.094492,45.230278],[7.090172,45.227947],[7.087939,45.225919],[7.083597,45.225633],[7.081428,45.223756],[7.083447,45.220033],[7.082072,45.217433],[7.079472,45.21545],[7.078978,45.212531],[7.072231,45.210836],[7.070447,45.210139],[7.067633,45.210153],[7.057728,45.220111],[7.049389,45.225678],[7.041117,45.224497],[7.030039,45.217517],[7.025236,45.215464],[7.023044,45.218536],[7.018683,45.214889],[7.011614,45.21645],[7.005383,45.217719],[7.003297,45.219778],[6.996658,45.215117],[6.994272,45.214708],[6.992853,45.210019],[6.987008,45.211033],[6.982797,45.210261],[6.972764,45.207886],[6.965114,45.207372],[6.961139,45.202378],[6.963997,45.200153],[6.967025,45.195675],[6.953294,45.190706],[6.952392,45.186375],[6.954542,45.180558],[6.949447,45.178956],[6.943303,45.175517],[6.946364,45.170464],[6.929358,45.170747],[6.925617,45.169808],[6.922783,45.167614],[6.913564,45.168217],[6.909867,45.165583],[6.902775,45.167614],[6.893086,45.168114],[6.891281,45.164858],[6.891108,45.161678],[6.884403,45.157181],[6.890742,45.147792],[6.891389,45.14555],[6.898114,45.142008],[6.893428,45.137056],[6.877378,45.135058],[6.872692,45.135467],[6.865603,45.131317],[6.857103,45.129428],[6.847853,45.127261],[6.845447,45.131939],[6.846586,45.135617],[6.835153,45.135875],[6.827397,45.141764],[6.822733,45.143689],[6.820519,45.144886],[6.818028,45.144764],[6.811303,45.148458],[6.798647,45.151275],[6.794628,45.153167],[6.786267,45.153986],[6.778061,45.1583],[6.769164,45.159678],[6.756981,45.150867],[6.753672,45.148383],[6.7509,45.143356],[6.740347,45.136844],[6.732117,45.138722],[6.724792,45.139147],[6.710867,45.144689],[6.690228,45.139278],[6.679753,45.139617],[6.673972,45.129517],[6.672081,45.124411],[6.664539,45.122425],[6.661875,45.1205],[6.657814,45.121031],[6.653172,45.116739],[6.649992,45.115253],[6.634111,45.115467],[6.631897,45.110236],[6.629106,45.107536],[6.626828,45.102656],[6.631833,45.097833],[6.632542,45.095408],[6.639764,45.091042],[6.641267,45.087494],[6.647047,45.084008],[6.645931,45.075275],[6.654139,45.071408],[6.662089,45.071389],[6.6631,45.055725],[6.658911,45.05205],[6.666717,45.047578],[6.67,45.042311],[6.665042,45.039272],[6.664872,45.036325],[6.665,45.033078],[6.668825,45.028886],[6.671017,45.027886],[6.672564,45.021172],[6.675272,45.019472],[6.684597,45.022206],[6.690958,45.020808],[6.709222,45.021414],[6.719022,45.021111],[6.72375,45.021842],[6.743517,45.015675],[6.745539,45.012911],[6.745667,45.010175],[6.750008,45.002156],[6.751167,44.995867],[6.7372,44.993317],[6.737844,44.990125],[6.749364,44.984658],[6.750394,44.977183],[6.755722,44.975239],[6.763589,44.970561],[6.764792,44.95935],[6.756197,44.945892],[6.753489,44.9451],[6.751511,44.941578],[6.743603,44.936231],[6.746053,44.935561],[6.754133,44.937597],[6.758344,44.936447],[6.7609,44.931211],[6.754153,44.93135],[6.752522,44.926481],[6.748975,44.922586],[6.750739,44.920017],[6.751811,44.918464],[6.750414,44.906525],[6.753208,44.905078],[6.764339,44.902403],[6.772461,44.902933],[6.778758,44.897261],[6.780414,44.893731],[6.783658,44.893183],[6.785742,44.888758],[6.800417,44.890811],[6.800333,44.884042],[6.804672,44.877958],[6.808864,44.875508],[6.827836,44.868008],[6.831061,44.866853],[6.835208,44.863111],[6.842061,44.859581],[6.855406,44.857056],[6.864194,44.850394],[6.8718,44.850044],[6.878225,44.850653],[6.88695,44.847231],[6.899219,44.848219],[6.904722,44.847153],[6.907386,44.8444],[6.913939,44.845633],[6.917314,44.848478],[6.922664,44.852022],[6.926811,44.857375],[6.927519,44.859808],[6.932011,44.862883],[6.955819,44.854439],[6.964908,44.849375],[6.969742,44.847611],[6.972172,44.846256],[6.982528,44.846347],[6.996883,44.841936],[7.002256,44.841769],[7.005822,44.839883],[7.010333,44.825828],[7.02125,44.823956],[7.023786,44.822233],[7.020283,44.821167],[7.019294,44.812756],[7.014139,44.808139],[7.009453,44.79985],[7.008444,44.797958],[6.999439,44.789608],[7.008228,44.784503],[7.012269,44.78295],[7.019897,44.774203],[7.021531,44.771244],[7.024258,44.768839],[7.022025,44.765469],[7.024925,44.761172],[7.024217,44.755428],[7.021939,44.753994],[7.022433,44.749819],[7.026019,44.743542],[7.023764,44.739778],[7.030447,44.732553],[7.030747,44.729247],[7.043297,44.718275],[7.057028,44.714603],[7.065989,44.713386],[7.066033,44.707472],[7.068997,44.70185],[7.070953,44.699686],[7.075358,44.689033],[7.076497,44.680789],[7.069856,44.679767],[7.058167,44.680606],[7.05215,44.682678],[7.046672,44.683761],[7.033692,44.690342],[7.027483,44.691242],[7.020497,44.690297],[7.016953,44.689064],[7.006275,44.688181],[7.00245,44.687175],[6.998131,44.69045],[6.987214,44.689033],[6.978467,44.683578],[6.970325,44.677039],[6.962503,44.677589],[6.957903,44.671858],[6.958397,44.666311],[6.958719,44.662442],[6.950147,44.657292],[6.947997,44.652614],[6.953047,44.644842],[6.954036,44.63675],[6.963814,44.625869],[6.968283,44.624697],[6.967572,44.619256],[6.963103,44.619272],[6.957689,44.621175],[6.948964,44.618708],[6.950447,44.610894],[6.945161,44.605814],[6.937533,44.602875],[6.937425,44.598439],[6.933386,44.595925],[6.933622,44.585044],[6.931817,44.582608],[6.933064,44.573983],[6.929711,44.572092],[6.918453,44.569578],[6.9125,44.568528],[6.915464,44.562475],[6.91555,44.559094],[6.904569,44.556228],[6.901025,44.554003],[6.8972,44.555406],[6.891569,44.554247],[6.889186,44.552297],[6.882028,44.552419],[6.878636,44.554369],[6.876056,44.550225],[6.876636,44.546278],[6.87335,44.546094],[6.8689,44.536708],[6.857492,44.533522],[6.853514,44.528022],[6.857769,44.520967],[6.856825,44.514672],[6.859189,44.509278],[6.858886,44.506339],[6.862928,44.499525],[6.865117,44.496875],[6.868233,44.492836],[6.877108,44.487883],[6.876592,44.481422],[6.884822,44.475769],[6.892944,44.471944],[6.902958,44.469353],[6.906353,44.466747],[6.909297,44.458581],[6.911533,44.452667],[6.914047,44.44965],[6.922858,44.445503],[6.937103,44.438875],[6.939403,44.434225],[6.948083,44.429717],[6.945786,44.427339],[6.933472,44.429853],[6.932375,44.424639],[6.923803,44.422936],[6.917142,44.4272],[6.902958,44.421003],[6.898425,44.421692],[6.895503,44.420772],[6.892686,44.420036],[6.895094,44.408914],[6.897631,44.405217],[6.894514,44.400522],[6.895417,44.396808],[6.896447,44.394003],[6.895308,44.387789],[6.895825,44.377111],[6.896383,44.373628],[6.893783,44.369181],[6.887703,44.366497],[6.887744,44.360989],[6.901239,44.357828],[6.906397,44.357872],[6.913058,44.353256],[6.919719,44.352119],[6.922364,44.350294],[6.921483,44.345661],[6.922169,44.341858],[6.924103,44.339956],[6.927714,44.332208],[6.937039,44.328172],[6.939253,44.324536],[6.943272,44.323417],[6.947225,44.320258],[6.953133,44.318522],[6.954894,44.314642],[6.960567,44.310808],[6.959514,44.306894],[6.957989,44.30375],[6.957733,44.300236],[6.956336,44.296617],[6.960375,44.294053],[6.963856,44.294008],[6.967981,44.295114],[6.971333,44.292964],[6.969464,44.285953],[6.972708,44.283953],[6.980575,44.286783],[6.995219,44.280172],[6.995528,44.275722],[6.997142,44.272361],[6.995808,44.267789],[6.996367,44.264278],[6.998,44.257542],[6.997314,44.251375],[7.00075,44.246022],[7.001933,44.243353],[7.004403,44.241236],[7.008208,44.236142],[7.014225,44.233994],[7.01805,44.232214],[7.0234,44.234117],[7.025111140847518,44.232328323082825],[7.025,44.232222],[7.024339,44.232203],[7.019015,44.231261],[7.013701,44.230293],[7.008395,44.229299],[7.0031,44.22828],[6.997814,44.227234],[6.992538,44.226163],[6.987273,44.225066],[6.982018,44.223944],[6.976775,44.222796],[6.971542,44.221622],[6.966321,44.220423],[6.961111,44.219198],[6.955913,44.217949],[6.950728,44.216673],[6.945554,44.215373],[6.940393,44.214047],[6.935245,44.212697],[6.93011,44.211321],[6.924989,44.20992],[6.91988,44.208495],[6.914786,44.207044],[6.909706,44.205569],[6.90464,44.204069],[6.899588,44.202544],[6.894551,44.200995],[6.889529,44.199421],[6.884522,44.197823],[6.87953,44.1962],[6.874555,44.194553],[6.869595,44.192882],[6.864651,44.191187],[6.859723,44.189468],[6.854812,44.187725],[6.849918,44.185958],[6.845041,44.184167],[6.840181,44.182352],[6.835338,44.180514],[6.830514,44.178652],[6.825707,44.176767],[6.820918,44.174858],[6.816147,44.172926],[6.811395,44.170971],[6.806662,44.168992],[6.801948,44.166991],[6.797253,44.164967],[6.792578,44.16292],[6.787922,44.16085],[6.783286,44.158758],[6.77867,44.156643],[6.774075,44.154505],[6.7695,44.152346],[6.764945,44.150164],[6.760412,44.147959],[6.7559,44.145733],[6.751409,44.143485],[6.746939,44.141215],[6.742492,44.138924],[6.738066,44.13661],[6.733663,44.134275],[6.729282,44.131919],[6.724923,44.129542],[6.720587,44.127143],[6.716274,44.124723],[6.711985,44.122283],[6.707718,44.119821],[6.703476,44.117339],[6.699256,44.114836],[6.695061,44.112312],[6.69089,44.109769],[6.686744,44.107205],[6.682622,44.10462],[6.678524,44.102016],[6.674452,44.099392],[6.670404,44.096748],[6.666382,44.094085],[6.662385,44.091401],[6.658414,44.088699],[6.654468,44.085977],[6.650549,44.083236],[6.646656,44.080476],[6.647778,44.081111],[6.647778,44.081111],[6.651944,44.064722],[6.1375,44.236944],[5.732778,44.428333],[5.7025,44.613056],[5.763333,44.667778],[5.790556,44.653611],[5.890556,45.020556],[6.0,45.255278],[6.460556,45.3075],[6.441497,45.389978],[6.399172,45.465811]]]}},{"type":"Feature","properties":{"name":"FRANCE 3 ALPES 3","nameV":"LTA FRANCE 3 ALPES 3","class":"D","type":"LTA","lower":"FL145","lowerM":4419,"upper":"FL195","upperM":5943,"desc":"Unless otherwise specified, except for: - TMA and AWY - P,R,D areas - CTA - TRA - CBA when active.","activationCode":"HX","UId":"1565973","id":"LTA130733","stroke":"#800080","stroke-width":2,"stroke-opacity":0.8,"fill":"#ff96dc","fill-opacity":0},"geometry":{"type":"Polygon","coordinates":[[[5.908611,45.449167],[5.979167,45.455556],[6.1675,45.472778],[6.146944,45.585556],[6.255278,45.708333],[6.363333,45.672222],[6.339722,45.572222],[6.399172,45.465811],[6.441497,45.389978],[6.460556,45.3075],[6.0,45.255278],[5.890556,45.020556],[5.790556,44.653611],[5.688056,44.706944],[5.631667,45.046944],[5.773611,45.106667],[5.937222,45.330556],[5.9175,45.412778],[5.908611,45.449167]]]}},{"type":"Feature","properties":{"name":"FRANCE 3 ALPES 3.20","nameV":"LTA FRANCE 3 ALPES 3.20 Lower(3000FT AGL-FL115)","class":"E","type":"LTA","lower":"FL115","lowerMin":"3000FT AGL","lowerM":3505,"upper":"FL145","upperM":4419,"desc":"Unless otherwise specified, except for: -TMA and AWY -P,R,D areas -CTA -TRA -CBA when active.","activationCode":"HX","UId":"7997021","id":"LTA130733.","stroke":"#008040","stroke-width":2,"stroke-opacity":0.8,"fill":"#80ff80","fill-opacity":0.1},"geometry":{"type":"Polygon","coordinates":[[[5.908611,45.449167],[5.979167,45.455556],[6.1675,45.472778],[6.146944,45.585556],[6.255278,45.708333],[6.363333,45.672222],[6.339722,45.572222],[6.399172,45.465811],[6.441497,45.389978],[6.460556,45.3075],[6.0,45.255278],[5.890556,45.020556],[5.790556,44.653611],[5.688056,44.706944],[5.631667,45.046944],[5.773611,45.106667],[5.937222,45.330556],[5.9175,45.412778],[5.908611,45.449167]]]}},{"type":"Feature","properties":{"name":"FRANCE 3 ALPES 4.20","nameV":"LTA FRANCE 3 ALPES 4.20 Lower(3000FT AGL-FL115)","class":"E","type":"LTA","lower":"FL115","lowerMin":"3000FT AGL","lowerM":3505,"upper":"FL125","upperM":3810,"desc":"Unless otherwise specified, except for: - TMA and AWY - P,R,D areas - CTA - TRA - CBA when active.","activationCode":"HX","UId":"7997017","id":"LTA130734.","stroke":"#008040","stroke-width":2,"stroke-opacity":0.8,"fill":"#80ff80","fill-opacity":0.1},"geometry":{"type":"Polygon","coordinates":[[[6.183611,45.932222],[6.204178,45.918881],[6.274222,45.873367],[6.3908,45.797353],[6.363333,45.672222],[6.255278,45.708333],[6.146944,45.585556],[6.1675,45.472778],[5.979167,45.455556],[5.982778,45.605556],[5.955,45.635278],[6.087778,45.620556],[6.096556,45.806408],[6.101389,45.843889],[6.129047,45.873597],[6.183611,45.932222]]]}},{"type":"Feature","properties":{"name":"FRANCE 3 ALPES 4","nameV":"LTA FRANCE 3 ALPES 4","class":"D","type":"LTA","lower":"FL125","lowerM":3810,"upper":"FL195","upperM":5943,"desc":"Unless otherwise specified, except for: - TMA and AWY - P,R,D areas - CTA - TRA - CBA when active.","activationCode":"HX","UId":"1565977","id":"LTA130734","stroke":"#800080","stroke-width":2,"stroke-opacity":0.8,"fill":"#ff96dc","fill-opacity":0},"geometry":{"type":"Polygon","coordinates":[[[6.183611,45.932222],[6.204178,45.918881],[6.274222,45.873367],[6.3908,45.797353],[6.363333,45.672222],[6.255278,45.708333],[6.146944,45.585556],[6.1675,45.472778],[5.979167,45.455556],[5.982778,45.605556],[5.955,45.635278],[6.087778,45.620556],[6.096556,45.806408],[6.101389,45.843889],[6.129047,45.873597],[6.183611,45.932222]]]}},{"type":"Feature","properties":{"name":"FRANCE 3 ALPES 2","nameV":"LTA FRANCE 3 ALPES 2","class":"D","type":"LTA","lower":"FL125","lowerM":3810,"upper":"FL195","upperM":5943,"desc":"Unless otherwise specified, except for: - TMA and AWY - P,R,D areas - CTA - TRA - CBA when active. Frequencies: see GEN 3.4","activationCode":"HX","UId":"1566257","id":"LTA130732","stroke":"#800080","stroke-width":2,"stroke-opacity":0.8,"fill":"#ff96dc","fill-opacity":0},"geometry":{"type":"Polygon","coordinates":[[[5.328333,45.0],[5.521111,45.0],[5.631667,45.046944],[5.688056,44.706944],[5.763333,44.667778],[5.7025,44.613056],[5.732778,44.428333],[5.672778,44.456389],[5.023333,44.591944],[5.023333,44.666667],[5.328333,45.0]]]}},{"type":"Feature","properties":{"name":"FRANCE 3 ALPES 2.20","nameV":"LTA FRANCE 3 ALPES 2.20 Lower(3000FT AGL-FL115)","class":"E","type":"LTA","lower":"FL115","lowerMin":"3000FT AGL","lowerM":3505,"upper":"FL125","upperM":3810,"desc":"Unless otherwise specified, except for: - TMA and AWY - P,R,D areas - CTA - TRA - CBA when active. Frequencies: see GEN 3.4","activationCode":"HX","UId":"7997025","id":"LTA130732.","stroke":"#008040","stroke-width":2,"stroke-opacity":0.8,"fill":"#80ff80","fill-opacity":0.1},"geometry":{"type":"Polygon","coordinates":[[[5.328333,45.0],[5.521111,45.0],[5.631667,45.046944],[5.688056,44.706944],[5.763333,44.667778],[5.7025,44.613056],[5.732778,44.428333],[5.672778,44.456389],[5.023333,44.591944],[5.023333,44.666667],[5.328333,45.0]]]}},{"type":"Feature","properties":{"name":"FRANCE 4","nameV":"LTA FRANCE 4 Lower(3000FT AGL-FL115)","class":"E","type":"LTA","lower":"FL115","lowerMin":"3000FT AGL","lowerM":3505,"upper":"FL135","upperM":4114,"desc":"Unless otherwise specified, except for: - TMA and AWY - P,R,D areas - CTA - TRA - CBA when active. Frequencies: see GEN 3.4","activationCode":"HX","UId":"1565985","id":"LTA130741","stroke":"#008040","stroke-width":2,"stroke-opacity":0.8,"fill":"#80ff80","fill-opacity":0.1},"geometry":{"type":"Polygon","coordinates":[[[6.222222,44.208889],[6.222222,43.761111],[6.671944,43.727778],[6.713333,43.690556],[6.631111,43.936111],[6.651944,44.064722],[6.222222,44.208889]]]}},{"type":"Feature","properties":{"name":"FRANCE 1","nameV":"LTA FRANCE 1","class":"D","type":"LTA","lower":"FL115","lowerM":3505,"upper":"FL195","upperM":5943,"desc":"Unless otherwise specified, except for: - TMA and AWY - P, R, D areas - CTA - TRA - CBA when active. Frequencies: see GEN 3.4","activationCode":"HX","UId":"1566267","id":"LTA13071","stroke":"#800080","stroke-width":2,"stroke-opacity":0.8,"fill":"#ff96dc","fill-opacity":0},"geometry":{"type":"Polygon","coordinates":[[[2.0,51.116667],[2.545428,51.089056],[2.562944,51.06465],[2.5621,51.058447],[2.575228,51.013853],[2.571972,51.0124],[2.571714,51.009275],[2.575228,51.005772],[2.573972,51.003311],[2.579542,50.999122],[2.596617,50.991903],[2.607122,50.990897],[2.609128,50.984856],[2.607414,50.981861],[2.612342,50.974819],[2.610842,50.973686],[2.619381,50.967408],[2.629014,50.950453],[2.632756,50.946303],[2.630183,50.943294],[2.617889,50.941442],[2.619222,50.936914],[2.614014,50.932672],[2.602561,50.927442],[2.59565,50.921175],[2.590142,50.918425],[2.594086,50.914514],[2.603172,50.916725],[2.606686,50.913111],[2.607628,50.910386],[2.604003,50.904681],[2.606428,50.901561],[2.606086,50.899564],[2.609333,50.898194],[2.6086,50.894072],[2.604367,50.886183],[2.607075,50.886122],[2.606525,50.882444],[2.610292,50.880108],[2.606144,50.874031],[2.6122,50.867358],[2.612167,50.863519],[2.599061,50.853069],[2.5997,50.848919],[2.604372,50.848083],[2.6114,50.850078],[2.616675,50.848022],[2.616242,50.843172],[2.616522,50.839506],[2.625433,50.836703],[2.630425,50.819961],[2.63515,50.812953],[2.655775,50.813467],[2.667575,50.819564],[2.669225,50.822722],[2.67505,50.819367],[2.678922,50.813444],[2.710808,50.813536],[2.713106,50.815408],[2.725872,50.809056],[2.72095,50.802272],[2.725975,50.792333],[2.729411,50.792108],[2.728767,50.789933],[2.737161,50.782819],[2.738403,50.780353],[2.741017,50.781628],[2.752869,50.777469],[2.754842,50.774583],[2.761956,50.771022],[2.756383,50.762711],[2.763114,50.762844],[2.763883,50.761308],[2.761483,50.759311],[2.766008,50.754558],[2.772767,50.755003],[2.778039,50.750553],[2.7829,50.751494],[2.783597,50.744225],[2.781594,50.743356],[2.787267,50.732517],[2.790283,50.731586],[2.790206,50.725739],[2.7949,50.725992],[2.794528,50.724919],[2.800356,50.723572],[2.81095,50.717467],[2.815567,50.717667],[2.819264,50.715594],[2.822861,50.717908],[2.829656,50.719744],[2.839514,50.720553],[2.848028,50.723033],[2.858372,50.711011],[2.8697,50.703322],[2.873114,50.704317],[2.879608,50.702881],[2.885242,50.706411],[2.889486,50.703464],[2.898719,50.693917],[2.906708,50.692558],[2.910825,50.694472],[2.908808,50.701656],[2.912317,50.704014],[2.923253,50.703253],[2.925522,50.707392],[2.929297,50.709747],[2.931197,50.719339],[2.928642,50.722642],[2.931614,50.728303],[2.944508,50.731806],[2.9416,50.737008],[2.937897,50.738992],[2.9379,50.744581],[2.946542,50.748278],[2.949981,50.751322],[2.955222,50.753681],[2.958117,50.752283],[2.961153,50.753103],[2.962917,50.750414],[2.971181,50.75],[2.978142,50.753294],[2.981108,50.756889],[2.993331,50.760167],[3.012869,50.769664],[3.015236,50.771578],[3.014306,50.773903],[3.018903,50.773692],[3.024347,50.770861],[3.033614,50.769825],[3.037169,50.771403],[3.039758,50.775453],[3.056247,50.780617],[3.062494,50.780067],[3.080861,50.772867],[3.089122,50.773583],[3.090664,50.776497],[3.092075,50.776125],[3.105361,50.782378],[3.108656,50.787142],[3.106864,50.787672],[3.110292,50.793517],[3.114503,50.794425],[3.124336,50.788014],[3.124906,50.786439],[3.150567,50.790125],[3.152964,50.785589],[3.151067,50.783411],[3.171622,50.761053],[3.17145,50.758561],[3.179892,50.754686],[3.185978,50.746283],[3.187136,50.741081],[3.199264,50.735361],[3.198214,50.731328],[3.191733,50.727744],[3.191425,50.724678],[3.198647,50.720403],[3.205853,50.720131],[3.209636,50.716525],[3.208792,50.713108],[3.204858,50.712069],[3.209036,50.711008],[3.211083,50.713275],[3.218522,50.712144],[3.220206,50.709947],[3.228278,50.712678],[3.235561,50.713097],[3.237975,50.711258],[3.245483,50.71305],[3.252919,50.704114],[3.261058,50.7013],[3.258497,50.696003],[3.261411,50.691964],[3.254864,50.691258],[3.252942,50.689658],[3.255,50.686639],[3.258608,50.685308],[3.258492,50.683],[3.260989,50.678989],[3.265278,50.676994],[3.252875,50.674206],[3.241183,50.668803],[3.242675,50.665906],[3.240108,50.658567],[3.246883,50.652244],[3.245089,50.651331],[3.248806,50.649675],[3.249411,50.647244],[3.244111,50.640669],[3.251961,50.635917],[3.252672,50.632853],[3.259103,50.629803],[3.257333,50.625897],[3.255181,50.622725],[3.258906,50.621564],[3.257811,50.620447],[3.263739,50.617892],[3.263114,50.616653],[3.270064,50.611789],[3.272072,50.604764],[3.274767,50.604772],[3.273786,50.600681],[3.276006,50.600453],[3.274319,50.597033],[3.279506,50.595953],[3.276222,50.589864],[3.276533,50.581258],[3.280861,50.578547],[3.281522,50.572828],[3.278478,50.572833],[3.277789,50.564406],[3.285161,50.561672],[3.275917,50.558525],[3.278806,50.555497],[3.28095,50.555931],[3.282344,50.552136],[3.277956,50.551831],[3.280464,50.543511],[3.278942,50.538492],[3.284564,50.535094],[3.286819,50.530794],[3.286506,50.527936],[3.292947,50.524344],[3.307783,50.519572],[3.320503,50.518436],[3.322219,50.515536],[3.328003,50.512203],[3.326536,50.510564],[3.329686,50.508078],[3.337542,50.508811],[3.349556,50.505531],[3.361733,50.503747],[3.369103,50.497242],[3.371589,50.493583],[3.377033,50.491414],[3.388956,50.495431],[3.391994,50.498597],[3.395989,50.496108],[3.397239,50.498419],[3.407192,50.498947],[3.416483,50.503025],[3.418597,50.502344],[3.428981,50.504744],[3.435436,50.509911],[3.438467,50.510064],[3.439131,50.507475],[3.449011,50.506617],[3.45185,50.510014],[3.450553,50.511683],[3.454239,50.515211],[3.454025,50.518897],[3.470925,50.530722],[3.469564,50.532028],[3.474156,50.533692],[3.491822,50.528053],[3.497783,50.529722],[3.504422,50.529089],[3.519594,50.523856],[3.515453,50.515361],[3.516553,50.513667],[3.509194,50.508481],[3.503736,50.506975],[3.496125,50.498864],[3.499411,50.494561],[3.497447,50.493203],[3.500653,50.486733],[3.516208,50.491978],[3.519833,50.494367],[3.531925,50.496],[3.539164,50.494325],[3.548008,50.497917],[3.56215,50.498108],[3.568439,50.500881],[3.573789,50.498742],[3.571714,50.497678],[3.579206,50.494461],[3.579556,50.491928],[3.585347,50.490536],[3.595575,50.491958],[3.608036,50.496956],[3.618981,50.486819],[3.632564,50.479978],[3.630092,50.479147],[3.6349,50.47165],[3.644675,50.462422],[3.64795,50.463889],[3.652922,50.463072],[3.662625,50.456139],[3.664167,50.452347],[3.660686,50.449972],[3.659692,50.446861],[3.661522,50.442689],[3.668864,50.438686],[3.668883,50.423094],[3.672272,50.422186],[3.672444,50.420136],[3.670064,50.419233],[3.673369,50.410761],[3.673708,50.404139],[3.674864,50.402394],[3.672808,50.398117],[3.673747,50.388661],[3.669272,50.386803],[3.669986,50.385297],[3.662669,50.375814],[3.658225,50.373561],[3.657103,50.369308],[3.658947,50.366861],[3.664542,50.365522],[3.667214,50.360892],[3.667192,50.3512],[3.664689,50.347667],[3.669336,50.346731],[3.669164,50.345261],[3.6774,50.3403],[3.672914,50.334819],[3.674547,50.332922],[3.677839,50.33295],[3.679481,50.329178],[3.685606,50.326483],[3.684878,50.324967],[3.688678,50.322764],[3.693872,50.321822],[3.692647,50.318794],[3.691614,50.318953],[3.692156,50.320114],[3.690575,50.320339],[3.689792,50.319006],[3.683997,50.320133],[3.69535,50.316081],[3.694322,50.313464],[3.702033,50.310956],[3.71025,50.303228],[3.720031,50.305017],[3.715436,50.306483],[3.717289,50.308961],[3.715294,50.312628],[3.710156,50.313936],[3.710806,50.317736],[3.709031,50.318933],[3.714069,50.319164],[3.720306,50.315886],[3.721228,50.311311],[3.728658,50.309456],[3.731853,50.311508],[3.727422,50.3153],[3.731386,50.3183],[3.730539,50.319431],[3.732475,50.321475],[3.729536,50.324369],[3.729958,50.330397],[3.734,50.329953],[3.734108,50.334197],[3.737106,50.336089],[3.734931,50.336025],[3.733772,50.339519],[3.7386,50.341258],[3.733725,50.342775],[3.739194,50.345172],[3.739361,50.347708],[3.741822,50.347386],[3.742236,50.348922],[3.746847,50.348283],[3.745453,50.349967],[3.747158,50.351075],[3.763344,50.348044],[3.766633,50.353142],[3.770514,50.351097],[3.775903,50.353142],[3.784,50.35355],[3.7989,50.350908],[3.806989,50.355233],[3.814058,50.353192],[3.815336,50.349694],[3.811539,50.344967],[3.821997,50.345725],[3.824936,50.350211],[3.824386,50.353458],[3.832703,50.352389],[3.839133,50.354058],[3.853447,50.351081],[3.858594,50.344919],[3.857239,50.342214],[3.862297,50.343739],[3.862194,50.341833],[3.875411,50.337589],[3.879147,50.338686],[3.880381,50.337975],[3.887136,50.340903],[3.888278,50.337569],[3.885933,50.337486],[3.886247,50.336231],[3.889703,50.336089],[3.888889,50.331742],[3.889747,50.329472],[3.885094,50.328692],[3.8856,50.327008],[3.895939,50.328953],[3.900556,50.327006],[3.908094,50.329311],[3.908347,50.328308],[3.968231,50.350036],[3.969128,50.347269],[3.965528,50.341456],[3.967361,50.340628],[3.970639,50.343039],[3.972775,50.347814],[3.985272,50.342297],[3.992817,50.347933],[3.998686,50.347933],[4.001178,50.350322],[4.011319,50.349992],[4.017889,50.352378],[4.015531,50.3537],[4.018428,50.357275],[4.022633,50.356753],[4.024178,50.359125],[4.027889,50.358261],[4.027258,50.356931],[4.031047,50.354611],[4.034972,50.348322],[4.033486,50.346947],[4.040986,50.340467],[4.054186,50.338606],[4.054144,50.335078],[4.055031,50.332528],[4.065586,50.330047],[4.069872,50.324933],[4.077881,50.320939],[4.079044,50.309622],[4.082206,50.309217],[4.086678,50.311719],[4.093325,50.31305],[4.095619,50.312025],[4.097256,50.313564],[4.1054,50.307742],[4.109567,50.301783],[4.117881,50.303431],[4.118714,50.300189],[4.122739,50.297914],[4.125681,50.288408],[4.125139,50.280419],[4.121778,50.277692],[4.125406,50.273553],[4.135917,50.274656],[4.134083,50.265817],[4.138247,50.263869],[4.137717,50.2598],[4.135119,50.259331],[4.136953,50.2571],[4.145714,50.258489],[4.150247,50.2566],[4.163422,50.257128],[4.164981,50.259431],[4.167936,50.259828],[4.168714,50.266492],[4.163631,50.269125],[4.163361,50.271828],[4.150886,50.273578],[4.1493,50.277006],[4.155325,50.280458],[4.154286,50.285075],[4.161011,50.284897],[4.162581,50.288797],[4.169939,50.287986],[4.168981,50.284622],[4.176375,50.284525],[4.1761,50.281108],[4.17455,50.278375],[4.176683,50.275053],[4.191794,50.274061],[4.197744,50.273481],[4.203225,50.274447],[4.20995,50.270981],[4.216933,50.261219],[4.221233,50.258575],[4.22005,50.251822],[4.212594,50.246036],[4.205633,50.243664],[4.203169,50.240369],[4.193158,50.239811],[4.182506,50.232803],[4.174275,50.220022],[4.169336,50.217411],[4.164242,50.214611],[4.156272,50.214008],[4.153742,50.212697],[4.150394,50.213572],[4.152286,50.208789],[4.156008,50.203853],[4.16015,50.202025],[4.160086,50.193322],[4.159192,50.19215],[4.1564,50.192722],[4.157672,50.189269],[4.155789,50.183175],[4.151044,50.179556],[4.148253,50.173347],[4.155756,50.171956],[4.155325,50.162986],[4.150792,50.158872],[4.147283,50.158136],[4.137753,50.151958],[4.135117,50.145608],[4.135792,50.142714],[4.130347,50.140239],[4.128064,50.135319],[4.131917,50.132058],[4.144169,50.128608],[4.152331,50.128828],[4.154467,50.127839],[4.156072,50.129236],[4.157222,50.135289],[4.176147,50.133033],[4.198072,50.134978],[4.200947,50.132869],[4.197956,50.128075],[4.203619,50.121033],[4.202086,50.1173],[4.20405,50.115528],[4.197597,50.109206],[4.196764,50.106372],[4.206536,50.106086],[4.207453,50.105061],[4.200311,50.100914],[4.206744,50.095944],[4.210489,50.096719],[4.216811,50.090925],[4.217242,50.087983],[4.220761,50.086033],[4.225203,50.0855],[4.225619,50.081519],[4.230878,50.073339],[4.227633,50.065906],[4.218567,50.061011],[4.207633,50.058017],[4.198025,50.057164],[4.194542,50.049839],[4.185944,50.049467],[4.180619,50.046689],[4.173217,50.045978],[4.162392,50.049358],[4.152872,50.039072],[4.149164,50.032872],[4.144489,50.030994],[4.144278,50.028917],[4.135853,50.020131],[4.135825,50.014911],[4.140058,50.009511],[4.144967,50.008533],[4.141758,50.006394],[4.142333,50.005653],[4.146664,50.006697],[4.145936,50.004214],[4.154833,49.999867],[4.158878,50.002014],[4.161856,50.000581],[4.163175,49.995178],[4.159294,49.992336],[4.1547,49.985011],[4.147375,49.983586],[4.144903,49.979867],[4.141733,49.978969],[4.144247,49.976311],[4.146678,49.97575],[4.14995,49.976939],[4.152972,49.974511],[4.157156,49.975925],[4.172778,49.977133],[4.178697,49.971831],[4.184483,49.971428],[4.197103,49.967508],[4.198075,49.965025],[4.195911,49.962764],[4.195272,49.955967],[4.197219,49.954625],[4.198211,49.956022],[4.211133,49.958017],[4.216294,49.957158],[4.224853,49.959369],[4.227753,49.957917],[4.234131,49.957706],[4.239622,49.959131],[4.242117,49.961606],[4.250386,49.961975],[4.254714,49.963486],[4.263603,49.963908],[4.269303,49.965492],[4.276014,49.964183],[4.285506,49.964783],[4.289578,49.963561],[4.2976,49.964819],[4.309342,49.969558],[4.313811,49.966511],[4.327803,49.962761],[4.3359,49.963242],[4.350822,49.9523],[4.364517,49.952828],[4.371847,49.951458],[4.381597,49.953586],[4.390358,49.947842],[4.403322,49.949256],[4.416025,49.947203],[4.435881,49.940669],[4.441153,49.941078],[4.445528,49.937269],[4.481311,49.948117],[4.486642,49.946206],[4.495436,49.948564],[4.511636,49.946861],[4.518056,49.951278],[4.523414,49.950236],[4.524828,49.953653],[4.533364,49.962572],[4.542236,49.969436],[4.550283,49.968233],[4.564522,49.9704],[4.572197,49.974614],[4.574097,49.980083],[4.583175,49.983394],[4.597689,49.986256],[4.607678,49.985417],[4.625692,49.98695],[4.634678,49.987789],[4.639992,49.989511],[4.657364,49.993694],[4.664708,49.994172],[4.666728,49.996708],[4.674867,49.996633],[4.677569,49.995375],[4.68025,49.996481],[4.692892,49.995467],[4.693536,49.997444],[4.687619,50.000789],[4.687089,50.005075],[4.685061,50.007006],[4.688797,50.011278],[4.686239,50.013653],[4.686792,50.025336],[4.684797,50.027175],[4.688228,50.028528],[4.692239,50.037928],[4.696881,50.042711],[4.695378,50.047519],[4.699906,50.052658],[4.69545,50.058836],[4.691839,50.057494],[4.686156,50.057436],[4.683961,50.063692],[4.679853,50.067492],[4.685781,50.069975],[4.688747,50.072714],[4.687936,50.076406],[4.691833,50.083511],[4.694625,50.085214],[4.702992,50.095842],[4.713131,50.096975],[4.716022,50.100883],[4.751822,50.111914],[4.753475,50.116275],[4.747997,50.122383],[4.756294,50.122439],[4.763083,50.134533],[4.762269,50.136414],[4.7778,50.141211],[4.806469,50.152547],[4.824058,50.16915],[4.823778,50.161722],[4.830092,50.156975],[4.832389,50.152989],[4.845158,50.153878],[4.852161,50.152328],[4.876647,50.153733],[4.879003,50.151492],[4.881661,50.144628],[4.881928,50.140844],[4.895289,50.139864],[4.897044,50.137914],[4.894347,50.134083],[4.890986,50.13415],[4.886919,50.130875],[4.878467,50.131775],[4.878489,50.126969],[4.870861,50.124472],[4.867347,50.118128],[4.873261,50.109131],[4.868461,50.096742],[4.875325,50.094828],[4.871439,50.087922],[4.860211,50.092975],[4.861744,50.097031],[4.858719,50.099947],[4.849808,50.101347],[4.849828,50.098736],[4.841108,50.095161],[4.838306,50.093381],[4.842164,50.091594],[4.846978,50.083578],[4.840481,50.083089],[4.842814,50.077722],[4.837917,50.067631],[4.819542,50.066214],[4.82205,50.064336],[4.819197,50.062089],[4.8196,50.060564],[4.827456,50.059178],[4.829278,50.057408],[4.827125,50.050303],[4.832439,50.046919],[4.840369,50.046536],[4.841783,50.038753],[4.835672,50.034808],[4.830256,50.034061],[4.828089,50.030033],[4.819769,50.02585],[4.822619,50.021764],[4.818594,50.019944],[4.817308,50.015336],[4.821125,50.012056],[4.816025,50.000178],[4.818939,49.994678],[4.812125,49.988492],[4.804711,49.982883],[4.793681,49.982297],[4.795528,49.976228],[4.790233,49.968994],[4.791042,49.958025],[4.79635,49.958081],[4.806456,49.954397],[4.812869,49.954294],[4.821956,49.951414],[4.827192,49.951186],[4.830086,49.949083],[4.840003,49.950767],[4.847175,49.948939],[4.849678,49.946747],[4.857767,49.932842],[4.880953,49.922394],[4.881467,49.915822],[4.890083,49.908975],[4.887,49.905881],[4.879067,49.905347],[4.876408,49.901378],[4.884964,49.901989],[4.8875,49.898692],[4.884339,49.896308],[4.877872,49.894606],[4.8769,49.8916],[4.869428,49.883842],[4.871958,49.879725],[4.871019,49.878778],[4.866711,49.878475],[4.861442,49.870419],[4.862928,49.867194],[4.85945,49.865197],[4.854411,49.864706],[4.847619,49.867989],[4.850653,49.865625],[4.852006,49.858878],[4.851761,49.852631],[4.857456,49.846814],[4.856881,49.841336],[4.867269,49.842097],[4.869242,49.834169],[4.866167,49.832853],[4.868806,49.830686],[4.868864,49.822989],[4.876281,49.819492],[4.876286,49.817356],[4.865522,49.813294],[4.864883,49.805264],[4.860403,49.800903],[4.859225,49.7971],[4.851636,49.793447],[4.864061,49.788769],[4.871339,49.789342],[4.869947,49.793561],[4.880428,49.792864],[4.887886,49.788178],[4.898308,49.789064],[4.901003,49.786181],[4.905822,49.785453],[4.920828,49.788692],[4.930614,49.786839],[4.932025,49.789836],[4.938889,49.793144],[4.942078,49.792639],[4.942858,49.790519],[4.946467,49.794511],[4.947611,49.799042],[4.956639,49.801414],[4.962447,49.797772],[4.967281,49.798342],[4.968761,49.801578],[4.984386,49.799736],[4.996086,49.800317],[4.998186,49.799525],[4.997394,49.794692],[5.000836,49.793806],[5.006822,49.786394],[5.008169,49.7819],[5.037292,49.771814],[5.061894,49.766919],[5.062908,49.762153],[5.071781,49.760978],[5.085383,49.763142],[5.088047,49.766425],[5.094722,49.762772],[5.119094,49.738328],[5.119058,49.7356],[5.124928,49.726978],[5.12295,49.717322],[5.125917,49.716444],[5.126031,49.712436],[5.131792,49.713536],[5.141136,49.713008],[5.143639,49.709303],[5.149814,49.714278],[5.152664,49.718486],[5.159108,49.716958],[5.165919,49.711811],[5.166392,49.706933],[5.163775,49.700422],[5.164878,49.693286],[5.184978,49.69395],[5.191881,49.694922],[5.196506,49.693778],[5.196258,49.691964],[5.201942,49.693394],[5.206408,49.695828],[5.218425,49.687875],[5.23155,49.691697],[5.242861,49.688667],[5.242647,49.68475],[5.250836,49.688669],[5.2562,49.694167],[5.268914,49.696353],[5.281533,49.688364],[5.282561,49.685789],[5.286247,49.682389],[5.292761,49.679042],[5.295761,49.676467],[5.309269,49.671819],[5.311031,49.669208],[5.328258,49.658644],[5.332483,49.652922],[5.31825,49.646381],[5.318922,49.644547],[5.308967,49.636158],[5.305,49.630308],[5.305414,49.624128],[5.311003,49.618389],[5.31235,49.61145],[5.315631,49.611292],[5.318869,49.614486],[5.3224,49.613975],[5.325831,49.616142],[5.330714,49.616731],[5.337017,49.615558],[5.340644,49.616678],[5.339303,49.618436],[5.343439,49.622019],[5.343392,49.626656],[5.346253,49.630697],[5.352114,49.630994],[5.356394,49.627653],[5.361942,49.626175],[5.363925,49.623211],[5.371028,49.622711],[5.374547,49.623703],[5.382153,49.619717],[5.393064,49.617806],[5.398069,49.615808],[5.401089,49.610706],[5.41115,49.608328],[5.418053,49.599583],[5.423244,49.599011],[5.431192,49.592558],[5.428658,49.589908],[5.437811,49.569383],[5.445464,49.567078],[5.456908,49.566822],[5.447817,49.555092],[5.444861,49.552961],[5.441475,49.551689],[5.465689,49.538136],[5.466331,49.525825],[5.460458,49.525744],[5.455367,49.520211],[5.447267,49.518106],[5.4543,49.514078],[5.454092,49.512722],[5.455961,49.512364],[5.456811,49.513322],[5.465997,49.508819],[5.464325,49.503725],[5.466117,49.498744],[5.472808,49.496983],[5.479233,49.500281],[5.480136,49.503692],[5.483906,49.507478],[5.499431,49.506717],[5.517361,49.509083],[5.533525,49.513222],[5.536072,49.514742],[5.540958,49.515136],[5.544431,49.518697],[5.545811,49.523828],[5.550203,49.526975],[5.556675,49.529194],[5.563514,49.525533],[5.566286,49.527592],[5.572075,49.527297],[5.588847,49.521597],[5.591142,49.522928],[5.601628,49.515728],[5.601628,49.513267],[5.604544,49.510528],[5.6036,49.509036],[5.610844,49.506019],[5.621475,49.519122],[5.620761,49.522936],[5.615767,49.527267],[5.622083,49.534447],[5.628336,49.538422],[5.632978,49.539436],[5.630775,49.542008],[5.634447,49.5429],[5.633769,49.544369],[5.643628,49.546953],[5.642586,49.550486],[5.648078,49.549933],[5.650575,49.551222],[5.653936,49.550722],[5.661297,49.553108],[5.664331,49.553028],[5.66935,49.548414],[5.679319,49.548961],[5.682208,49.548019],[5.681172,49.545297],[5.690814,49.545992],[5.694994,49.543075],[5.699711,49.542306],[5.698642,49.540728],[5.707014,49.538947],[5.713881,49.540722],[5.715194,49.539042],[5.718236,49.540261],[5.718778,49.539303],[5.723428,49.541675],[5.724328,49.544083],[5.726078,49.543669],[5.733964,49.545564],[5.733242,49.543833],[5.740269,49.539019],[5.747297,49.539378],[5.757797,49.543003],[5.755836,49.546139],[5.758186,49.550394],[5.755942,49.556272],[5.759936,49.558422],[5.758436,49.561422],[5.762617,49.561],[5.771208,49.563325],[5.774583,49.563214],[5.779325,49.558444],[5.781539,49.559025],[5.785533,49.557636],[5.791975,49.551742],[5.803003,49.549364],[5.807858,49.550783],[5.812253,49.547397],[5.815844,49.548472],[5.818614,49.546375],[5.818614,49.546375],[5.810475,49.543536],[5.8172,49.536994],[5.8371,49.542103],[5.839167,49.536997],[5.846264,49.5295],[5.834575,49.526414],[5.836039,49.519953],[5.848447,49.51445],[5.850269,49.508597],[5.858869,49.505775],[5.862756,49.501461],[5.868428,49.499058],[5.885781,49.498614],[5.891019,49.496814],[5.897236,49.496611],[5.905728,49.499217],[5.907297,49.501528],[5.912106,49.501997],[5.928597,49.498578],[5.931967,49.499769],[5.942869,49.500219],[5.946044,49.499511],[5.946292,49.496967],[5.951883,49.494039],[5.970631,49.491419],[5.973219,49.49005],[5.969003,49.485747],[5.974422,49.480878],[5.973067,49.476458],[5.97075,49.474719],[5.972014,49.472411],[5.972797,49.468753],[5.974308,49.464636],[5.979653,49.461003],[5.983967,49.463161],[5.987581,49.461753],[5.985844,49.456139],[5.98165,49.456536],[5.978911,49.453794],[5.982047,49.451067],[5.997547,49.456536],[6.001369,49.456253],[6.003039563504344,49.45529380671353],[6.0,49.45],[4.8,48.95],[5.733333,48.25],[5.166667,48.166667],[4.333333,47.416667],[4.833333,46.5],[3.266667,46.5],[2.916389,46.328611],[2.833333,46.75],[2.0,47.166667],[-0.25,47.166667],[-0.25,50.0],[1.466667,50.666667],[1.466667,51.0],[2.0,51.116667]]]}}]}