{
"type": "FeatureCollection",
"headerFile": { "software": "(aixmParser v2.26.4) ", "created": "2026-05-17T14:46:23.656100", "content": "airspaces-all", "allMap": true, "numberOfAreas": 4549, "srcFiles": { "1": { "srcAixmFile": "..\\tst\\AIXM4.5_all_FR_OM_2026-05-14.xml", "srcAixmOrigin": "Sia-France", "srcAixmVersion": "4.5", "srcAixmCreated": "2026-03-23T19:09:15.593+01:00", "srcAixmEffective": "2026-05-14T00:00:00.000+02:00" } } },
"name": "airspaces-type-RMZ",
"features": [
{ "type": "Feature", "properties": { "name": "ROCHEFORT", "full_name": "RMZ ROCHEFORT", "class": "RMZ", "type": "RMZ", "lower": "SFC", "lowerM": 0, "upper": "2000FT AMSL", "upperM": 609, "activationCode": "HX", "activationDesc": "ROCHEFORT AFIS SKED", "UId": "27272746", "id": "LFSRMZDN", "stroke": "#f07800", "stroke-width": 2, "stroke-opacity": 0.8, "fill": "#f07800", "fill-opacity": 0 }, "geometry": { "type": "Polygon", "coordinates": [ [ [ -1.085833, 45.876111 ], [ -0.945833, 45.818056 ], [ -0.8975, 45.882778 ], [ -1.03, 45.932778 ], [ -1.085833, 45.876111 ] ] ] } },
{ "type": "Feature", "properties": { "name": "MORLAIX", "full_name": "RMZ MORLAIX", "class": "RMZ", "type": "RMZ", "lower": "SFC", "lowerM": 0, "upper": "1500FT AMSL", "upperM": 457, "activationCode": "HO", "activationDesc": "HOR AFIS MORLAIX MORLAIX AFIS SKED", "UId": "40504672", "id": "LFSRMZRU", "stroke": "#f07800", "stroke-width": 2, "stroke-opacity": 0.8, "fill": "#f07800", "fill-opacity": 0 }, "geometry": { "type": "Polygon", "coordinates": [ [ [ -3.816667, 48.650833 ], [ -3.816667, 48.650796 ], [ -3.807711, 48.650444 ], [ -3.798882, 48.649394 ], [ -3.790303, 48.647659 ], [ -3.782097, 48.645264 ], [ -3.774378, 48.642244 ], [ -3.767256, 48.638641 ], [ -3.760831, 48.634505 ], [ -3.755193, 48.629895 ], [ -3.750422, 48.624877 ], [ -3.746584, 48.61952 ], [ -3.743734, 48.6139 ], [ -3.741911, 48.608097 ], [ -3.741141, 48.602191 ], [ -3.741434, 48.596267 ], [ -3.742785, 48.590408 ], [ -3.745175, 48.584696 ], [ -3.74857, 48.57921 ], [ -3.752923, 48.57403 ], [ -3.758171, 48.569226 ], [ -3.764241, 48.564868 ], [ -3.771047, 48.561015 ], [ -3.778494, 48.557722 ], [ -3.786476, 48.555036 ], [ -3.794882, 48.552994 ], [ -3.803594, 48.551624 ], [ -3.81249, 48.550946 ], [ -3.821444, 48.55097 ], [ -3.830331, 48.551694 ], [ -3.839026, 48.55311 ], [ -3.847407, 48.555196 ], [ -3.855357, 48.557925 ], [ -3.862764, 48.561256 ], [ -3.869524, 48.565145 ], [ -3.875541, 48.569535 ], [ -3.880732, 48.574366 ], [ -3.885022, 48.579569 ], [ -3.888351, 48.585072 ], [ -3.890673, 48.590797 ], [ -3.891953, 48.596663 ], [ -3.891667, 48.596667 ], [ -3.891667, 48.596667 ], [ -3.816667, 48.650833 ] ] ] } },
{ "type": "Feature", "properties": { "name": "LE VERSOUD", "full_name": "RMZ LE VERSOUD", "class": "RMZ", "type": "RMZ", "lower": "SFC", "lowerM": 0, "upper": "2700FT AMSL", "upperM": 822, "activationCode": "HX", "activationDesc": "HOR ATS ATS SKED (Voir/See AD 2 LFLG.3)", "UId": "47051928", "id": "LFSRMZLG", "stroke": "#f07800", "stroke-width": 2, "stroke-opacity": 0.8, "fill": "#f07800", "fill-opacity": 0 }, "geometry": { "type": "Polygon", "coordinates": [ [ [ 5.878333, 45.2625 ], [ 5.895833, 45.246667 ], [ 5.861944, 45.215278 ], [ 5.786111, 45.174444 ], [ 5.765556, 45.193056 ], [ 5.8325, 45.238056 ], [ 5.878333, 45.2625 ] ] ] } },
{ "type": "Feature", "properties": { "name": "SOLENZARA", "full_name": "RMZ SOLENZARA", "class": "RMZ", "type": "RMZ", "lower": "SFC", "lowerM": 0, "upper": "2500FT AMSL", "upperM": 762, "desc": "Possible activation H24. Outside periods of activity, A/A GHISONACCIA 118.350 MHz.", "activationCode": "HX", "UId": "32563537", "id": "LFSRMZKS", "stroke": "#f07800", "stroke-width": 2, "stroke-opacity": 0.8, "fill": "#f07800", "fill-opacity": 0 }, "geometry": { "type": "Polygon", "coordinates": [ [ [ 9.333333, 42.057222 ], [ 9.333135, 42.05722 ], [ 9.333623, 42.061066 ], [ 9.33451, 42.064873 ], [ 9.335792, 42.068618 ], [ 9.337459, 42.072278 ], [ 9.339503, 42.075831 ], [ 9.341911, 42.079256 ], [ 9.344669, 42.082532 ], [ 9.347761, 42.085641 ], [ 9.351167, 42.088562 ], [ 9.354868, 42.09128 ], [ 9.358841, 42.093776 ], [ 9.363063, 42.096037 ], [ 9.367508, 42.098049 ], [ 9.37215, 42.0998 ], [ 9.37696, 42.101279 ], [ 9.381911, 42.102477 ], [ 9.386971, 42.103388 ], [ 9.392112, 42.104005 ], [ 9.397301, 42.104326 ], [ 9.402508, 42.104347 ], [ 9.407702, 42.104069 ], [ 9.412852, 42.103495 ], [ 9.417925, 42.102626 ], [ 9.422893, 42.101468 ], [ 9.427726, 42.100029 ], [ 9.432393, 42.098317 ], [ 9.436868, 42.096342 ], [ 9.441124, 42.094115 ], [ 9.445134, 42.091652 ], [ 9.448875, 42.088965 ], [ 9.452325, 42.086072 ], [ 9.455463, 42.082989 ], [ 9.45827, 42.079735 ], [ 9.460729, 42.07633 ], [ 9.462827, 42.072794 ], [ 9.464549, 42.069149 ], [ 9.465886, 42.065415 ], [ 9.46683, 42.061615 ], [ 9.467376, 42.057773 ], [ 9.467222, 42.057778 ], [ 9.467222, 42.057778 ], [ 9.469444, 41.856944 ], [ 9.469606, 41.856946 ], [ 9.469241, 41.852956 ], [ 9.468448, 41.849 ], [ 9.467234, 41.845105 ], [ 9.465606, 41.841294 ], [ 9.463575, 41.837592 ], [ 9.461153, 41.834023 ], [ 9.458357, 41.83061 ], [ 9.455203, 41.827374 ], [ 9.451713, 41.824336 ], [ 9.447909, 41.821515 ], [ 9.443814, 41.81893 ], [ 9.439456, 41.816597 ], [ 9.434862, 41.81453 ], [ 9.430061, 41.812744 ], [ 9.425084, 41.811249 ], [ 9.419964, 41.810055 ], [ 9.414731, 41.80917 ], [ 9.409421, 41.808599 ], [ 9.404066, 41.808346 ], [ 9.398702, 41.808413 ], [ 9.393361, 41.808798 ], [ 9.388079, 41.809501 ], [ 9.382889, 41.810515 ], [ 9.377825, 41.811835 ], [ 9.372917, 41.813453 ], [ 9.368199, 41.815357 ], [ 9.3637, 41.817536 ], [ 9.359448, 41.819976 ], [ 9.355471, 41.822661 ], [ 9.351795, 41.825575 ], [ 9.348442, 41.828698 ], [ 9.345435, 41.83201 ], [ 9.342792, 41.835491 ], [ 9.340531, 41.839118 ], [ 9.338667, 41.842868 ], [ 9.33721, 41.846718 ], [ 9.33617, 41.850641 ], [ 9.335555, 41.854614 ], [ 9.335368, 41.858611 ], [ 9.335556, 41.858611 ], [ 9.335556, 41.858611 ], [ 9.333333, 42.057222 ] ] ] } },
{ "type": "Feature", "properties": { "name": "MELUN", "full_name": "RMZ MELUN", "class": "RMZ", "type": "RMZ", "lower": "SFC", "lowerM": 0, "upper": "2500FT AMSL", "upperM": 762, "desc": "AFIS SKED AFIS can be provided without prior notice outside published SKED.", "activationCode": "HO", "UId": "44502116", "id": "LFSRMZPM", "stroke": "#f07800", "stroke-width": 2, "stroke-opacity": 0.8, "fill": "#f07800", "fill-opacity": 0 }, "geometry": { "type": "Polygon", "coordinates": [ [ [ 2.618889, 48.698611 ], [ 2.721944, 48.681389 ], [ 2.911667, 48.647222 ], [ 2.847222, 48.522222 ], [ 2.685278, 48.483333 ], [ 2.489167, 48.505 ], [ 2.489167, 48.556111 ], [ 2.488889, 48.618889 ], [ 2.618889, 48.698611 ] ] ] } },
{ "type": "Feature", "properties": { "name": "LA ROCHE SUR YON", "full_name": "RMZ LA ROCHE SUR YON", "class": "RMZ", "type": "RMZ", "lower": "SFC", "lowerM": 0, "upper": "3500FT AMSL", "upperM": 1066, "desc": "LA ROCHE SUR YON AFIS SKED", "activationCode": "HO", "UId": "32512718", "id": "LFSRMZRI", "stroke": "#f07800", "stroke-width": 2, "stroke-opacity": 0.8, "fill": "#f07800", "fill-opacity": 0 }, "geometry": { "type": "Polygon", "coordinates": [ [ [ -1.235833, 46.729722 ], [ -1.265278, 46.631667 ], [ -1.523889, 46.673333 ], [ -1.492778, 46.770556 ], [ -1.235833, 46.729722 ] ] ] } },
{ "type": "Feature", "properties": { "name": "ANGERS", "full_name": "RMZ ANGERS", "class": "RMZ", "type": "RMZ", "lower": "SFC", "lowerM": 0, "upper": "2500FT AMSL", "upperM": 762, "desc": "ANGERS AFIS SKED", "activationCode": "HO", "UId": "32379568", "id": "LFSRMZJR", "stroke": "#f07800", "stroke-width": 2, "stroke-opacity": 0.8, "fill": "#f07800", "fill-opacity": 0 }, "geometry": { "type": "Polygon", "coordinates": [ [ [ -0.432222, 47.601111 ], [ -0.4125, 47.498611 ], [ -0.1275, 47.529444 ], [ -0.1525, 47.624722 ], [ -0.432222, 47.601111 ] ] ] } },
{ "type": "Feature", "properties": { "name": "LANNION", "full_name": "RMZ LANNION", "class": "RMZ", "type": "RMZ", "lower": "SFC", "lowerM": 0, "upper": "2500FT AMSL", "upperM": 762, "desc": "LANNION AFIS SKED", "activationCode": "HO", "UId": "25090967", "id": "LFSRMZRO", "stroke": "#f07800", "stroke-width": 2, "stroke-opacity": 0.8, "fill": "#f07800", "fill-opacity": 0 }, "geometry": { "type": "Polygon", "coordinates": [ [ [ -3.523333, 48.786389 ], [ -3.3625, 48.7625 ], [ -3.380278, 48.713611 ], [ -3.417354, 48.719909 ], [ -3.417163, 48.71989 ], [ -3.419699, 48.718222 ], [ -3.422352, 48.716635 ], [ -3.425115, 48.715133 ], [ -3.427982, 48.713719 ], [ -3.430947, 48.712395 ], [ -3.434003, 48.711165 ], [ -3.437144, 48.710032 ], [ -3.440363, 48.708998 ], [ -3.443651, 48.708065 ], [ -3.447003, 48.707235 ], [ -3.45041, 48.706511 ], [ -3.453865, 48.705894 ], [ -3.457361, 48.705385 ], [ -3.460889, 48.704986 ], [ -3.464441, 48.704697 ], [ -3.46801, 48.704519 ], [ -3.471588, 48.704452 ], [ -3.475167, 48.704496 ], [ -3.478738, 48.704652 ], [ -3.482295, 48.70492 ], [ -3.485828, 48.705297 ], [ -3.489331, 48.705784 ], [ -3.492794, 48.70638 ], [ -3.496212, 48.707083 ], [ -3.499575, 48.707892 ], [ -3.502877, 48.708804 ], [ -3.50611, 48.709818 ], [ -3.509267, 48.710932 ], [ -3.51234, 48.712143 ], [ -3.515324, 48.713448 ], [ -3.518211, 48.714845 ], [ -3.520996, 48.71633 ], [ -3.52367, 48.7179 ], [ -3.52623, 48.719552 ], [ -3.528669, 48.721281 ], [ -3.530981, 48.723085 ], [ -3.533162, 48.724958 ], [ -3.535206, 48.726898 ], [ -3.537109, 48.728899 ], [ -3.536944, 48.728889 ], [ -3.536944, 48.728889 ], [ -3.523333, 48.786389 ] ] ] } },
{ "type": "Feature", "properties": { "name": "VALENCE", "full_name": "RMZ VALENCE", "class": "RMZ", "type": "RMZ", "lower": "SFC", "lowerM": 0, "upper": "2500FT AMSL", "upperM": 762, "desc": "HOR AFIS", "activationCode": "HO", "UId": "25091626", "id": "LFSRMZLU", "stroke": "#f07800", "stroke-width": 2, "stroke-opacity": 0.8, "fill": "#f07800", "fill-opacity": 0 }, "geometry": { "type": "Polygon", "coordinates": [ [ [ 5.0432, 44.914544 ], [ 5.04355, 44.914543 ], [ 5.043401, 44.918397 ], [ 5.042835, 44.922232 ], [ 5.041853, 44.926024 ], [ 5.040462, 44.929752 ], [ 5.038669, 44.933393 ], [ 5.036486, 44.936925 ], [ 5.033925, 44.940328 ], [ 5.031002, 44.943581 ], [ 5.027733, 44.946666 ], [ 5.024139, 44.949563 ], [ 5.020239, 44.952255 ], [ 5.016058, 44.954727 ], [ 5.011621, 44.956964 ], [ 5.006953, 44.958953 ], [ 5.002082, 44.960681 ], [ 4.997037, 44.962139 ], [ 4.991849, 44.963317 ], [ 4.986548, 44.964209 ], [ 4.981165, 44.96481 ], [ 4.975733, 44.965116 ], [ 4.970284, 44.965125 ], [ 4.96485, 44.964836 ], [ 4.959463, 44.964253 ], [ 4.954156, 44.963378 ], [ 4.94896, 44.962216 ], [ 4.943906, 44.960775 ], [ 4.939024, 44.959062 ], [ 4.934344, 44.957089 ], [ 4.929892, 44.954866 ], [ 4.925695, 44.952408 ], [ 4.921778, 44.949728 ], [ 4.918165, 44.946842 ], [ 4.914876, 44.943769 ], [ 4.911932, 44.940525 ], [ 4.909349, 44.93713 ], [ 4.907143, 44.933605 ], [ 4.905327, 44.92997 ], [ 4.903912, 44.926247 ], [ 4.902906, 44.922458 ], [ 4.90295, 44.922478 ], [ 4.90295, 44.922478 ], [ 4.889847, 44.871978 ], [ 4.889567, 44.871982 ], [ 4.889066, 44.868066 ], [ 4.888999, 44.864135 ], [ 4.889367, 44.860212 ], [ 4.890167, 44.856321 ], [ 4.891394, 44.852487 ], [ 4.893041, 44.848732 ], [ 4.895097, 44.845081 ], [ 4.89755, 44.841555 ], [ 4.900385, 44.838176 ], [ 4.903583, 44.834964 ], [ 4.907126, 44.83194 ], [ 4.910992, 44.829122 ], [ 4.915157, 44.826527 ], [ 4.919595, 44.824171 ], [ 4.924279, 44.822069 ], [ 4.929181, 44.820233 ], [ 4.93427, 44.818674 ], [ 4.939515, 44.817403 ], [ 4.944884, 44.816428 ], [ 4.950344, 44.815753 ], [ 4.955862, 44.815383 ], [ 4.961404, 44.81532 ], [ 4.966935, 44.815566 ], [ 4.972423, 44.816117 ], [ 4.977833, 44.816972 ], [ 4.983133, 44.818124 ], [ 4.988289, 44.819567 ], [ 4.99327, 44.821291 ], [ 4.998046, 44.823287 ], [ 5.002587, 44.825542 ], [ 5.006866, 44.828042 ], [ 5.010856, 44.830771 ], [ 5.014533, 44.833714 ], [ 5.017873, 44.836852 ], [ 5.020858, 44.840166 ], [ 5.023467, 44.843635 ], [ 5.025686, 44.847238 ], [ 5.0275, 44.850954 ], [ 5.028898, 44.854758 ], [ 5.028789, 44.854739 ], [ 5.028789, 44.854739 ], [ 5.0432, 44.914544 ] ] ] } },
{ "type": "Feature", "properties": { "name": "CHERBOURG", "full_name": "RMZ CHERBOURG", "class": "RMZ", "type": "RMZ", "lower": "SFC", "lowerM": 0, "upper": "2000FT AMSL", "upperM": 609, "desc": "CHERBOURG AFIS SKED", "activationCode": "HO", "UId": "25090786", "id": "LFSRMZRC", "stroke": "#f07800", "stroke-width": 2, "stroke-opacity": 0.8, "fill": "#f07800", "fill-opacity": 0 }, "geometry": { "type": "Polygon", "coordinates": [ [ [ -1.516944, 49.689444 ], [ -1.315278, 49.665833 ], [ -1.332778, 49.600556 ], [ -1.534722, 49.623611 ], [ -1.516944, 49.689444 ] ] ] } },
{ "type": "Feature", "properties": { "name": "LE HAVRE", "full_name": "RMZ LE HAVRE", "class": "RMZ", "type": "RMZ", "lower": "SFC", "lowerM": 0, "upper": "2500FT AMSL", "upperM": 762, "desc": "LE HAVRE AFIS SKED", "activationCode": "HO", "UId": "25090928", "id": "LFSRMZOH", "stroke": "#f07800", "stroke-width": 2, "stroke-opacity": 0.8, "fill": "#f07800", "fill-opacity": 0 }, "geometry": { "type": "Polygon", "coordinates": [ [ [ -0.000833, 49.516944 ], [ 0.138333, 49.625 ], [ 0.213056, 49.585556 ], [ 0.073333, 49.476667 ], [ -0.000833, 49.516944 ] ] ] } },
{ "type": "Feature", "properties": { "name": "CHAVENAY VILLEPREUX", "full_name": "RMZ CHAVENAY VILLEPREUX", "class": "RMZ", "type": "RMZ", "lower": "SFC", "lowerM": 0, "upper": "2500FT AMSL", "upperM": 762, "desc": "Except for TMA 2 Paris. CHAVENAY TWR SKED", "activationCode": "HO", "UId": "25090937", "id": "LFSRMZPX", "stroke": "#f07800", "stroke-width": 2, "stroke-opacity": 0.8, "fill": "#f07800", "fill-opacity": 0 }, "geometry": { "type": "Polygon", "coordinates": [ [ [ 1.9825, 48.884167 ], [ 2.033333, 48.865556 ], [ 2.008056, 48.829167 ], [ 1.931389, 48.833056 ], [ 1.935556, 48.871944 ], [ 1.9825, 48.884167 ] ] ] } },
{ "type": "Feature", "properties": { "name": "LOGNES EMERAINVILLE", "full_name": "RMZ LOGNES EMERAINVILLE", "class": "RMZ", "type": "RMZ", "lower": "SFC", "lowerM": 0, "upper": "1500FT AMSL", "upperM": 457, "desc": "LOGNES TWR SKED", "activationCode": "HO", "UId": "25090955", "id": "LFSRMZPL", "stroke": "#f07800", "stroke-width": 2, "stroke-opacity": 0.8, "fill": "#f07800", "fill-opacity": 0 }, "geometry": { "type": "Polygon", "coordinates": [ [ [ 2.611944, 48.800556 ], [ 2.581389, 48.790556 ], [ 2.581166, 48.790478 ], [ 2.580137, 48.791081 ], [ 2.579129, 48.791699 ], [ 2.578141, 48.792331 ], [ 2.577174, 48.792976 ], [ 2.576229, 48.793636 ], [ 2.575305, 48.794309 ], [ 2.574404, 48.794995 ], [ 2.573526, 48.795693 ], [ 2.572671, 48.796404 ], [ 2.57184, 48.797127 ], [ 2.571033, 48.797862 ], [ 2.57025, 48.798608 ], [ 2.569492, 48.799366 ], [ 2.568759, 48.800134 ], [ 2.568052, 48.800912 ], [ 2.56737, 48.8017 ], [ 2.566715, 48.802498 ], [ 2.566086, 48.803305 ], [ 2.565484, 48.80412 ], [ 2.564909, 48.804944 ], [ 2.564361, 48.805777 ], [ 2.56384, 48.806616 ], [ 2.563348, 48.807464 ], [ 2.562884, 48.808317 ], [ 2.562447, 48.809178 ], [ 2.56204, 48.810044 ], [ 2.561661, 48.810916 ], [ 2.561311, 48.811793 ], [ 2.56099, 48.812675 ], [ 2.560698, 48.813562 ], [ 2.560435, 48.814452 ], [ 2.560202, 48.815346 ], [ 2.559999, 48.816243 ], [ 2.559825, 48.817143 ], [ 2.559681, 48.818045 ], [ 2.559566, 48.818949 ], [ 2.559482, 48.819854 ], [ 2.559427, 48.820761 ], [ 2.559402, 48.821668 ], [ 2.559444, 48.821667 ], [ 2.559444, 48.821667 ], [ 2.557222, 48.856944 ], [ 2.704722, 48.854722 ], [ 2.712222, 48.8175 ], [ 2.670833, 48.810278 ], [ 2.611944, 48.800556 ] ] ] } },
{ "type": "Feature", "properties": { "name": "MEAUX", "full_name": "RMZ MEAUX", "class": "RMZ", "type": "RMZ", "lower": "SFC", "lowerM": 0, "upper": "1500FT AMSL", "upperM": 457, "desc": "MEAUX TWR SKED", "activationCode": "HO", "UId": "25090922", "id": "LFSRMZPE", "stroke": "#f07800", "stroke-width": 2, "stroke-opacity": 0.8, "fill": "#f07800", "fill-opacity": 0 }, "geometry": { "type": "Polygon", "coordinates": [ [ [ 2.884589, 48.926933 ], [ 2.883938, 48.932277 ], [ 2.88199, 48.937482 ], [ 2.878795, 48.942416 ], [ 2.874437, 48.946948 ], [ 2.869027, 48.950963 ], [ 2.862706, 48.954355 ], [ 2.855637, 48.957037 ], [ 2.848004, 48.958939 ], [ 2.840004, 48.960012 ], [ 2.831846, 48.960228 ], [ 2.823741, 48.959581 ], [ 2.815899, 48.958089 ], [ 2.808524, 48.955789 ], [ 2.801808, 48.952742 ], [ 2.795923, 48.949027 ], [ 2.791023, 48.94474 ], [ 2.787234, 48.939991 ], [ 2.784655, 48.934905 ], [ 2.783351, 48.929613 ], [ 2.783356, 48.924253 ], [ 2.78467, 48.918962 ], [ 2.787258, 48.913878 ], [ 2.791053, 48.909133 ], [ 2.795956, 48.904849 ], [ 2.801841, 48.901137 ], [ 2.808554, 48.898093 ], [ 2.815922, 48.895796 ], [ 2.823754, 48.894306 ], [ 2.831849, 48.89366 ], [ 2.839996, 48.893876 ], [ 2.847986, 48.894947 ], [ 2.855611, 48.896847 ], [ 2.862674, 48.899526 ], [ 2.868993, 48.902915 ], [ 2.874404, 48.906926 ], [ 2.878768, 48.911455 ], [ 2.88197, 48.916386 ], [ 2.883927, 48.92159 ], [ 2.884589, 48.926933 ] ] ] } },
{ "type": "Feature", "properties": { "name": "108", "full_name": "RMZ 108", "class": "RMZ", "type": "RMZ", "lower": "FL195", "lowerM": 5943, "upper": "FL999", "upperM": 30449, "activationCode": "HO", "activationDesc": "FBZ Activation schedules stated in France AUP/UUP.", "UId": "32513168", "id": "LFR108RMZ", "stroke": "#f07800", "stroke-width": 2, "stroke-opacity": 0.8, "fill": "#f07800", "fill-opacity": 0 }, "geometry": { "type": "Polygon", "coordinates": [ [ [ 3.012778, 43.656944 ], [ 3.012509, 43.656934 ], [ 3.012951, 43.659432 ], [ 3.0135, 43.661919 ], [ 3.014155, 43.664392 ], [ 3.014915, 43.66685 ], [ 3.015779, 43.66929 ], [ 3.016748, 43.671709 ], [ 3.017819, 43.674105 ], [ 3.018993, 43.676476 ], [ 3.020267, 43.67882 ], [ 3.021641, 43.681134 ], [ 3.023113, 43.683416 ], [ 3.024682, 43.685665 ], [ 3.026347, 43.687877 ], [ 3.028105, 43.690051 ], [ 3.029956, 43.692184 ], [ 3.031897, 43.694276 ], [ 3.033926, 43.696322 ], [ 3.036042, 43.698323 ], [ 3.038243, 43.700275 ], [ 3.040527, 43.702177 ], [ 3.04289, 43.704027 ], [ 3.045332, 43.705823 ], [ 3.047849, 43.707564 ], [ 3.05044, 43.709248 ], [ 3.053102, 43.710873 ], [ 3.055832, 43.712438 ], [ 3.058628, 43.713941 ], [ 3.061487, 43.715381 ], [ 3.064406, 43.716756 ], [ 3.067382, 43.718065 ], [ 3.070414, 43.719307 ], [ 3.073497, 43.720481 ], [ 3.076629, 43.721585 ], [ 3.079806, 43.722619 ], [ 3.083027, 43.723581 ], [ 3.086287, 43.724471 ], [ 3.089584, 43.725287 ], [ 3.092914, 43.726029 ], [ 3.096275, 43.726697 ], [ 3.099662, 43.727289 ], [ 3.103073, 43.727805 ], [ 3.106505, 43.728244 ], [ 3.109954, 43.728607 ], [ 3.113416, 43.728892 ], [ 3.11689, 43.7291 ], [ 3.12037, 43.72923 ], [ 3.123855, 43.729282 ], [ 3.12734, 43.729256 ], [ 3.130822, 43.729153 ], [ 3.134298, 43.728971 ], [ 3.137765, 43.728712 ], [ 3.141219, 43.728376 ], [ 3.144657, 43.727962 ], [ 3.148075, 43.727472 ], [ 3.151471, 43.726905 ], [ 3.151389, 43.726944 ], [ 3.151389, 43.726944 ], [ 3.9425, 43.5825 ], [ 3.942554, 43.582379 ], [ 3.943524, 43.582195 ], [ 3.944493, 43.582006 ], [ 3.945458, 43.58181 ], [ 3.946422, 43.581607 ], [ 3.947383, 43.581399 ], [ 3.948341, 43.581184 ], [ 3.949296, 43.580962 ], [ 3.950249, 43.580735 ], [ 3.951198, 43.580501 ], [ 3.952145, 43.580261 ], [ 3.953089, 43.580014 ], [ 3.954029, 43.579762 ], [ 3.954966, 43.579503 ], [ 3.9559, 43.579238 ], [ 3.956831, 43.578967 ], [ 3.957758, 43.57869 ], [ 3.958681, 43.578406 ], [ 3.959601, 43.578117 ], [ 3.960518, 43.577821 ], [ 3.96143, 43.57752 ], [ 3.962339, 43.577212 ], [ 3.963244, 43.576899 ], [ 3.964145, 43.576579 ], [ 3.965041, 43.576254 ], [ 3.965934, 43.575922 ], [ 3.966822, 43.575585 ], [ 3.967706, 43.575242 ], [ 3.968586, 43.574893 ], [ 3.969462, 43.574539 ], [ 3.970332, 43.574178 ], [ 3.971199, 43.573812 ], [ 3.97206, 43.57344 ], [ 3.972917, 43.573063 ], [ 3.973769, 43.572679 ], [ 3.974617, 43.572291 ], [ 3.975459, 43.571896 ], [ 3.976296, 43.571496 ], [ 3.977129, 43.571091 ], [ 3.977956, 43.57068 ], [ 3.978778, 43.570264 ], [ 3.979594, 43.569842 ], [ 3.980406, 43.569415 ], [ 3.981211, 43.568982 ], [ 3.982012, 43.568545 ], [ 3.982807, 43.568102 ], [ 3.983596, 43.567654 ], [ 3.98438, 43.5672 ], [ 3.985158, 43.566742 ], [ 3.98593, 43.566278 ], [ 3.986696, 43.565809 ], [ 3.987456, 43.565335 ], [ 3.98821, 43.564857 ], [ 3.988959, 43.564373 ], [ 3.989701, 43.563884 ], [ 3.989444, 43.563889 ], [ 3.989444, 43.563889 ], [ 4.597222, 43.154444 ], [ 4.597408, 43.154376 ], [ 4.599014, 43.153264 ], [ 4.600588, 43.152129 ], [ 4.602132, 43.150971 ], [ 4.603644, 43.149791 ], [ 4.605123, 43.14859 ], [ 4.60657, 43.147367 ], [ 4.607982, 43.146123 ], [ 4.609361, 43.14486 ], [ 4.610705, 43.143576 ], [ 4.612014, 43.142274 ], [ 4.613287, 43.140953 ], [ 4.614524, 43.139613 ], [ 4.615724, 43.138256 ], [ 4.616887, 43.136882 ], [ 4.618013, 43.135491 ], [ 4.6191, 43.134084 ], [ 4.620149, 43.132662 ], [ 4.621159, 43.131225 ], [ 4.62213, 43.129774 ], [ 4.623061, 43.128308 ], [ 4.623952, 43.12683 ], [ 4.624803, 43.125339 ], [ 4.625613, 43.123836 ], [ 4.626382, 43.122321 ], [ 4.62711, 43.120796 ], [ 4.627796, 43.119261 ], [ 4.62844, 43.117715 ], [ 4.629042, 43.116161 ], [ 4.629602, 43.114599 ], [ 4.630119, 43.113028 ], [ 4.630593, 43.111451 ], [ 4.631024, 43.109866 ], [ 4.631413, 43.108276 ], [ 4.631758, 43.106681 ], [ 4.632059, 43.105081 ], [ 4.632317, 43.103477 ], [ 4.632532, 43.101869 ], [ 4.632702, 43.100259 ], [ 4.632829, 43.098646 ], [ 4.632913, 43.097032 ], [ 4.632952, 43.095417 ], [ 4.632947, 43.093802 ], [ 4.632899, 43.092188 ], [ 4.632807, 43.090574 ], [ 4.632671, 43.088962 ], [ 4.632491, 43.087352 ], [ 4.632268, 43.085745 ], [ 4.632001, 43.084142 ], [ 4.631691, 43.082543 ], [ 4.631337, 43.080948 ], [ 4.63094, 43.079359 ], [ 4.6305, 43.077776 ], [ 4.630017, 43.0762 ], [ 4.629492, 43.074631 ], [ 4.628924, 43.07307 ], [ 4.628611, 43.073056 ], [ 4.628611, 43.073056 ], [ 4.560556, 42.8925 ], [ 4.560897, 42.892509 ], [ 4.560647, 42.891857 ], [ 4.56039, 42.891207 ], [ 4.560125, 42.890559 ], [ 4.559853, 42.889912 ], [ 4.559574, 42.889266 ], [ 4.559288, 42.888623 ], [ 4.558994, 42.887981 ], [ 4.558693, 42.887341 ], [ 4.558385, 42.886703 ], [ 4.558069, 42.886066 ], [ 4.557747, 42.885432 ], [ 4.557417, 42.8848 ], [ 4.55708, 42.884169 ], [ 4.556736, 42.883541 ], [ 4.556385, 42.882915 ], [ 4.556026, 42.882291 ], [ 4.555661, 42.881669 ], [ 4.555289, 42.881049 ], [ 4.554909, 42.880432 ], [ 4.554523, 42.879817 ], [ 4.55413, 42.879205 ], [ 4.55373, 42.878594 ], [ 4.553323, 42.877987 ], [ 4.552909, 42.877382 ], [ 4.552488, 42.876779 ], [ 4.55206, 42.876179 ], [ 4.551626, 42.875581 ], [ 4.551185, 42.874987 ], [ 4.550737, 42.874394 ], [ 4.550283, 42.873805 ], [ 4.549821, 42.873219 ], [ 4.549354, 42.872635 ], [ 4.548879, 42.872054 ], [ 4.548398, 42.871476 ], [ 4.547911, 42.870901 ], [ 4.547417, 42.870329 ], [ 4.546917, 42.86976 ], [ 4.54641, 42.869194 ], [ 4.545897, 42.868631 ], [ 4.545377, 42.868071 ], [ 4.544851, 42.867515 ], [ 4.544319, 42.866962 ], [ 4.543781, 42.866411 ], [ 4.543236, 42.865865 ], [ 4.542685, 42.865321 ], [ 4.542128, 42.864781 ], [ 4.541565, 42.864245 ], [ 4.540996, 42.863711 ], [ 4.540421, 42.863182 ], [ 4.53984, 42.862655 ], [ 4.539253, 42.862133 ], [ 4.53866, 42.861614 ], [ 4.538062, 42.861098 ], [ 4.537457, 42.860586 ], [ 4.536847, 42.860078 ], [ 4.536667, 42.86 ], [ 4.536667, 42.86 ], [ 3.826389, 42.261111 ], [ 3.2, 42.45 ], [ 3.174706962121541, 42.43132867835768 ], [ 3.166667, 42.433333 ], [ 3.158889, 42.442222 ], [ 3.155, 42.443333 ], [ 3.154722, 42.443333 ], [ 3.144722, 42.443611 ], [ 3.143611, 42.443611 ], [ 3.129722, 42.443889 ], [ 3.119167, 42.445 ], [ 3.114167, 42.444722 ], [ 3.108333, 42.444722 ], [ 3.103056, 42.441944 ], [ 3.098333, 42.438611 ], [ 3.097222, 42.436944 ], [ 3.092778, 42.435278 ], [ 3.088333, 42.436111 ], [ 3.086382208791639, 42.436327927982369 ], [ 3.086389, 42.436389 ], [ 2.887778, 42.723889 ], [ 2.887579, 42.723946 ], [ 2.88705, 42.724717 ], [ 2.886532, 42.725492 ], [ 2.886025, 42.726271 ], [ 2.88553, 42.727054 ], [ 2.885046, 42.727841 ], [ 2.884574, 42.728632 ], [ 2.884113, 42.729426 ], [ 2.883664, 42.730224 ], [ 2.883227, 42.731026 ], [ 2.882802, 42.731831 ], [ 2.882389, 42.732639 ], [ 2.881987, 42.733451 ], [ 2.881598, 42.734266 ], [ 2.88122, 42.735083 ], [ 2.880855, 42.735904 ], [ 2.880502, 42.736728 ], [ 2.88016, 42.737554 ], [ 2.879831, 42.738383 ], [ 2.879514, 42.739214 ], [ 2.87921, 42.740048 ], [ 2.878918, 42.740885 ], [ 2.878638, 42.741723 ], [ 2.87837, 42.742564 ], [ 2.878115, 42.743407 ], [ 2.877872, 42.744252 ], [ 2.877641, 42.745099 ], [ 2.877424, 42.745947 ], [ 2.877218, 42.746797 ], [ 2.877025, 42.747649 ], [ 2.876845, 42.748502 ], [ 2.876677, 42.749357 ], [ 2.876522, 42.750213 ], [ 2.876379, 42.75107 ], [ 2.876249, 42.751928 ], [ 2.876132, 42.752787 ], [ 2.876027, 42.753647 ], [ 2.875935, 42.754508 ], [ 2.875856, 42.75537 ], [ 2.875789, 42.756232 ], [ 2.875735, 42.757094 ], [ 2.875694, 42.757957 ], [ 2.875665, 42.75882 ], [ 2.875649, 42.759684 ], [ 2.875646, 42.760547 ], [ 2.875656, 42.761411 ], [ 2.875678, 42.762274 ], [ 2.875713, 42.763137 ], [ 2.875761, 42.764 ], [ 2.875821, 42.764862 ], [ 2.875894, 42.765724 ], [ 2.87598, 42.766585 ], [ 2.876079, 42.767445 ], [ 2.87619, 42.768305 ], [ 2.876313, 42.769164 ], [ 2.876667, 42.769167 ], [ 2.876667, 42.769167 ], [ 3.012778, 43.656944 ] ] ] } },
{ "type": "Feature", "properties": { "name": "BISCARROSSE", "full_name": "RMZ BISCARROSSE", "class": "RMZ", "type": "RMZ", "lower": "1000FT AMSL", "lowerM": 304, "upper": "4000FT AMSL", "upperM": 1219, "desc": "RMZ inactive: - outside LFBS ATS SKED (see AD2.3) - during LF-R31A6/TMA6 activity (CAZAUX APP)", "activationCode": "HO", "UId": "52920001", "id": "LFSRMZBS", "stroke": "#f07800", "stroke-width": 2, "stroke-opacity": 0.8, "fill": "#f07800", "fill-opacity": 0 }, "geometry": { "type": "Polygon", "coordinates": [ [ [ -1.079167, 44.391667 ], [ -0.922222, 44.2 ], [ -1.180556, 44.2 ], [ -1.180556, 44.391667 ], [ -1.079167, 44.391667 ] ] ] } },
{ "type": "Feature", "properties": { "name": "MURET 2", "full_name": "RMZ MURET 2", "class": "RMZ", "type": "RMZ", "lower": "2400FT AMSL", "lowerM": 731, "upper": "3000FT AMSL", "upperM": 914, "desc": "MURET ATS SKED When active, RMZ MURET 2 coexists with the TMA TOULOUSE part which it interferes with.", "activationCode": "HO", "UId": "25092031", "id": "LFSRMZBR2", "stroke": "#f07800", "stroke-width": 2, "stroke-opacity": 0.8, "fill": "#f07800", "fill-opacity": 0 }, "geometry": { "type": "Polygon", "coordinates": [ [ [ 1.174167, 43.442222 ], [ 1.213333, 43.491944 ], [ 1.258333, 43.477222 ], [ 1.341667, 43.449722 ], [ 1.337222, 43.405556 ], [ 1.304167, 43.394722 ], [ 1.174167, 43.442222 ] ] ] } },
{ "type": "Feature", "properties": { "name": "MURET 1", "full_name": "RMZ MURET 1", "class": "RMZ", "type": "RMZ", "lower": "SFC", "lowerM": 0, "upper": "2400FT AMSL", "upperM": 731, "desc": "MURET ATS SKED", "activationCode": "HO", "UId": "25091898", "id": "LFSRMZBR1", "stroke": "#f07800", "stroke-width": 2, "stroke-opacity": 0.8, "fill": "#f07800", "fill-opacity": 0 }, "geometry": { "type": "Polygon", "coordinates": [ [ [ 1.174167, 43.442222 ], [ 1.213333, 43.491944 ], [ 1.258333, 43.477222 ], [ 1.341667, 43.449722 ], [ 1.337222, 43.405556 ], [ 1.304167, 43.394722 ], [ 1.174167, 43.442222 ] ] ] } },
{ "type": "Feature", "properties": { "name": "QUIBERON", "full_name": "RMZ QUIBERON", "class": "RMZ", "type": "RMZ", "lower": "SFC", "lowerM": 0, "upper": "2500FT AMSL", "upperM": 762, "desc": "QUIBERON AFIS SKED", "activationCode": "HX", "UId": "52922192", "id": "LFSRMZEQ", "stroke": "#f07800", "stroke-width": 2, "stroke-opacity": 0.8, "fill": "#f07800", "fill-opacity": 0 }, "geometry": { "type": "Polygon", "coordinates": [ [ [ -3.156944, 47.514444 ], [ -3.157134, 47.514456 ], [ -3.1502, 47.519108 ], [ -3.142417, 47.523101 ], [ -3.133921, 47.526367 ], [ -3.124861, 47.528847 ], [ -3.115396, 47.530498 ], [ -3.105691, 47.531293 ], [ -3.095915, 47.531215 ], [ -3.086239, 47.530268 ], [ -3.076834, 47.528467 ], [ -3.067863, 47.525844 ], [ -3.059483, 47.522445 ], [ -3.051841, 47.51833 ], [ -3.04507, 47.513569 ], [ -3.039288, 47.508248 ], [ -3.034596, 47.502457 ], [ -3.031075, 47.4963 ], [ -3.028787, 47.489882 ], [ -3.027771, 47.483317 ], [ -3.028044, 47.476719 ], [ -3.029601, 47.470202 ], [ -3.032415, 47.463881 ], [ -3.036435, 47.457866 ], [ -3.041592, 47.452261 ], [ -3.047796, 47.447164 ], [ -3.054937, 47.442664 ], [ -3.062892, 47.43884 ], [ -3.071521, 47.435757 ], [ -3.080675, 47.433469 ], [ -3.090194, 47.432017 ], [ -3.099913, 47.431426 ], [ -3.109663, 47.431705 ], [ -3.119273, 47.43285 ], [ -3.128577, 47.434841 ], [ -3.137412, 47.437644 ], [ -3.145626, 47.441209 ], [ -3.153075, 47.445474 ], [ -3.159628, 47.450366 ], [ -3.165172, 47.4558 ], [ -3.16961, 47.461679 ], [ -3.169444, 47.461667 ], [ -3.169444, 47.461667 ], [ -3.145278, 47.483611 ], [ -3.156944, 47.514444 ] ] ] } },
{ "type": "Feature", "properties": { "name": "PIERREFONDS", "full_name": "RMZ PIERREFONDS", "class": "RMZ", "type": "RMZ", "lower": "SFC", "lowerM": 0, "upper": "2500FT AGL", "ordinalUpperM": 762, "upperM": 762, "groundEstimatedHeight": [ 0, 0, 0, 0 ], "desc": "PIERREFONDS AFIS SKED", "activationCode": "HO", "UId": "54729980", "id": "FMSRMZEP", "stroke": "#f07800", "stroke-width": 2, "stroke-opacity": 0.8, "fill": "#f07800", "fill-opacity": 0 }, "geometry": { "type": "Polygon", "coordinates": [ [ [ 55.285, -21.184722 ], [ 55.565, -21.35 ], [ 55.528889, -21.399167 ], [ 55.275, -21.243889 ], [ 55.285, -21.184722 ] ] ] } },
{ "type": "Feature", "properties": { "name": "CASTRES", "full_name": "RMZ CASTRES", "class": "RMZ", "type": "RMZ", "lower": "SFC", "lowerM": 0, "upper": "3000FT AMSL", "upperM": 914, "desc": "Pilots must be aware that AFIS service can be provided without prior notice outside the published SKED.", "activationCode": "HX", "activationDesc": "HOR ATS: voir/see AD 2.3", "UId": "27272975", "id": "LFSRMZCK", "stroke": "#f07800", "stroke-width": 2, "stroke-opacity": 0.8, "fill": "#f07800", "fill-opacity": 0 }, "geometry": { "type": "Polygon", "coordinates": [ [ [ 2.298611, 43.563889 ], [ 2.35, 43.54 ], [ 2.334722, 43.568056 ], [ 2.258889, 43.626944 ], [ 2.227778, 43.651111 ], [ 2.227623, 43.651032 ], [ 2.22681, 43.650753 ], [ 2.225999, 43.650472 ], [ 2.225191, 43.650186 ], [ 2.224385, 43.649896 ], [ 2.223582, 43.649603 ], [ 2.222782, 43.649306 ], [ 2.221984, 43.649005 ], [ 2.221189, 43.6487 ], [ 2.220397, 43.648392 ], [ 2.219608, 43.64808 ], [ 2.218822, 43.647764 ], [ 2.218038, 43.647445 ], [ 2.217257, 43.647121 ], [ 2.21648, 43.646794 ], [ 2.215705, 43.646464 ], [ 2.214933, 43.64613 ], [ 2.214164, 43.645792 ], [ 2.213399, 43.64545 ], [ 2.212636, 43.645105 ], [ 2.211876, 43.644756 ], [ 2.21112, 43.644404 ], [ 2.210367, 43.644048 ], [ 2.209617, 43.643689 ], [ 2.208871, 43.643326 ], [ 2.208127, 43.64296 ], [ 2.207387, 43.64259 ], [ 2.206651, 43.642216 ], [ 2.205917, 43.641839 ], [ 2.205188, 43.641459 ], [ 2.204461, 43.641075 ], [ 2.203738, 43.640688 ], [ 2.203019, 43.640298 ], [ 2.202303, 43.639904 ], [ 2.201591, 43.639506 ], [ 2.200882, 43.639105 ], [ 2.200177, 43.638701 ], [ 2.199476, 43.638294 ], [ 2.198778, 43.637883 ], [ 2.198084, 43.637469 ], [ 2.197394, 43.637052 ], [ 2.196707, 43.636632 ], [ 2.196025, 43.636208 ], [ 2.195346, 43.635781 ], [ 2.194671, 43.635351 ], [ 2.194, 43.634918 ], [ 2.193333, 43.634481 ], [ 2.19267, 43.634042 ], [ 2.19201, 43.633599 ], [ 2.191355, 43.633153 ], [ 2.190704, 43.632704 ], [ 2.190057, 43.632252 ], [ 2.189414, 43.631797 ], [ 2.188775, 43.631339 ], [ 2.188141, 43.630878 ], [ 2.18751, 43.630414 ], [ 2.186884, 43.629947 ], [ 2.186262, 43.629477 ], [ 2.185644, 43.629004 ], [ 2.18503, 43.628528 ], [ 2.184421, 43.62805 ], [ 2.183816, 43.627568 ], [ 2.183215, 43.627084 ], [ 2.182619, 43.626597 ], [ 2.182027, 43.626107 ], [ 2.18144, 43.625614 ], [ 2.180857, 43.625118 ], [ 2.180279, 43.62462 ], [ 2.179705, 43.624119 ], [ 2.18, 43.624167 ], [ 2.18, 43.624167 ], [ 2.205833, 43.591111 ], [ 2.263333, 43.538333 ], [ 2.3, 43.521111 ], [ 2.347222, 43.523611 ], [ 2.290278, 43.558333 ], [ 2.298611, 43.563889 ] ] ] } },
{ "type": "Feature", "properties": { "name": "ANGOULEME", "full_name": "RMZ ANGOULEME", "class": "RMZ", "type": "RMZ", "lower": "SFC", "lowerM": 0, "upper": "2300FT AMSL", "upperM": 701, "desc": "Except for LF-R 102 La Braconne which keeps its status when active.", "activationCode": "HO", "UId": "32563320", "id": "LFSRMZBU", "stroke": "#f07800", "stroke-width": 2, "stroke-opacity": 0.8, "fill": "#f07800", "fill-opacity": 0 }, "geometry": { "type": "Polygon", "coordinates": [ [ [ 0.1925, 45.810556 ], [ 0.293611, 45.793611 ], [ 0.431389, 45.732778 ], [ 0.435556, 45.693611 ], [ 0.259444, 45.661111 ], [ 0.150833, 45.691944 ], [ 0.141944, 45.733611 ], [ 0.1925, 45.810556 ] ] ] } },
{ "type": "Feature", "properties": { "name": "LA MOLE", "full_name": "RMZ LA MOLE", "class": "RMZ", "type": "RMZ", "lower": "SFC", "lowerM": 0, "upper": "2100FT AMSL", "upperM": 640, "desc": "HOR ATS: voir/see AD 2 LFTZ.3.7", "activationCode": "HO", "UId": "25091461", "id": "LFSRMZTZ", "stroke": "#f07800", "stroke-width": 2, "stroke-opacity": 0.8, "fill": "#f07800", "fill-opacity": 0 }, "geometry": { "type": "Polygon", "coordinates": [ [ [ 6.388611, 43.223056 ], [ 6.400833, 43.227778 ], [ 6.487778, 43.253604004168082 ], [ 6.516667, 43.262222 ], [ 6.543611, 43.254167 ], [ 6.556111, 43.256389 ], [ 6.581111, 43.281667 ], [ 6.625278, 43.266667 ], [ 6.571944, 43.221111 ], [ 6.487778, 43.188875600128775 ], [ 6.448056, 43.173611 ], [ 6.431111, 43.185 ], [ 6.388611, 43.223056 ] ] ] } },
{ "type": "Feature", "properties": { "name": "NANCY ESSEY", "full_name": "RMZ NANCY ESSEY", "class": "RMZ", "type": "RMZ", "lower": "SFC", "lowerM": 0, "upper": "2500FT AMSL", "upperM": 762, "activationCode": "HO", "activationDesc": "HOR ATC: voir/see AD 2 LFSN.3.7", "UId": "40503096", "id": "LFSRMZSN", "stroke": "#f07800", "stroke-width": 2, "stroke-opacity": 0.8, "fill": "#f07800", "fill-opacity": 0 }, "geometry": { "type": "Polygon", "coordinates": [ [ [ 6.250556, 48.735833 ], [ 6.321944, 48.7225 ], [ 6.313889, 48.71 ], [ 6.314014, 48.709973 ], [ 6.315157, 48.707281 ], [ 6.316112, 48.704557 ], [ 6.316875, 48.701807 ], [ 6.317445, 48.699036 ], [ 6.317821, 48.696252 ], [ 6.318002, 48.693458 ], [ 6.317989, 48.690663 ], [ 6.31778, 48.68787 ], [ 6.317376, 48.685087 ], [ 6.316779, 48.682319 ], [ 6.315989, 48.679572 ], [ 6.315009, 48.676852 ], [ 6.31384, 48.674165 ], [ 6.312484, 48.671516 ], [ 6.310946, 48.668912 ], [ 6.309228, 48.666356 ], [ 6.307333, 48.663856 ], [ 6.305267, 48.661416 ], [ 6.303032, 48.659042 ], [ 6.300635, 48.656738 ], [ 6.298079, 48.654509 ], [ 6.295371, 48.65236 ], [ 6.292516, 48.650296 ], [ 6.289521, 48.648321 ], [ 6.286391, 48.64644 ], [ 6.283134, 48.644655 ], [ 6.279756, 48.642971 ], [ 6.276264, 48.641392 ], [ 6.272666, 48.639921 ], [ 6.26897, 48.63856 ], [ 6.265183, 48.637314 ], [ 6.261313, 48.636184 ], [ 6.257368, 48.635173 ], [ 6.253358, 48.634283 ], [ 6.24929, 48.633516 ], [ 6.245172, 48.632873 ], [ 6.241015, 48.632356 ], [ 6.236826, 48.631966 ], [ 6.232614, 48.631704 ], [ 6.228388, 48.631571 ], [ 6.224158, 48.631566 ], [ 6.224167, 48.631667 ], [ 6.224167, 48.631667 ], [ 6.195, 48.590278 ], [ 6.115, 48.618333 ], [ 6.138889, 48.645833 ], [ 6.185556, 48.687222 ], [ 6.234444, 48.714722 ], [ 6.250556, 48.735833 ] ] ] } }
]
}
