{"type":"FeatureCollection","headerFile":{"software":"(aixmParser v2.26.4) ","created":"2026-05-17T14:46:23.656100","content":"airspaces-all","allMap":true,"numberOfAreas":4549,"srcFiles":{"1":{"srcAixmFile":"..\\tst\\AIXM4.5_all_FR_OM_2026-05-14.xml","srcAixmOrigin":"Sia-France","srcAixmVersion":"4.5","srcAixmCreated":"2026-03-23T19:09:15.593+01:00","srcAixmEffective":"2026-05-14T00:00:00.000+02:00"}}},"features":[{"type":"Feature","properties":{"name":"MONTELIMAR","nameV":"TMZ MONTELIMAR","class":"TMZ","type":"TMZ","lower":"FL055","lowerM":1676,"upper":"FL115","upperM":3505,"desc":"GAT VFR squawk 7000 / OAT V squawk 0300 or allocated code by PROVENCE INFO","activationCode":"H24","UId":"26276552","id":"LFSTMZ003","stroke":"#ff0000","stroke-width":2,"stroke-opacity":0.8,"fill":"#ff8080","fill-opacity":0.3},"geometry":{"type":"Polygon","coordinates":[[[4.719444,44.568611],[4.763611,44.334722],[4.829444,44.298056],[4.829387,44.297737],[4.830389,44.297852],[4.831391,44.297964],[4.832394,44.298073],[4.833398,44.298179],[4.834402,44.298281],[4.835407,44.298381],[4.836413,44.298477],[4.837419,44.29857],[4.838426,44.29866],[4.839433,44.298747],[4.840441,44.29883],[4.841449,44.298911],[4.842458,44.298988],[4.843467,44.299062],[4.844476,44.299133],[4.845486,44.299201],[4.846497,44.299266],[4.847508,44.299327],[4.848519,44.299386],[4.84953,44.299441],[4.850542,44.299493],[4.851554,44.299542],[4.852567,44.299587],[4.85358,44.29963],[4.854593,44.299669],[4.855606,44.299705],[4.856619,44.299738],[4.857633,44.299768],[4.858647,44.299795],[4.859661,44.299819],[4.860675,44.299839],[4.861689,44.299856],[4.862703,44.29987],[4.863718,44.299881],[4.864732,44.299888],[4.865747,44.299893],[4.866761,44.299894],[4.867776,44.299892],[4.86879,44.299887],[4.869805,44.299879],[4.870819,44.299868],[4.871833,44.299853],[4.872848,44.299835],[4.873862,44.299814],[4.874876,44.29979],[4.875889,44.299763],[4.876903,44.299733],[4.877916,44.299699],[4.87893,44.299662],[4.879942,44.299622],[4.880955,44.299579],[4.881968,44.299533],[4.88298,44.299483],[4.883992,44.299431],[4.885003,44.299375],[4.886014,44.299316],[4.887025,44.299254],[4.886944,44.299167],[4.886944,44.299167],[4.836944,44.566667],[4.719444,44.568611]]]}},{"type":"Feature","properties":{"name":"SAINT TROPEZ","nameV":"TMZ SAINT TROPEZ","class":"TMZ","type":"TMZ","lower":"2100FT AMSL","lowerM":640,"upper":"3500FT AMSL","upperM":1066,"desc":"Squawk 7000 or allocated code by NICE INFO.","activationCode":"H24","UId":"25091109","id":"LFSTMZ002","stroke":"#ff0000","stroke-width":2,"stroke-opacity":0.8,"fill":"#ff8080","fill-opacity":0.3},"geometry":{"type":"Polygon","coordinates":[[[6.5025,43.313889],[6.7275,43.289722],[6.7275,43.121389],[6.483333,43.15],[6.433333,43.183333],[6.388889,43.222222],[6.4,43.227778],[6.472222,43.276389],[6.5025,43.313889]]]}},{"type":"Feature","properties":{"name":"SARREBRUCK","nameV":"TMZ SARREBRUCK","class":"TMZ","type":"TMZ","lower":"2500FT AMSL","lowerM":762,"upper":"FL065","upperM":1981,"desc":"0500-2130 SUM: - 1HR Excluding the French part of SARREBRUCK CTR.","activationCode":"HO","UId":"25091580","id":"LFSTMZ001","stroke":"#ff0000","stroke-width":2,"stroke-opacity":0.8,"fill":"#ff8080","fill-opacity":0.3},"geometry":{"type":"Polygon","coordinates":[[[7.032764312815383,49.16277941434242],[7.032914,49.164228],[7.029275,49.166842],[7.027647,49.170589],[7.0285,49.175719],[7.033833,49.182614],[7.033308,49.187958],[7.035022,49.191417],[7.027922,49.191267],[7.023228,49.189192],[7.02135,49.193211],[7.015622,49.191225],[7.01345,49.188658],[7.0108,49.187939],[7.008903,49.193981],[6.999486,49.194464],[6.997147,49.197728],[6.992569,49.200775],[6.975178,49.209439],[6.972597,49.209517],[6.959636,49.203097],[6.951131,49.207742],[6.939853,49.216797],[6.938192,49.222453],[6.928533,49.222108],[6.925144,49.223356],[6.918733,49.222692],[6.918839,49.219992],[6.911522,49.215061],[6.900586,49.213689],[6.8934,49.209139],[6.873092,49.214867],[6.870497,49.218803],[6.862928,49.222289],[6.858839,49.222775],[6.838092,49.2135],[6.836222,49.211275],[6.842375,49.208847],[6.852167,49.200092],[6.850533,49.193278],[6.858489,49.186786],[6.859519,49.183525],[6.861731,49.181844],[6.859069,49.174644],[6.855614,49.175033],[6.844331,49.173047],[6.845406,49.168333],[6.844553,49.163986],[6.847706,49.157208],[6.845275505728771,49.156116554387566],[6.845278,49.156111],[7.032764312815383,49.16277941434242]]]}},{"type":"Feature","properties":{"name":"SEINE","nameV":"TMZ SEINE","class":"TMZ","type":"TMZ","lower":"2500FT AMSL","lowerM":762,"upper":"3500FT AMSL","upperM":1066,"desc":"Active when Tours CTR is active and Seine part 7.2 TMA is inactive. Squawk 7000 or allocated code by PARIS INFO.","activationCode":"HX","UId":"61220682","id":"LFSTMZ005","stroke":"#ff0000","stroke-width":2,"stroke-opacity":0.8,"fill":"#ff8080","fill-opacity":0.3},"geometry":{"type":"Polygon","coordinates":[[[0.726667,47.2175],[0.618333,47.097778],[0.606111,47.101389],[0.666667,47.194167],[0.726667,47.2175]]]}},{"type":"Feature","properties":{"name":"SEINE","nameV":"TMZ SEINE","class":"TMZ","type":"TMZ","lower":"2500FT AMSL","lowerM":762,"upper":"3500FT AMSL","upperM":1066,"desc":"Except for LF-P 29 LE RIPAULT. Active when Tours CTR is active and Seine part 7.1 TMA is inactive. Squawk 7000 or allocated code by PARIS INFO.","activationCode":"HX","UId":"61209355","id":"LFSTMZ004","stroke":"#ff0000","stroke-width":2,"stroke-opacity":0.8,"fill":"#ff8080","fill-opacity":0.3},"geometry":{"type":"Polygon","coordinates":[[[0.726389,47.764167],[0.838611,47.763333],[0.897222,47.750278],[0.976667,47.689722],[0.932222,47.4425],[0.848611,47.268611],[0.726667,47.2175],[0.666667,47.194167],[0.606111,47.101389],[0.544167,47.120278],[0.479167,47.146389],[0.555556,47.383611],[0.615278,47.533056],[0.726389,47.764167]]]}},{"type":"Feature","properties":{"name":"SEINE","nameV":"TMZ SEINE","class":"TMZ","type":"TMZ","lower":"3500FT AMSL","lowerM":1066,"upper":"4500FT AMSL","upperM":1371,"desc":"Active when Tours CTR is active and Seine part 8 TMA is inactive. Squawk 7000 or allocated code by PARIS INFO.","activationCode":"HX","UId":"61220692","id":"LFSTMZ006","stroke":"#ff0000","stroke-width":2,"stroke-opacity":0.8,"fill":"#ff8080","fill-opacity":0.3},"geometry":{"type":"Polygon","coordinates":[[[0.726389,47.764167],[0.838611,47.763333],[0.897222,47.750278],[0.976667,47.689722],[0.932222,47.4425],[0.848611,47.268611],[0.726667,47.2175],[0.618333,47.097778],[0.606111,47.101389],[0.544167,47.120278],[0.479167,47.146389],[0.332778,47.2125],[0.548889,47.757222],[0.726389,47.764167]]]}},{"type":"Feature","properties":{"name":"SEINE","nameV":"TMZ SEINE","class":"TMZ","type":"TMZ","lower":"4500FT AMSL","lowerM":1371,"upper":"FL065","upperM":1981,"desc":"Active when Tours CTR is active and Seine part 9 TMA is inactive. Squawk 7000 or allocated code by PARIS INFO.","activationCode":"HX","UId":"61220721","id":"LFSTMZ007","stroke":"#ff0000","stroke-width":2,"stroke-opacity":0.8,"fill":"#ff8080","fill-opacity":0.3},"geometry":{"type":"Polygon","coordinates":[[[0.772222,47.85],[1.005556,47.85],[0.976667,47.689722],[0.932222,47.4425],[0.848611,47.268611],[0.726667,47.2175],[0.618333,47.097778],[0.496111,46.961944],[0.332778,47.2125],[0.336111,47.458333],[0.369722,47.543611],[0.548889,47.757222],[0.772222,47.85]]]}},{"type":"Feature","properties":{"name":"SEINE","nameV":"TMZ SEINE","class":"TMZ","type":"TMZ","lower":"FL065","lowerM":1981,"upper":"FL115","upperM":3505,"desc":"Active when Tours CTR is active and Seine part 10 TMA is inactive. Squawk 7000 or allocated code by PARIS INFO.","activationCode":"HX","UId":"61220739","id":"LFSTMZ008","stroke":"#ff0000","stroke-width":2,"stroke-opacity":0.8,"fill":"#ff8080","fill-opacity":0.3},"geometry":{"type":"Polygon","coordinates":[[[0.772222,47.85],[1.005556,47.85],[0.976667,47.689722],[0.932222,47.4425],[0.726667,47.2175],[0.618333,47.097778],[0.496111,46.961944],[0.332778,47.2125],[0.284167,47.435833],[0.341111,47.580556],[0.548889,47.757222],[0.772222,47.85]]]}}]}