{"type":"FeatureCollection","headerFile":{"software":"(aixmParser v2.26.4) ","created":"2026-05-17T14:46:23.656100","content":"airspaces-all","allMap":true,"numberOfAreas":4549,"srcFiles":{"1":{"srcAixmFile":"..\\tst\\AIXM4.5_all_FR_OM_2026-05-14.xml","srcAixmOrigin":"Sia-France","srcAixmVersion":"4.5","srcAixmCreated":"2026-03-23T19:09:15.593+01:00","srcAixmEffective":"2026-05-14T00:00:00.000+02:00"}}},"features":[{"type":"Feature","properties":{"name":"CAYENNE","nameV":"UTA CAYENNE","class":"A","type":"UTA","lower":"FL245","lowerM":7467,"upper":"FL660","upperM":20116,"activationCode":"H24","UId":"1563511","id":"UTA4343","stroke":"#ff0000","stroke-width":2,"stroke-opacity":0.8,"fill":"#ff8080","fill-opacity":0.1},"geometry":{"type":"Polygon","coordinates":[[[-54.0,9.333333],[-48.0,10.0],[-37.5,13.5],[-35.0,7.666667],[-40.0,5.0],[-48.0,5.0],[-51.0,4.5],[-51.639167,4.394722],[-51.632547,4.354689],[-51.609208,4.254153],[-51.634431,4.188461],[-51.632903,4.137714],[-51.653647,4.054114],[-51.712628,4.018739],[-51.747242,4.007764],[-51.779961,3.963453],[-51.778711,3.936669],[-51.790239,3.895783],[-51.802311,3.880928],[-51.816919,3.873831],[-51.822722,3.858647],[-51.849575,3.837481],[-51.866264,3.811592],[-51.879247,3.802625],[-51.901158,3.793022],[-51.922361,3.774756],[-51.920183,3.757192],[-51.913972,3.741433],[-51.918906,3.724367],[-51.965453,3.720583],[-51.975689,3.686614],[-51.9836,3.675789],[-51.985311,3.651908],[-51.989064,3.626928],[-52.018797,3.590083],[-52.056078,3.521378],[-52.066853,3.519378],[-52.066586,3.508803],[-52.0787,3.490256],[-52.089678,3.464003],[-52.098947,3.453428],[-52.112297,3.439239],[-52.222447,3.251944],[-52.238756,3.238006],[-52.247186,3.253036],[-52.254469,3.255008],[-52.270683,3.239333],[-52.285614,3.228108],[-52.288836,3.213442],[-52.295969,3.198247],[-52.294456,3.174372],[-52.330164,3.171839],[-52.330636,3.152439],[-52.340514,3.138997],[-52.352822,3.1385],[-52.3543,3.132158],[-52.353175,3.125314],[-52.340686,3.123836],[-52.347214,3.108914],[-52.344917,3.0982],[-52.326089,3.079322],[-52.350589,3.037661],[-52.355394,3.023728],[-52.361822,3.020111],[-52.371186,2.990625],[-52.371172,2.978567],[-52.382764,2.953067],[-52.392536,2.948822],[-52.390542,2.937636],[-52.395228,2.930542],[-52.390397,2.921964],[-52.376658,2.919378],[-52.391108,2.899092],[-52.406075,2.899814],[-52.412006,2.893964],[-52.421522,2.893083],[-52.477161,2.785328],[-52.479133,2.778861],[-52.475772,2.766431],[-52.482442,2.758581],[-52.481439,2.747764],[-52.490197,2.730969],[-52.497608,2.724122],[-52.5108,2.693764],[-52.518461,2.685672],[-52.526717,2.664028],[-52.529892,2.650794],[-52.547603,2.653431],[-52.555011,2.636836],[-52.545711,2.629442],[-52.542367,2.621242],[-52.548289,2.610908],[-52.532447,2.599739],[-52.52835,2.587808],[-52.532042,2.575867],[-52.539817,2.558078],[-52.549578,2.562233],[-52.5581,2.5445],[-52.554994,2.535675],[-52.549297,2.529967],[-52.547058,2.522942],[-52.575228,2.499597],[-52.593386,2.474144],[-52.612653,2.473561],[-52.619569,2.466589],[-52.618078,2.459256],[-52.608547,2.452675],[-52.608667,2.447078],[-52.632144,2.441461],[-52.642022,2.431375],[-52.641267,2.418072],[-52.653856,2.403381],[-52.652981,2.393933],[-52.659142,2.3726],[-52.689044,2.366414],[-52.712636,2.354069],[-52.717075,2.344372],[-52.739069,2.335022],[-52.804033,2.295397],[-52.835558,2.288828],[-52.836264,2.2787],[-52.851858,2.278861],[-52.847617,2.265131],[-52.865672,2.256961],[-52.876261,2.242967],[-52.874022,2.235014],[-52.883908,2.234747],[-52.885128,2.216844],[-52.902164,2.184806],[-52.914006,2.189339],[-52.9343,2.189736],[-52.937133,2.175311],[-52.97975,2.166803],[-52.993447,2.175192],[-53.047497,2.189089],[-53.072142,2.222867],[-53.129975,2.224275],[-53.179583,2.212097],[-53.199478,2.212194],[-53.217625,2.202097],[-53.2408,2.213669],[-53.251733,2.20615],[-53.265533,2.180653],[-53.278628,2.182369],[-53.286308,2.191806],[-53.253678,2.226575],[-53.248761,2.243986],[-53.226536,2.253467],[-53.229339,2.270575],[-53.301686,2.315333],[-53.312536,2.338844],[-53.351233,2.346236],[-53.376186,2.313103],[-53.407022,2.305375],[-53.420997,2.291522],[-53.436925,2.289508],[-53.442836,2.277692],[-53.462603,2.277161],[-53.464186,2.261875],[-53.4821,2.261222],[-53.503961,2.256086],[-53.532253,2.261133],[-53.564594,2.259867],[-53.618022,2.2886],[-53.640122,2.273736],[-53.660908,2.292967],[-53.660311,2.3044],[-53.673653,2.306108],[-53.685494,2.296028],[-53.706644,2.312011],[-53.721089,2.306397],[-53.746858,2.309728],[-53.749028,2.325628],[-53.733569,2.336592],[-53.736731,2.353483],[-53.749483,2.365983],[-53.743081,2.375936],[-53.753453,2.373925],[-53.780747,2.370772],[-53.7944,2.360325],[-53.811469,2.353189],[-53.828086,2.329444],[-53.819803,2.3205],[-53.822503,2.312922],[-53.858311,2.307003],[-53.874,2.308958],[-53.883253,2.305344],[-53.887775,2.280858],[-53.912772,2.263181],[-53.926297,2.280544],[-53.937667,2.283503],[-53.944067,2.273553],[-53.9424,2.257158],[-53.933458,2.231833],[-53.943797,2.215414],[-54.003203,2.205219],[-54.011558,2.184089],[-54.033164,2.183667],[-54.06495,2.195292],[-54.100906,2.155469],[-54.099217,2.133114],[-54.10955,2.113717],[-54.141814,2.115142],[-54.155194,2.129025],[-54.176433,2.139414],[-54.193292,2.173161],[-54.232583,2.147742],[-54.253008,2.156144],[-54.280156,2.151117],[-54.313258,2.159489],[-54.334811,2.154972],[-54.365769,2.193647],[-54.355672,2.210061],[-54.361869,2.215889],[-54.38675,2.198069],[-54.423803,2.199972],[-54.432592,2.211628],[-54.463556,2.205342],[-54.479781,2.215236],[-54.491675,2.234578],[-54.540478,2.271092],[-54.526194,2.288628],[-54.543458,2.329814],[-54.582083,2.325867],[-54.598611,2.34],[-54.598611,2.34],[-54.593306,2.351528],[-54.570672,2.357436],[-54.53355,2.344231],[-54.530875,2.337186],[-54.505889,2.339831],[-54.505347,2.345936],[-54.511428,2.357842],[-54.509853,2.374614],[-54.499636,2.4059],[-54.470092,2.437267],[-54.434533,2.435867],[-54.430594,2.43985],[-54.418742,2.439881],[-54.399556,2.468242],[-54.388706,2.473733],[-54.386764,2.48715],[-54.375089,2.489942],[-54.372986,2.507053],[-54.362628,2.51155],[-54.360475,2.519169],[-54.351958,2.521297],[-54.3505,2.531117],[-54.344464,2.537464],[-54.345031,2.565025],[-54.333314,2.569653],[-54.330142,2.585556],[-54.323744,2.594642],[-54.319439,2.613492],[-54.313022,2.615992],[-54.317017,2.631878],[-54.311139,2.637639],[-54.307222,2.649822],[-54.288953,2.666228],[-54.275631,2.672225],[-54.276658,2.687125],[-54.267419,2.688314],[-54.266572,2.693403],[-54.27165,2.698111],[-54.265397,2.723917],[-54.257908,2.732056],[-54.246161,2.735394],[-54.242261,2.744761],[-54.232769,2.752736],[-54.221514,2.755828],[-54.224522,2.76245],[-54.221542,2.766261],[-54.215614,2.765781],[-54.209242,2.774786],[-54.2068,2.795611],[-54.200419,2.801022],[-54.197717,2.808597],[-54.202903,2.815992],[-54.201972,2.826725],[-54.2047,2.832181],[-54.194567,2.838369],[-54.191586,2.833411],[-54.182225,2.842875],[-54.181764,2.854303],[-54.17585,2.859783],[-54.177839,2.865242],[-54.184775,2.8687],[-54.193733,2.891033],[-54.182936,2.916897],[-54.188883,2.923833],[-54.186919,2.928311],[-54.174089,2.934308],[-54.17065,2.941275],[-54.179075,2.949697],[-54.172903,2.949767],[-54.172167,2.9535],[-54.175633,2.956164],[-54.175172,2.967094],[-54.162325,2.968125],[-54.162344,2.974583],[-54.171497,2.976483],[-54.178178,2.981992],[-54.179692,2.992969],[-54.183178,3.001847],[-54.176283,3.009817],[-54.184278,3.040097],[-54.192203,3.046036],[-54.193719,3.057956],[-54.183856,3.064939],[-54.176964,3.073406],[-54.183422,3.085311],[-54.174086,3.103222],[-54.183561,3.131511],[-54.195919,3.132467],[-54.200836,3.124503],[-54.209733,3.123978],[-54.215186,3.129925],[-54.206325,3.140881],[-54.218206,3.1478],[-54.20935,3.161239],[-54.195167,3.209472],[-54.182811,3.209511],[-54.176908,3.218472],[-54.154203,3.228975],[-54.1503,3.244886],[-54.137017,3.262814],[-54.123544,3.271372],[-54.11665,3.282325],[-54.099058,3.295722],[-54.088169,3.291783],[-54.085675,3.284833],[-54.067408,3.291847],[-54.062581,3.330119],[-54.056722,3.353986],[-54.048861,3.369414],[-54.051375,3.382822],[-54.038072,3.398267],[-54.022292,3.410736],[-54.010478,3.427667],[-54.017931,3.439569],[-54.012561,3.460953],[-54.007139,3.466933],[-54.007264,3.505689],[-53.999889,3.519625],[-54.000908,3.528564],[-54.007372,3.539972],[-54.000494,3.553908],[-54.002022,3.567814],[-53.983281,3.582783],[-53.978428,3.611619],[-53.991306,3.617539],[-53.989358,3.626986],[-54.003294,3.653772],[-54.023553,3.647742],[-54.025983,3.634814],[-54.049719,3.634733],[-54.050794,3.660069],[-54.078547,3.674383],[-54.085531,3.691747],[-54.077181,3.708669],[-54.123983,3.796939],[-54.141322,3.804825],[-54.173969,3.8057],[-54.186808,3.800186],[-54.200714,3.816033],[-54.186953,3.839433],[-54.193919,3.850833],[-54.237994,3.866064],[-54.257958,3.912683],[-54.271328,3.916606],[-54.289206,3.935411],[-54.299711,3.965669],[-54.296342,3.989031],[-54.309806,4.0158],[-54.340897,4.047533],[-54.355481,4.054853],[-54.338342,4.097144],[-54.338422,4.116514],[-54.324933,4.136514],[-54.325008,4.154394],[-54.341061,4.155744],[-54.359439,4.17305],[-54.382208,4.175933],[-54.395697,4.206669],[-54.381547,4.251931],[-54.378622,4.261878],[-54.392628,4.296583],[-54.386825,4.327403],[-54.382453,4.345303],[-54.390444,4.362156],[-54.417222,4.374947],[-54.429844,4.392797],[-54.429856,4.392842],[-54.434464,4.449936],[-54.443667,4.512969],[-54.429981,4.549289],[-54.4158,4.585614],[-54.416425,4.610942],[-54.437867,4.644114],[-54.429336,4.721636],[-54.460053,4.72645],[-54.470092,4.754211],[-54.466817,4.791972],[-54.472217,4.880347],[-54.478772,4.901667],[-54.471939,4.920575],[-54.454161,4.929608],[-54.441467,4.964936],[-54.442717,5.014594],[-54.407464,5.091764],[-54.370419,5.112325],[-54.363136,5.140178],[-54.345339,5.147225],[-54.342475,5.1681],[-54.284497,5.259306],[-54.258353,5.282294],[-54.228711,5.290894],[-54.191703,5.322383],[-54.168525,5.3538],[-54.144306,5.366842],[-54.131589,5.400192],[-54.076431,5.469533],[-54.043886,5.504975],[-54.022686,5.528436],[-54.010947,5.560792],[-54.010233,5.614953],[-54.015425,5.659642],[-54.008389,5.684061],[-54.0,5.698056],[-54.0,5.698056],[-54.0,9.333333]]]}},{"type":"Feature","properties":{"name":"PIARCO A","nameV":"UTA PIARCO A","class":"A","type":"UTA","lower":"FL245","lowerM":7467,"upper":"FL999","upperM":30449,"activationCode":"H24","UId":"1563417","id":"UTA4348A","stroke":"#ff0000","stroke-width":2,"stroke-opacity":0.8,"fill":"#ff8080","fill-opacity":0.1},"geometry":{"type":"Polygon","coordinates":[[[-65.0,15.0],[-63.25,15.0],[-63.0,15.333333],[-63.0,17.366667],[-62.0,18.0],[-56.0,18.0],[-56.0,9.083333],[-57.0,8.916667],[-59.95,8.916667],[-61.466667,9.983333],[-61.933333,9.983333],[-62.05,10.083333],[-61.783333,10.733333],[-62.5,11.0],[-65.0,15.0]]]}},{"type":"Feature","properties":{"name":"PIARCO B","nameV":"UTA PIARCO B","class":"G","type":"UTA","lower":"FL245","lowerM":7467,"upper":"FL999","upperM":30449,"activationCode":"H24","UId":"1563515","id":"UTA4348B","stroke":"#008040","stroke-width":2,"stroke-opacity":0.8,"fill":"#80ff80","fill-opacity":0.1},"geometry":{"type":"Polygon","coordinates":[[[-56.0,18.0],[-45.0,18.0],[-40.0,22.3],[-37.5,17.0],[-37.5,13.5],[-48.0,10.0],[-54.0,9.333333],[-56.0,9.083333],[-56.0,18.0]]]}},{"type":"Feature","properties":{"name":"FRANCE TRANSITION RVSM EUR/NAT","nameV":"UTA FRANCE TRANSITION RVSM EUR/NAT","class":"C","type":"UTA","lower":"FL290","lowerM":8839,"upper":"FL410","upperM":12496,"desc":"France UTA (BREST) part in which necessary FL adjustments are completed and where transatlantic flights not entitled to enter EUR RVSM are allowed ABV FL 410 westbound or BLW FL 290 for Eastbound flights. Frequencies: see GEN 3.4.","activationCode":"H24","UId":"1561813","id":"UTA1642","stroke":"#ff0000","stroke-width":2,"stroke-opacity":0.8,"fill":"#ff8080","fill-opacity":0.1},"geometry":{"type":"Polygon","coordinates":[[[-8.0,48.833333],[-5.083333,49.433333],[-5.5,47.5],[-7.039167,44.846944],[-8.0,45.0],[-8.0,48.833333]]]}},{"type":"Feature","properties":{"name":"FRANCE (LFFF)","nameV":"UTA FRANCE (LFFF)","class":"C","type":"UTA","lower":"FL195","lowerM":5943,"upper":"FL660","upperM":20116,"desc":"RVSM airspace from FL 290 included to FL 410 included. Frequencies: see GEN 3.4. ENAV, MUAC, NATS, SKEYES, SKYGUIDE provide ATS in some portions of the UTA FRANCE by delegation: see ENR 2.2.6","activationCode":"H24","UId":"1561815","id":"UTA1641","stroke":"#ff0000","stroke-width":2,"stroke-opacity":0.8,"fill":"#ff8080","fill-opacity":0.1},"geometry":{"type":"Polygon","coordinates":[[[2.0,51.116667],[2.545428,51.089056],[2.562944,51.06465],[2.5621,51.058447],[2.575228,51.013853],[2.571972,51.0124],[2.571714,51.009275],[2.575228,51.005772],[2.573972,51.003311],[2.579542,50.999122],[2.596617,50.991903],[2.607122,50.990897],[2.609128,50.984856],[2.607414,50.981861],[2.612342,50.974819],[2.610842,50.973686],[2.619381,50.967408],[2.629014,50.950453],[2.632756,50.946303],[2.630183,50.943294],[2.617889,50.941442],[2.619222,50.936914],[2.614014,50.932672],[2.602561,50.927442],[2.59565,50.921175],[2.590142,50.918425],[2.594086,50.914514],[2.603172,50.916725],[2.606686,50.913111],[2.607628,50.910386],[2.604003,50.904681],[2.606428,50.901561],[2.606086,50.899564],[2.609333,50.898194],[2.6086,50.894072],[2.604367,50.886183],[2.607075,50.886122],[2.606525,50.882444],[2.610292,50.880108],[2.606144,50.874031],[2.6122,50.867358],[2.612167,50.863519],[2.599061,50.853069],[2.5997,50.848919],[2.604372,50.848083],[2.6114,50.850078],[2.616675,50.848022],[2.616242,50.843172],[2.616522,50.839506],[2.625433,50.836703],[2.630425,50.819961],[2.63515,50.812953],[2.655775,50.813467],[2.667575,50.819564],[2.669225,50.822722],[2.67505,50.819367],[2.678922,50.813444],[2.710808,50.813536],[2.713106,50.815408],[2.725872,50.809056],[2.72095,50.802272],[2.725975,50.792333],[2.729411,50.792108],[2.728767,50.789933],[2.737161,50.782819],[2.738403,50.780353],[2.741017,50.781628],[2.752869,50.777469],[2.754842,50.774583],[2.761956,50.771022],[2.756383,50.762711],[2.763114,50.762844],[2.763883,50.761308],[2.761483,50.759311],[2.766008,50.754558],[2.772767,50.755003],[2.778039,50.750553],[2.7829,50.751494],[2.783597,50.744225],[2.781594,50.743356],[2.787267,50.732517],[2.790283,50.731586],[2.790206,50.725739],[2.7949,50.725992],[2.794528,50.724919],[2.800356,50.723572],[2.81095,50.717467],[2.815567,50.717667],[2.819264,50.715594],[2.822861,50.717908],[2.829656,50.719744],[2.839514,50.720553],[2.848028,50.723033],[2.858372,50.711011],[2.8697,50.703322],[2.873114,50.704317],[2.879608,50.702881],[2.885242,50.706411],[2.889486,50.703464],[2.898719,50.693917],[2.906708,50.692558],[2.910825,50.694472],[2.908808,50.701656],[2.912317,50.704014],[2.923253,50.703253],[2.925522,50.707392],[2.929297,50.709747],[2.931197,50.719339],[2.928642,50.722642],[2.931614,50.728303],[2.944508,50.731806],[2.9416,50.737008],[2.937897,50.738992],[2.9379,50.744581],[2.946542,50.748278],[2.949981,50.751322],[2.955222,50.753681],[2.958117,50.752283],[2.961153,50.753103],[2.962917,50.750414],[2.971181,50.75],[2.978142,50.753294],[2.981108,50.756889],[2.993331,50.760167],[3.012869,50.769664],[3.015236,50.771578],[3.014306,50.773903],[3.018903,50.773692],[3.024347,50.770861],[3.033614,50.769825],[3.037169,50.771403],[3.039758,50.775453],[3.056247,50.780617],[3.062494,50.780067],[3.080861,50.772867],[3.089122,50.773583],[3.090664,50.776497],[3.092075,50.776125],[3.105361,50.782378],[3.108656,50.787142],[3.106864,50.787672],[3.110292,50.793517],[3.114503,50.794425],[3.124336,50.788014],[3.124906,50.786439],[3.150567,50.790125],[3.152964,50.785589],[3.151067,50.783411],[3.171622,50.761053],[3.17145,50.758561],[3.179892,50.754686],[3.185978,50.746283],[3.187136,50.741081],[3.199264,50.735361],[3.198214,50.731328],[3.191733,50.727744],[3.191425,50.724678],[3.198647,50.720403],[3.205853,50.720131],[3.209636,50.716525],[3.208792,50.713108],[3.204858,50.712069],[3.209036,50.711008],[3.211083,50.713275],[3.218522,50.712144],[3.220206,50.709947],[3.228278,50.712678],[3.235561,50.713097],[3.237975,50.711258],[3.245483,50.71305],[3.252919,50.704114],[3.261058,50.7013],[3.258497,50.696003],[3.261411,50.691964],[3.254864,50.691258],[3.252942,50.689658],[3.255,50.686639],[3.258608,50.685308],[3.258492,50.683],[3.260989,50.678989],[3.265278,50.676994],[3.252875,50.674206],[3.241183,50.668803],[3.242675,50.665906],[3.240108,50.658567],[3.246883,50.652244],[3.245089,50.651331],[3.248806,50.649675],[3.249411,50.647244],[3.244111,50.640669],[3.251961,50.635917],[3.252672,50.632853],[3.259103,50.629803],[3.257333,50.625897],[3.255181,50.622725],[3.258906,50.621564],[3.257811,50.620447],[3.263739,50.617892],[3.263114,50.616653],[3.270064,50.611789],[3.272072,50.604764],[3.274767,50.604772],[3.273786,50.600681],[3.276006,50.600453],[3.274319,50.597033],[3.279506,50.595953],[3.276222,50.589864],[3.276533,50.581258],[3.280861,50.578547],[3.281522,50.572828],[3.278478,50.572833],[3.277789,50.564406],[3.285161,50.561672],[3.275917,50.558525],[3.278806,50.555497],[3.28095,50.555931],[3.282344,50.552136],[3.277956,50.551831],[3.280464,50.543511],[3.278942,50.538492],[3.284564,50.535094],[3.286819,50.530794],[3.286506,50.527936],[3.292947,50.524344],[3.307783,50.519572],[3.320503,50.518436],[3.322219,50.515536],[3.328003,50.512203],[3.326536,50.510564],[3.329686,50.508078],[3.337542,50.508811],[3.349556,50.505531],[3.361733,50.503747],[3.369103,50.497242],[3.371589,50.493583],[3.377033,50.491414],[3.388956,50.495431],[3.391994,50.498597],[3.395989,50.496108],[3.397239,50.498419],[3.407192,50.498947],[3.416483,50.503025],[3.418597,50.502344],[3.428981,50.504744],[3.435436,50.509911],[3.438467,50.510064],[3.439131,50.507475],[3.449011,50.506617],[3.45185,50.510014],[3.450553,50.511683],[3.454239,50.515211],[3.454025,50.518897],[3.470925,50.530722],[3.469564,50.532028],[3.474156,50.533692],[3.491822,50.528053],[3.497783,50.529722],[3.504422,50.529089],[3.519594,50.523856],[3.515453,50.515361],[3.516553,50.513667],[3.509194,50.508481],[3.503736,50.506975],[3.496125,50.498864],[3.499411,50.494561],[3.497447,50.493203],[3.500653,50.486733],[3.516208,50.491978],[3.519833,50.494367],[3.531925,50.496],[3.539164,50.494325],[3.548008,50.497917],[3.56215,50.498108],[3.568439,50.500881],[3.573789,50.498742],[3.571714,50.497678],[3.579206,50.494461],[3.579556,50.491928],[3.585347,50.490536],[3.595575,50.491958],[3.608036,50.496956],[3.618981,50.486819],[3.632564,50.479978],[3.630092,50.479147],[3.6349,50.47165],[3.644675,50.462422],[3.64795,50.463889],[3.652922,50.463072],[3.662625,50.456139],[3.664167,50.452347],[3.660686,50.449972],[3.659692,50.446861],[3.661522,50.442689],[3.668864,50.438686],[3.668883,50.423094],[3.672272,50.422186],[3.672444,50.420136],[3.670064,50.419233],[3.673369,50.410761],[3.673708,50.404139],[3.674864,50.402394],[3.672808,50.398117],[3.673747,50.388661],[3.669272,50.386803],[3.669986,50.385297],[3.662669,50.375814],[3.658225,50.373561],[3.657103,50.369308],[3.658947,50.366861],[3.664542,50.365522],[3.667214,50.360892],[3.667192,50.3512],[3.664689,50.347667],[3.669336,50.346731],[3.669164,50.345261],[3.6774,50.3403],[3.672914,50.334819],[3.674547,50.332922],[3.677839,50.33295],[3.679481,50.329178],[3.685606,50.326483],[3.684878,50.324967],[3.688678,50.322764],[3.693872,50.321822],[3.692647,50.318794],[3.691614,50.318953],[3.692156,50.320114],[3.690575,50.320339],[3.689792,50.319006],[3.683997,50.320133],[3.69535,50.316081],[3.694322,50.313464],[3.702033,50.310956],[3.71025,50.303228],[3.720031,50.305017],[3.715436,50.306483],[3.717289,50.308961],[3.715294,50.312628],[3.710156,50.313936],[3.710806,50.317736],[3.709031,50.318933],[3.714069,50.319164],[3.720306,50.315886],[3.721228,50.311311],[3.728658,50.309456],[3.731853,50.311508],[3.727422,50.3153],[3.731386,50.3183],[3.730539,50.319431],[3.732475,50.321475],[3.729536,50.324369],[3.729958,50.330397],[3.734,50.329953],[3.734108,50.334197],[3.737106,50.336089],[3.734931,50.336025],[3.733772,50.339519],[3.7386,50.341258],[3.733725,50.342775],[3.739194,50.345172],[3.739361,50.347708],[3.741822,50.347386],[3.742236,50.348922],[3.746847,50.348283],[3.745453,50.349967],[3.747158,50.351075],[3.763344,50.348044],[3.766633,50.353142],[3.770514,50.351097],[3.775903,50.353142],[3.784,50.35355],[3.7989,50.350908],[3.806989,50.355233],[3.814058,50.353192],[3.815336,50.349694],[3.811539,50.344967],[3.821997,50.345725],[3.824936,50.350211],[3.824386,50.353458],[3.832703,50.352389],[3.839133,50.354058],[3.853447,50.351081],[3.858594,50.344919],[3.857239,50.342214],[3.862297,50.343739],[3.862194,50.341833],[3.875411,50.337589],[3.879147,50.338686],[3.880381,50.337975],[3.887136,50.340903],[3.888278,50.337569],[3.885933,50.337486],[3.886247,50.336231],[3.889703,50.336089],[3.888889,50.331742],[3.889747,50.329472],[3.885094,50.328692],[3.8856,50.327008],[3.895939,50.328953],[3.900556,50.327006],[3.908094,50.329311],[3.908347,50.328308],[3.968231,50.350036],[3.969128,50.347269],[3.965528,50.341456],[3.967361,50.340628],[3.970639,50.343039],[3.972775,50.347814],[3.985272,50.342297],[3.992817,50.347933],[3.998686,50.347933],[4.001178,50.350322],[4.011319,50.349992],[4.017889,50.352378],[4.015531,50.3537],[4.018428,50.357275],[4.022633,50.356753],[4.024178,50.359125],[4.027889,50.358261],[4.027258,50.356931],[4.031047,50.354611],[4.034972,50.348322],[4.033486,50.346947],[4.040986,50.340467],[4.054186,50.338606],[4.054144,50.335078],[4.055031,50.332528],[4.065586,50.330047],[4.069872,50.324933],[4.077881,50.320939],[4.079044,50.309622],[4.082206,50.309217],[4.086678,50.311719],[4.093325,50.31305],[4.095619,50.312025],[4.097256,50.313564],[4.1054,50.307742],[4.109567,50.301783],[4.117881,50.303431],[4.118714,50.300189],[4.122739,50.297914],[4.125681,50.288408],[4.125139,50.280419],[4.121778,50.277692],[4.125406,50.273553],[4.135917,50.274656],[4.134083,50.265817],[4.138247,50.263869],[4.137717,50.2598],[4.135119,50.259331],[4.136953,50.2571],[4.145714,50.258489],[4.150247,50.2566],[4.163422,50.257128],[4.164981,50.259431],[4.167936,50.259828],[4.168714,50.266492],[4.163631,50.269125],[4.163361,50.271828],[4.150886,50.273578],[4.1493,50.277006],[4.155325,50.280458],[4.154286,50.285075],[4.161011,50.284897],[4.162581,50.288797],[4.169939,50.287986],[4.168981,50.284622],[4.176375,50.284525],[4.1761,50.281108],[4.17455,50.278375],[4.176683,50.275053],[4.191794,50.274061],[4.197744,50.273481],[4.203225,50.274447],[4.20995,50.270981],[4.216933,50.261219],[4.221233,50.258575],[4.22005,50.251822],[4.212594,50.246036],[4.205633,50.243664],[4.203169,50.240369],[4.193158,50.239811],[4.182506,50.232803],[4.174275,50.220022],[4.169336,50.217411],[4.164242,50.214611],[4.156272,50.214008],[4.153742,50.212697],[4.150394,50.213572],[4.152286,50.208789],[4.156008,50.203853],[4.16015,50.202025],[4.160086,50.193322],[4.159192,50.19215],[4.1564,50.192722],[4.157672,50.189269],[4.155789,50.183175],[4.151044,50.179556],[4.148253,50.173347],[4.155756,50.171956],[4.155325,50.162986],[4.150792,50.158872],[4.147283,50.158136],[4.137753,50.151958],[4.135117,50.145608],[4.135792,50.142714],[4.130347,50.140239],[4.128064,50.135319],[4.131917,50.132058],[4.144169,50.128608],[4.152331,50.128828],[4.154467,50.127839],[4.156072,50.129236],[4.157222,50.135289],[4.176147,50.133033],[4.198072,50.134978],[4.200947,50.132869],[4.197956,50.128075],[4.203619,50.121033],[4.202086,50.1173],[4.20405,50.115528],[4.197597,50.109206],[4.196764,50.106372],[4.206536,50.106086],[4.207453,50.105061],[4.200311,50.100914],[4.206744,50.095944],[4.210489,50.096719],[4.216811,50.090925],[4.217242,50.087983],[4.220761,50.086033],[4.225203,50.0855],[4.225619,50.081519],[4.230878,50.073339],[4.227633,50.065906],[4.218567,50.061011],[4.207633,50.058017],[4.198025,50.057164],[4.194542,50.049839],[4.185944,50.049467],[4.180619,50.046689],[4.173217,50.045978],[4.162392,50.049358],[4.152872,50.039072],[4.149164,50.032872],[4.144489,50.030994],[4.144278,50.028917],[4.135853,50.020131],[4.135825,50.014911],[4.140058,50.009511],[4.144967,50.008533],[4.141758,50.006394],[4.142333,50.005653],[4.146664,50.006697],[4.145936,50.004214],[4.154833,49.999867],[4.158878,50.002014],[4.161856,50.000581],[4.163175,49.995178],[4.159294,49.992336],[4.1547,49.985011],[4.147375,49.983586],[4.144903,49.979867],[4.141733,49.978969],[4.144247,49.976311],[4.146678,49.97575],[4.14995,49.976939],[4.152972,49.974511],[4.157156,49.975925],[4.172778,49.977133],[4.178697,49.971831],[4.184483,49.971428],[4.197103,49.967508],[4.198075,49.965025],[4.195911,49.962764],[4.195272,49.955967],[4.197219,49.954625],[4.198211,49.956022],[4.211133,49.958017],[4.216294,49.957158],[4.224853,49.959369],[4.227753,49.957917],[4.234131,49.957706],[4.239622,49.959131],[4.242117,49.961606],[4.250386,49.961975],[4.254714,49.963486],[4.263603,49.963908],[4.269303,49.965492],[4.276014,49.964183],[4.285506,49.964783],[4.289578,49.963561],[4.2976,49.964819],[4.309342,49.969558],[4.313811,49.966511],[4.327803,49.962761],[4.3359,49.963242],[4.350822,49.9523],[4.364517,49.952828],[4.371847,49.951458],[4.381597,49.953586],[4.390358,49.947842],[4.403322,49.949256],[4.416025,49.947203],[4.435881,49.940669],[4.441153,49.941078],[4.445528,49.937269],[4.481311,49.948117],[4.486642,49.946206],[4.495436,49.948564],[4.511636,49.946861],[4.518056,49.951278],[4.523414,49.950236],[4.524828,49.953653],[4.533364,49.962572],[4.542236,49.969436],[4.550283,49.968233],[4.564522,49.9704],[4.572197,49.974614],[4.574097,49.980083],[4.583175,49.983394],[4.597689,49.986256],[4.607678,49.985417],[4.625692,49.98695],[4.634678,49.987789],[4.639992,49.989511],[4.657364,49.993694],[4.664708,49.994172],[4.666728,49.996708],[4.674867,49.996633],[4.677569,49.995375],[4.68025,49.996481],[4.692892,49.995467],[4.693536,49.997444],[4.687619,50.000789],[4.687089,50.005075],[4.685061,50.007006],[4.688797,50.011278],[4.686239,50.013653],[4.686792,50.025336],[4.684797,50.027175],[4.688228,50.028528],[4.692239,50.037928],[4.696881,50.042711],[4.695378,50.047519],[4.699906,50.052658],[4.69545,50.058836],[4.691839,50.057494],[4.686156,50.057436],[4.683961,50.063692],[4.679853,50.067492],[4.685781,50.069975],[4.688747,50.072714],[4.687936,50.076406],[4.691833,50.083511],[4.694625,50.085214],[4.702992,50.095842],[4.713131,50.096975],[4.716022,50.100883],[4.751822,50.111914],[4.753475,50.116275],[4.747997,50.122383],[4.756294,50.122439],[4.763083,50.134533],[4.762269,50.136414],[4.7778,50.141211],[4.806469,50.152547],[4.824058,50.16915],[4.823778,50.161722],[4.830092,50.156975],[4.832389,50.152989],[4.845158,50.153878],[4.852161,50.152328],[4.876647,50.153733],[4.879003,50.151492],[4.881661,50.144628],[4.881928,50.140844],[4.895289,50.139864],[4.897044,50.137914],[4.894347,50.134083],[4.890986,50.13415],[4.886919,50.130875],[4.878467,50.131775],[4.878489,50.126969],[4.870861,50.124472],[4.867347,50.118128],[4.873261,50.109131],[4.868461,50.096742],[4.875325,50.094828],[4.871439,50.087922],[4.860211,50.092975],[4.861744,50.097031],[4.858719,50.099947],[4.849808,50.101347],[4.849828,50.098736],[4.841108,50.095161],[4.838306,50.093381],[4.842164,50.091594],[4.846978,50.083578],[4.840481,50.083089],[4.842814,50.077722],[4.837917,50.067631],[4.819542,50.066214],[4.82205,50.064336],[4.819197,50.062089],[4.8196,50.060564],[4.827456,50.059178],[4.829278,50.057408],[4.827125,50.050303],[4.832439,50.046919],[4.840369,50.046536],[4.841783,50.038753],[4.835672,50.034808],[4.830256,50.034061],[4.828089,50.030033],[4.819769,50.02585],[4.822619,50.021764],[4.818594,50.019944],[4.817308,50.015336],[4.821125,50.012056],[4.816025,50.000178],[4.818939,49.994678],[4.812125,49.988492],[4.804711,49.982883],[4.793681,49.982297],[4.795528,49.976228],[4.790233,49.968994],[4.791042,49.958025],[4.79635,49.958081],[4.806456,49.954397],[4.812869,49.954294],[4.821956,49.951414],[4.827192,49.951186],[4.830086,49.949083],[4.840003,49.950767],[4.847175,49.948939],[4.849678,49.946747],[4.857767,49.932842],[4.880953,49.922394],[4.881467,49.915822],[4.890083,49.908975],[4.887,49.905881],[4.879067,49.905347],[4.876408,49.901378],[4.884964,49.901989],[4.8875,49.898692],[4.884339,49.896308],[4.877872,49.894606],[4.8769,49.8916],[4.869428,49.883842],[4.871958,49.879725],[4.871019,49.878778],[4.866711,49.878475],[4.861442,49.870419],[4.862928,49.867194],[4.85945,49.865197],[4.854411,49.864706],[4.847619,49.867989],[4.850653,49.865625],[4.852006,49.858878],[4.851761,49.852631],[4.857456,49.846814],[4.856881,49.841336],[4.867269,49.842097],[4.869242,49.834169],[4.866167,49.832853],[4.868806,49.830686],[4.868864,49.822989],[4.876281,49.819492],[4.876286,49.817356],[4.865522,49.813294],[4.864883,49.805264],[4.860403,49.800903],[4.859225,49.7971],[4.851636,49.793447],[4.864061,49.788769],[4.871339,49.789342],[4.869947,49.793561],[4.880428,49.792864],[4.887886,49.788178],[4.898308,49.789064],[4.901003,49.786181],[4.905822,49.785453],[4.920828,49.788692],[4.930614,49.786839],[4.932025,49.789836],[4.938889,49.793144],[4.942078,49.792639],[4.942858,49.790519],[4.946467,49.794511],[4.947611,49.799042],[4.956639,49.801414],[4.962447,49.797772],[4.967281,49.798342],[4.968761,49.801578],[4.984386,49.799736],[4.996086,49.800317],[4.998186,49.799525],[4.997394,49.794692],[5.000836,49.793806],[5.006822,49.786394],[5.008169,49.7819],[5.037292,49.771814],[5.061894,49.766919],[5.062908,49.762153],[5.071781,49.760978],[5.085383,49.763142],[5.088047,49.766425],[5.094722,49.762772],[5.119094,49.738328],[5.119058,49.7356],[5.124928,49.726978],[5.12295,49.717322],[5.125917,49.716444],[5.126031,49.712436],[5.131792,49.713536],[5.141136,49.713008],[5.143639,49.709303],[5.149814,49.714278],[5.152664,49.718486],[5.159108,49.716958],[5.165919,49.711811],[5.166392,49.706933],[5.163775,49.700422],[5.164878,49.693286],[5.184978,49.69395],[5.191881,49.694922],[5.196506,49.693778],[5.196258,49.691964],[5.201942,49.693394],[5.206408,49.695828],[5.218425,49.687875],[5.23155,49.691697],[5.242861,49.688667],[5.242647,49.68475],[5.250836,49.688669],[5.2562,49.694167],[5.268914,49.696353],[5.281533,49.688364],[5.282561,49.685789],[5.286247,49.682389],[5.292761,49.679042],[5.295761,49.676467],[5.309269,49.671819],[5.311031,49.669208],[5.328258,49.658644],[5.332483,49.652922],[5.31825,49.646381],[5.318922,49.644547],[5.308967,49.636158],[5.305,49.630308],[5.305414,49.624128],[5.311003,49.618389],[5.31235,49.61145],[5.315631,49.611292],[5.318869,49.614486],[5.3224,49.613975],[5.325831,49.616142],[5.330714,49.616731],[5.337017,49.615558],[5.340644,49.616678],[5.339303,49.618436],[5.343439,49.622019],[5.343392,49.626656],[5.346253,49.630697],[5.352114,49.630994],[5.356394,49.627653],[5.361942,49.626175],[5.363925,49.623211],[5.371028,49.622711],[5.374547,49.623703],[5.382153,49.619717],[5.393064,49.617806],[5.398069,49.615808],[5.401089,49.610706],[5.41115,49.608328],[5.418053,49.599583],[5.423244,49.599011],[5.431192,49.592558],[5.428658,49.589908],[5.437811,49.569383],[5.445464,49.567078],[5.456908,49.566822],[5.447817,49.555092],[5.444861,49.552961],[5.441475,49.551689],[5.465689,49.538136],[5.466331,49.525825],[5.460458,49.525744],[5.455367,49.520211],[5.447267,49.518106],[5.4543,49.514078],[5.454092,49.512722],[5.455961,49.512364],[5.456811,49.513322],[5.465997,49.508819],[5.464325,49.503725],[5.466117,49.498744],[5.472808,49.496983],[5.479233,49.500281],[5.480136,49.503692],[5.483906,49.507478],[5.499431,49.506717],[5.517361,49.509083],[5.533525,49.513222],[5.536072,49.514742],[5.540958,49.515136],[5.544431,49.518697],[5.545811,49.523828],[5.550203,49.526975],[5.556675,49.529194],[5.563514,49.525533],[5.566286,49.527592],[5.572075,49.527297],[5.588847,49.521597],[5.591142,49.522928],[5.601628,49.515728],[5.601628,49.513267],[5.604544,49.510528],[5.6036,49.509036],[5.610844,49.506019],[5.621475,49.519122],[5.620761,49.522936],[5.615767,49.527267],[5.622083,49.534447],[5.628336,49.538422],[5.632978,49.539436],[5.630775,49.542008],[5.634447,49.5429],[5.633769,49.544369],[5.643628,49.546953],[5.642586,49.550486],[5.648078,49.549933],[5.650575,49.551222],[5.653936,49.550722],[5.661297,49.553108],[5.664331,49.553028],[5.66935,49.548414],[5.679319,49.548961],[5.682208,49.548019],[5.681172,49.545297],[5.690814,49.545992],[5.694994,49.543075],[5.699711,49.542306],[5.698642,49.540728],[5.707014,49.538947],[5.713881,49.540722],[5.715194,49.539042],[5.718236,49.540261],[5.718778,49.539303],[5.723428,49.541675],[5.724328,49.544083],[5.726078,49.543669],[5.733964,49.545564],[5.733242,49.543833],[5.740269,49.539019],[5.747297,49.539378],[5.757797,49.543003],[5.755836,49.546139],[5.758186,49.550394],[5.755942,49.556272],[5.759936,49.558422],[5.758436,49.561422],[5.762617,49.561],[5.771208,49.563325],[5.774583,49.563214],[5.779325,49.558444],[5.781539,49.559025],[5.785533,49.557636],[5.791975,49.551742],[5.803003,49.549364],[5.807858,49.550783],[5.812253,49.547397],[5.815844,49.548472],[5.818614,49.546375],[5.818614,49.546375],[5.810475,49.543536],[5.8172,49.536994],[5.8371,49.542103],[5.839167,49.536997],[5.846264,49.5295],[5.834575,49.526414],[5.836039,49.519953],[5.848447,49.51445],[5.850269,49.508597],[5.858869,49.505775],[5.862756,49.501461],[5.868428,49.499058],[5.885781,49.498614],[5.891019,49.496814],[5.897236,49.496611],[5.905728,49.499217],[5.907297,49.501528],[5.912106,49.501997],[5.928597,49.498578],[5.931967,49.499769],[5.942869,49.500219],[5.946044,49.499511],[5.946292,49.496967],[5.951883,49.494039],[5.970631,49.491419],[5.973219,49.49005],[5.969003,49.485747],[5.974422,49.480878],[5.973067,49.476458],[5.97075,49.474719],[5.972014,49.472411],[5.972797,49.468753],[5.974308,49.464636],[5.979653,49.461003],[5.983967,49.463161],[5.987581,49.461753],[5.985844,49.456139],[5.98165,49.456536],[5.978911,49.453794],[5.982047,49.451067],[5.997547,49.456536],[6.001369,49.456253],[6.008447,49.452189],[6.012122,49.453072],[6.028983,49.455419],[6.027025,49.452033],[6.027103,49.448706],[6.032914,49.449336],[6.042156,49.447803],[6.052739,49.464189],[6.058489,49.466067],[6.064992,49.464853],[6.071767,49.465403],[6.073967,49.4636],[6.079442,49.463736],[6.0808,49.459022],[6.088689,49.454892],[6.094622,49.452817],[6.100822,49.452875],[6.101408,49.457736],[6.098203,49.462486],[6.099511,49.467408],[6.102661,49.469925],[6.108986,49.472211],[6.112892,49.472583],[6.114781,49.470519],[6.123239,49.473294],[6.122331,49.475758],[6.126958,49.482169],[6.126464,49.490206],[6.127839,49.493661],[6.1331,49.489961],[6.141864,49.4916],[6.141092,49.486428],[6.155392,49.493447],[6.157664,49.491694],[6.162322,49.493444],[6.154539,49.500439],[6.156153,49.504206],[6.164444,49.505078],[6.176089,49.510031],[6.1775,49.506928],[6.181928,49.507597],[6.197025,49.505803],[6.204822,49.506469],[6.215814,49.506742],[6.216992,49.509997],[6.219925,49.508797],[6.226261,49.510014],[6.235642,49.508064],[6.240533,49.513378],[6.242761,49.511714],[6.246817,49.508819],[6.255872,49.510036],[6.258361,49.507175],[6.261989,49.5066],[6.262958,49.504094],[6.270958,49.504697],[6.279558,49.503067],[6.280133,49.500647],[6.279464,49.495722],[6.282806,49.493392],[6.289494,49.493856],[6.28835,49.491556],[6.285214,49.491572],[6.285186,49.489575],[6.289203,49.487067],[6.287978,49.485858],[6.290906,49.484611],[6.291858,49.487106],[6.299233,49.488211],[6.295572,49.480986],[6.306031,49.477422],[6.312589,49.4803],[6.314967,49.477161],[6.318494,49.477964],[6.324733,49.474969],[6.331553,49.469717],[6.3336,49.467372],[6.342375,49.469158],[6.347111,49.466025],[6.353189,49.467],[6.365308,49.459586],[6.368678,49.460428],[6.367097,49.469483],[6.367137638449453,49.46947499686528],[6.371469,49.468622],[6.371447,49.466758],[6.374033,49.466175],[6.374825,49.464214],[6.379803,49.464667],[6.380092,49.466219],[6.393544,49.464064],[6.408561,49.467608],[6.414678,49.471078],[6.420519,49.476358],[6.426067,49.475503],[6.428047,49.476883],[6.434658,49.472564],[6.433253,49.471767],[6.440594,49.466708],[6.443175,49.468178],[6.450886,49.465708],[6.455736,49.462689],[6.464583,49.46635],[6.465597,49.464703],[6.468714,49.464453],[6.471478,49.461547],[6.486317,49.451633],[6.499328,49.450403],[6.509569,49.444939],[6.514261,49.440753],[6.524842,49.435533],[6.534364,49.4356],[6.538025,49.432789],[6.539361,49.433767],[6.550839,49.425411],[6.552578,49.421236],[6.554278,49.420058],[6.555903,49.421028],[6.557469,49.419525],[6.552633,49.416889],[6.548589,49.417861],[6.538647,49.412181],[6.537422,49.408358],[6.540778,49.401228],[6.544178,49.40205],[6.546872,49.400258],[6.552097,49.399892],[6.551367,49.396847],[6.552394,49.394206],[6.560125,49.392514],[6.563614,49.388142],[6.576839,49.389756],[6.581061,49.385836],[6.585364,49.385836],[6.587672,49.383078],[6.585903,49.381108],[6.586164,49.379308],[6.584367,49.37645],[6.584817,49.372072],[6.583147,49.368481],[6.594533,49.371503],[6.598961,49.369203],[6.599589,49.366578],[6.602261,49.3671],[6.597556,49.360753],[6.595792,49.360267],[6.596525,49.359269],[6.591906,49.3581],[6.592636,49.355425],[6.590078,49.354864],[6.589694,49.351106],[6.588075,49.349697],[6.584828,49.351275],[6.585503,49.352886],[6.581614,49.356328],[6.576967,49.356964],[6.574128,49.358675],[6.563622,49.355867],[6.565428,49.352239],[6.565708,49.3478],[6.570875,49.343397],[6.575753,49.341692],[6.576597,49.33935],[6.578469,49.338233],[6.577194,49.336336],[6.578464,49.334958],[6.581103,49.334269],[6.585906,49.337047],[6.58785,49.334814],[6.591028,49.3364],[6.591617,49.335753],[6.589672,49.334636],[6.595586,49.330039],[6.589075,49.322178],[6.5945,49.317631],[6.604836,49.312147],[6.609458,49.306589],[6.612497,49.305756],[6.615175,49.301347],[6.617372,49.302661],[6.622408,49.303142],[6.62495,49.302319],[6.629028,49.298278],[6.632267,49.297422],[6.631989,49.295808],[6.636122,49.295047],[6.636494,49.296283],[6.638833,49.295683],[6.6442,49.289844],[6.648156,49.288053],[6.650347,49.288558],[6.651931,49.286903],[6.651117,49.285736],[6.653425,49.281208],[6.66015,49.283642],[6.661292,49.282258],[6.670056,49.280331],[6.667878,49.277478],[6.665908,49.276917],[6.667803,49.270892],[6.666519,49.267936],[6.660489,49.261206],[6.66435,49.254461],[6.669936,49.255078],[6.675614,49.257578],[6.677275,49.255447],[6.683842,49.253431],[6.687986,49.249075],[6.689917,49.249583],[6.690653,49.247764],[6.685683,49.243778],[6.684872,49.241703],[6.685692,49.239606],[6.688675,49.238183],[6.689711,49.235564],[6.689356,49.232761],[6.690769,49.230006],[6.688297,49.224478],[6.689681,49.220433],[6.696103,49.215128],[6.701878,49.216711],[6.706361,49.216417],[6.719647,49.221183],[6.7232,49.218944],[6.731461,49.205936],[6.711153,49.188322],[6.720328,49.175356],[6.726811,49.172567],[6.729825,49.169242],[6.738333,49.163667],[6.749853,49.166733],[6.761192,49.164778],[6.773558,49.167533],[6.780664,49.168186],[6.789836,49.166372],[6.794253,49.1632],[6.802953,49.162011],[6.808033,49.158667],[6.816894,49.157736],[6.824417,49.154033],[6.834042,49.151072],[6.847706,49.157208],[6.844553,49.163986],[6.845406,49.168333],[6.844331,49.173047],[6.855614,49.175033],[6.859069,49.174644],[6.861731,49.181844],[6.859519,49.183525],[6.858489,49.186786],[6.850533,49.193278],[6.852167,49.200092],[6.842375,49.208847],[6.836222,49.211275],[6.838092,49.2135],[6.858839,49.222775],[6.862928,49.222289],[6.870497,49.218803],[6.873092,49.214867],[6.8934,49.209139],[6.900586,49.213689],[6.911522,49.215061],[6.918839,49.219992],[6.918733,49.222692],[6.925144,49.223356],[6.928533,49.222108],[6.938192,49.222453],[6.939853,49.216797],[6.951131,49.207742],[6.959636,49.203097],[6.972597,49.209517],[6.975178,49.209439],[6.992569,49.200775],[6.997147,49.197728],[6.999486,49.194464],[7.008903,49.193981],[7.0108,49.187939],[7.01345,49.188658],[7.015622,49.191225],[7.02135,49.193211],[7.023228,49.189192],[7.027922,49.191267],[7.035022,49.191417],[7.033308,49.187958],[7.033833,49.182614],[7.0285,49.175719],[7.027647,49.170589],[7.029275,49.166842],[7.032914,49.164228],[7.032139,49.156728],[7.041436,49.146706],[7.046783,49.136736],[7.044206,49.120378],[7.047486,49.115622],[7.052042,49.112953],[7.056997,49.111914],[7.066639,49.114308],[7.068481,49.116797],[7.068686,49.120597],[7.072014,49.124408],[7.090022,49.130739],[7.090094,49.132842],[7.081775,49.141992],[7.084164,49.1442],[7.082317,49.152183],[7.084736,49.153453],[7.087028,49.152064],[7.09335,49.152636],[7.101317,49.156092],[7.106733,49.155161],[7.107242,49.152761],[7.113406,49.152425],[7.112761,49.150819],[7.104425,49.146242],[7.103053,49.140583],[7.104236,49.138522],[7.126389,49.142111],[7.131531,49.134683],[7.131586,49.131692],[7.134017,49.130808],[7.135883,49.128486],[7.140486,49.127947],[7.143178,49.125906],[7.150292,49.125183],[7.155947,49.121464],[7.159467,49.120464],[7.159547,49.122186],[7.165114,49.128617],[7.167797,49.127378],[7.174492,49.129222],[7.178242,49.128583],[7.17745,49.130272],[7.183567,49.129961],[7.183939,49.131433],[7.185425,49.131244],[7.187175,49.127806],[7.190211,49.128022],[7.191561,49.126386],[7.190525,49.125836],[7.196336,49.121625],[7.198133,49.115172],[7.201303,49.117303],[7.203675,49.120303],[7.203806,49.122622],[7.205461,49.1236],[7.228764,49.126169],[7.235647,49.128692],[7.245047,49.130086],[7.248828,49.127372],[7.265617,49.122658],[7.271669,49.124272],[7.279819,49.122161],[7.281592,49.124375],[7.283831,49.123439],[7.282333,49.116908],[7.293164,49.114947],[7.298408,49.117275],[7.304175,49.123189],[7.305608,49.127072],[7.310172,49.129467],[7.313806,49.137114],[7.32115,49.141289],[7.329889,49.144792],[7.341558,49.145228],[7.345325,49.143283],[7.362722,49.143194],[7.361508,49.144733],[7.362986,49.145236],[7.361308,49.152917],[7.362464,49.156403],[7.366683,49.160697],[7.368956,49.161656],[7.365789,49.164214],[7.364756,49.166942],[7.365189,49.171861],[7.381128,49.175053],[7.445614,49.184189],[7.443664,49.182206],[7.436,49.18005],[7.4361,49.176936],[7.439375,49.175822],[7.441792,49.172186],[7.440428,49.1704],[7.433081,49.168086],[7.432572,49.165653],[7.439142,49.164222],[7.446189,49.168317],[7.448739,49.168497],[7.453903,49.166903],[7.457653,49.163069],[7.459758,49.162803],[7.465517,49.164989],[7.467414,49.167339],[7.482219,49.169633],[7.493964,49.169508],[7.492572,49.164336],[7.495953,49.155178],[7.506436,49.154719],[7.505939,49.150617],[7.497728,49.146314],[7.495231,49.143622],[7.496758,49.142456],[7.495381,49.141408],[7.489878,49.142292],[7.489531,49.136564],[7.495489,49.135828],[7.4977,49.134539],[7.505489,49.1224],[7.511775,49.122419],[7.515347,49.121047],[7.519053,49.116464],[7.521839,49.108047],[7.525194,49.103947],[7.528311,49.103644],[7.529558,49.102058],[7.528444,49.097106],[7.537789,49.096436],[7.535633,49.093683],[7.549836,49.085839],[7.563706,49.080247],[7.569336,49.079769],[7.600989,49.083233],[7.620214,49.074153],[7.629392,49.073583],[7.630942,49.072644],[7.630617,49.065725],[7.6326,49.063819],[7.632653,49.058589],[7.631208,49.054889],[7.674697,49.044992],[7.680703,49.048928],[7.683858,49.048278],[7.685653,49.049197],[7.697314,49.049625],[7.697194,49.051808],[7.692478,49.054144],[7.695947,49.057803],[7.698047,49.055847],[7.700811,49.056975],[7.705664,49.056158],[7.708247,49.052486],[7.717575,49.053928],[7.720225,49.051611],[7.722789,49.051178],[7.727083,49.054942],[7.731464,49.055553],[7.732247,49.043972],[7.737417,49.044803],[7.74075,49.047347],[7.747039,49.046369],[7.751578,49.047897],[7.756736,49.045506],[7.761078,49.045514],[7.768778,49.047697],[7.76985,49.050472],[7.776494,49.056711],[7.779889,49.0583],[7.788967,49.058403],[7.794422,49.065711],[7.810456,49.061286],[7.812644,49.057094],[7.815689,49.054961],[7.825931,49.052189],[7.830536,49.047297],[7.836294,49.047272],[7.844067,49.044739],[7.8437,49.043169],[7.845711,49.042606],[7.849836,49.044047],[7.851569,49.042283],[7.852225,49.037747],[7.85465,49.035531],[7.860808,49.034958],[7.8674,49.033011],[7.874469,49.040547],[7.880378,49.043761],[7.881308,49.046036],[7.884367,49.046486],[7.888739,49.049028],[7.9026,49.044522],[7.910667,49.045156],[7.91075,49.043728],[7.91385,49.041947],[7.913525,49.039997],[7.923153,49.043722],[7.926533,49.049822],[7.931194,49.054267],[7.931747,49.058089],[7.940289,49.056356],[7.940947,49.0544],[7.945464,49.055486],[7.946497,49.051611],[7.945661,49.04975],[7.949739,49.048617],[7.949053,49.047228],[7.95745,49.044964],[7.956894,49.043081],[7.965117,49.042986],[7.966761,49.041589],[7.966856,49.036369],[7.972189,49.035964],[7.9722,49.034136],[7.974069,49.031797],[7.972958,49.030733],[7.974683,49.029878],[7.975181,49.026553],[7.978678,49.027228],[7.982386,49.025844],[7.989672,49.028628],[8.000397,49.028558],[8.002275,49.026342],[8.007253,49.025033],[8.010678,49.025397],[8.012614,49.024042],[8.013667,49.020761],[8.016339,49.020103],[8.018528,49.021381],[8.022817,49.018114],[8.031486,49.018464],[8.0449,49.013664],[8.049608,49.014292],[8.058828,49.006789],[8.064,49.005481],[8.065231,49.002936],[8.064161,49.000972],[8.069164,48.999039],[8.068992,48.997611],[8.071625,48.996317],[8.087617,48.991772],[8.088025,48.990483],[8.091431,48.98935],[8.096667,48.989703],[8.097642,48.988847],[8.100728,48.989922],[8.106575,48.989056],[8.108728,48.987022],[8.115106,48.986908],[8.11985,48.984711],[8.123503,48.986422],[8.128094,48.982519],[8.131081,48.983158],[8.132886,48.981175],[8.135672,48.981156],[8.136533,48.979564],[8.139586,48.978481],[8.144656,48.978556],[8.148608,48.977319],[8.153831,48.977183],[8.160808,48.978614],[8.162153,48.97755],[8.166981,48.977692],[8.170122,48.976397],[8.171625,48.979072],[8.180319,48.978283],[8.180456,48.977539],[8.184644,48.978519],[8.187633,48.976592],[8.19455,48.977114],[8.197583,48.972364],[8.195536,48.969228],[8.199767,48.9669],[8.203836,48.969642],[8.207789,48.970125],[8.214361,48.974961],[8.223311,48.975833],[8.226761,48.973928],[8.229592,48.968789],[8.232572,48.966508],[8.203267,48.959828],[8.197353,48.957261],[8.192078,48.951975],[8.179667,48.935094],[8.146672,48.902403],[8.134203,48.886142],[8.123578,48.868989],[8.109611,48.840039],[8.102211,48.817481],[8.088447,48.803214],[8.073036,48.792825],[8.063825,48.789522],[8.05845,48.7889],[8.042686,48.790692],[8.036403,48.789736],[8.030439,48.787389],[8.02605,48.782789],[8.022564,48.767911],[8.019211,48.764125],[8.013122,48.760497],[8.002206,48.758853],[7.983239,48.761125],[7.973147,48.758639],[7.96895,48.753889],[7.967375,48.747586],[7.967258,48.727075],[7.962436,48.720811],[7.891472,48.663583],[7.884122,48.659644],[7.862839,48.651161],[7.845389,48.645922],[7.839778,48.641422],[7.833283,48.625444],[7.828933,48.617917],[7.8055,48.593439],[7.8007,48.585236],[7.800508,48.577522],[7.804142,48.567036],[7.805658,48.558125],[7.80565,48.549242],[7.803636,48.537119],[7.806669,48.523364],[7.805392,48.5141],[7.801128,48.507361],[7.794264,48.501361],[7.772875,48.493078],[7.768189,48.489619],[7.76715,48.4868],[7.766375,48.461733],[7.762964,48.450775],[7.733628,48.398997],[7.730997,48.385633],[7.733147,48.371092],[7.745522,48.333514],[7.744436,48.327325],[7.740017,48.321728],[7.733817,48.318019],[7.705931,48.310231],[7.699164,48.306525],[7.693558,48.301769],[7.689406,48.293547],[7.688806,48.279128],[7.666283,48.221142],[7.6613,48.216872],[7.645533,48.208539],[7.642728,48.20555],[7.629378,48.183706],[7.602083,48.159417],[7.599811,48.156222],[7.598942,48.152017],[7.600564,48.140947],[7.598856,48.1357],[7.593486,48.130725],[7.580194,48.124492],[7.577147,48.119967],[7.579589,48.105653],[7.577586,48.096558],[7.571944,48.089097],[7.569169,48.080369],[7.573492,48.059517],[7.573903,48.052608],[7.572394,48.045778],[7.568917,48.038169],[7.568931,48.034681],[7.572633,48.029567],[7.609875,47.999111],[7.6185,47.985861],[7.621175,47.978586],[7.621822,47.972328],[7.620067,47.967481],[7.609389,47.954028],[7.588986,47.938008],[7.583478,47.931578],[7.580558,47.922142],[7.582919,47.901947],[7.579072,47.894144],[7.572092,47.889089],[7.562561,47.884856],[7.557078,47.879],[7.555561,47.873847],[7.555853,47.867189],[7.562608,47.854292],[7.563578,47.848758],[7.563128,47.843628],[7.560292,47.836792],[7.549786,47.823272],[7.54385,47.808664],[7.53155,47.786994],[7.529769,47.779389],[7.530867,47.771344],[7.547381,47.741394],[7.548653,47.734992],[7.545589,47.72495],[7.539861,47.718003],[7.514442,47.702786],[7.512636,47.700756],[7.511689,47.696797],[7.519036,47.684831],[7.519858,47.680175],[7.519247,47.669344],[7.522683,47.662014],[7.537142,47.649744],[7.559164,47.638208],[7.566925,47.632117],[7.569781,47.627567],[7.574144,47.616389],[7.587525,47.608239],[7.592094,47.603461],[7.592878,47.597225],[7.589129325398529,47.5900196005541],[7.589103,47.589969],[7.585111,47.582842],[7.584706,47.5757],[7.566728,47.577675],[7.565314,47.576219],[7.557053,47.572414],[7.556372,47.5712],[7.559197,47.5693],[7.557436,47.565228],[7.547556,47.5619],[7.536514,47.555589],[7.525975,47.552178],[7.518711,47.546292],[7.510911,47.544581],[7.509,47.545625],[7.499378,47.540253],[7.498242,47.536161],[7.5014,47.532372],[7.500589,47.530519],[7.502178,47.528683],[7.509642,47.528492],[7.519306,47.534728],[7.524186,47.531747],[7.526767,47.533058],[7.531061,47.529186],[7.530819,47.526883],[7.523728,47.518472],[7.523456,47.51465],[7.518267,47.515453],[7.517633,47.517153],[7.503717,47.5146],[7.499767,47.5206],[7.497947,47.521086],[7.499072,47.515933],[7.508636,47.510603],[7.510989,47.502542],[7.508903,47.502203],[7.511178,47.496778],[7.501089,47.493761],[7.502333,47.491036],[7.493797,47.4881],[7.489442,47.482722],[7.475772,47.480208],[7.471064,47.480614],[7.462578,47.488847],[7.4507,47.490225],[7.446947,47.493536],[7.435042,47.498483],[7.431419,47.495775],[7.422028,47.483883],[7.421008,47.480242],[7.4293,47.482536],[7.431728,47.480764],[7.435733,47.480628],[7.446147,47.47705],[7.448656,47.474225],[7.450261,47.475575],[7.45615,47.472794],[7.445297,47.461686],[7.429872,47.459572],[7.427806,47.457072],[7.428322,47.453764],[7.422517,47.45065],[7.424186,47.449561],[7.415175,47.4426],[7.406942,47.440728],[7.402886,47.438414],[7.402822,47.435608],[7.39255,47.435092],[7.38525,47.431733],[7.381908,47.4331],[7.380742,47.432064],[7.368689,47.434342],[7.366014,47.433828],[7.354347,47.434386],[7.345994,47.436025],[7.338667,47.441028],[7.330036,47.44185],[7.323864,47.438867],[7.312106,47.438153],[7.302969,47.439175],[7.299225,47.436211],[7.296217,47.435714],[7.292339,47.433533],[7.286886,47.435314],[7.281625,47.434786],[7.280228,47.432886],[7.277883,47.432497],[7.270622,47.427422],[7.254939,47.424583],[7.244947,47.420547],[7.245364,47.426178],[7.243661,47.428281],[7.238742,47.42855],[7.237567,47.430617],[7.238669,47.433597],[7.234422,47.438311],[7.229381,47.43975],[7.223322,47.439703],[7.207008,47.435506],[7.195939,47.435636],[7.192661,47.4391],[7.174481,47.442858],[7.170158,47.442936],[7.170111,47.444222],[7.172303,47.446153],[7.177825,47.458181],[7.178858,47.461169],[7.177644,47.468047],[7.184261,47.47675],[7.190892,47.4887],[7.202317,47.4918],[7.200553,47.494172],[7.1689,47.489514],[7.159353,47.490833],[7.152528,47.496372],[7.1394,47.502006],[7.127958,47.504008],[7.112431,47.495375],[7.099922,47.494558],[7.094033,47.4957],[7.079467,47.489092],[7.074578,47.488258],[7.071661,47.489822],[7.071469,47.492375],[7.059864,47.495531],[7.051811,47.495044],[7.044528,47.498411],[7.036703,47.497603],[7.036253,47.499022],[7.027425,47.501275],[7.024414,47.504358],[7.016614,47.503889],[7.000133,47.499953],[7.000458,47.499153],[6.985575,47.4936],[6.98335,47.494517],[6.982789,47.493536],[6.985878,47.492161],[6.988617,47.487056],[6.988692,47.481217],[6.986608,47.47655],[6.988308,47.473203],[6.9931,47.471314],[6.990928,47.467914],[6.991722,47.466642],[7.000589,47.467378],[6.999611,47.465061],[7.001269,47.461883],[6.997639,47.459964],[6.997525,47.456267],[7.001358,47.456019],[7.002089,47.454161],[6.995853,47.449936],[6.990114,47.447908],[6.985036,47.448033],[6.980967,47.449258],[6.970422,47.446903],[6.966153,47.437614],[6.963878,47.435842],[6.957453,47.433844],[6.95475,47.435264],[6.940342,47.433439],[6.941836,47.415647],[6.938492,47.406161],[6.920867,47.405247],[6.9197,47.406761],[6.913453,47.404708],[6.917761,47.403164],[6.915367,47.397244],[6.9098,47.396247],[6.911553,47.390678],[6.913575,47.389536],[6.912097,47.386364],[6.903581,47.382547],[6.895142,47.3815],[6.895717,47.379803],[6.883497,47.373053],[6.885183,47.367611],[6.879217,47.358417],[6.879436,47.352678],[6.883433,47.352589],[6.894261,47.356267],[6.895664,47.358872],[6.899542,47.357722],[6.901944,47.359586],[6.91565,47.357814],[6.918611,47.35565],[6.923428,47.355519],[6.932008,47.358111],[6.942906,47.357772],[6.951739,47.359922],[6.952375,47.358719],[6.964389,47.360478],[6.967472,47.359358],[6.970183,47.361142],[6.974733,47.359928],[6.984047,47.363797],[6.994628,47.363281],[7.007033,47.368086],[7.011958,47.372961],[7.013133,47.371697],[7.017639,47.372875],[7.018889,47.370658],[7.028233,47.369342],[7.033856,47.369739],[7.034525,47.363453],[7.042911,47.364328],[7.049447,47.361553],[7.052639,47.351994],[7.049708,47.347353],[7.055614,47.346833],[7.062083,47.343678],[7.059144,47.339872],[7.054417,47.338544],[7.055228,47.3379],[7.052972,47.336931],[7.053211,47.335303],[7.056561,47.334683],[7.044425,47.326314],[7.033917,47.328589],[7.030686,47.327086],[7.009886,47.324347],[7.009708,47.320397],[7.013622,47.320367],[7.016578,47.3148],[7.013747,47.309564],[7.011522,47.308486],[7.008078,47.301081],[7.003867,47.301658],[6.996275,47.295808],[6.989667,47.296997],[6.982975,47.295478],[6.975867,47.296378],[6.976025,47.293417],[6.973847,47.291528],[6.967833,47.292961],[6.961831,47.291569],[6.949861,47.292258],[6.940578,47.286678],[6.940714,47.284897],[6.945414,47.281122],[6.944917,47.279339],[6.952011,47.269617],[6.949653,47.265939],[6.951478,47.262753],[6.9493,47.256833],[6.946442,47.254411],[6.947242,47.250583],[6.955447,47.243422],[6.942683,47.238006],[6.942108,47.233247],[6.939356,47.230922],[6.932633,47.231117],[6.927403,47.228422],[6.925939,47.224125],[6.921322,47.22085],[6.910022,47.218],[6.906908,47.215125],[6.880197,47.200544],[6.878267,47.195794],[6.874747,47.193078],[6.873342,47.1897],[6.874081,47.186122],[6.872878,47.185172],[6.868017,47.185606],[6.866058,47.184797],[6.863786,47.180286],[6.840642,47.171119],[6.843617,47.167053],[6.848508,47.165944],[6.853194,47.166886],[6.858536,47.165753],[6.858289,47.16415],[6.84905,47.156447],[6.840622,47.154147],[6.839592,47.150742],[6.830475,47.1465],[6.827956,47.146714],[6.824947,47.142414],[6.819289,47.140136],[6.815608,47.135833],[6.807914,47.135486],[6.806386,47.131042],[6.800858,47.129133],[6.796825,47.129344],[6.793158,47.127264],[6.779339,47.123622],[6.776058,47.1214],[6.765247,47.120653],[6.752394,47.114839],[6.747942,47.110664],[6.745342,47.109886],[6.740836,47.109947],[6.739931,47.108647],[6.741383,47.104356],[6.746681,47.099089],[6.744561,47.092897],[6.736092,47.089986],[6.729717,47.090044],[6.726144,47.092244],[6.7227,47.089658],[6.7161,47.088889],[6.713722,47.087425],[6.713736,47.086436],[6.712853,47.086414],[6.710339,47.084508],[6.708744,47.084569],[6.707747,47.083242],[6.702417,47.081975],[6.703053,47.080747],[6.707633,47.079158],[6.705269,47.076703],[6.706539,47.074364],[6.703833,47.073897],[6.701014,47.070111],[6.692764,47.068761],[6.691761,47.066253],[6.695364,47.062625],[6.695681,47.063644],[6.698808,47.062189],[6.701358,47.058489],[6.704286,47.059128],[6.708814,47.058078],[6.711558,47.053742],[6.719858,47.052275],[6.711478,47.048119],[6.708783,47.045],[6.705947,47.044478],[6.696522,47.037192],[6.686028,47.037522],[6.675742,47.034683],[6.659728,47.027386],[6.654042,47.022356],[6.648603,47.014644],[6.646181,47.009528],[6.640389,47.002794],[6.6337,46.998142],[6.61815,46.991789],[6.610814,46.990936],[6.596364,46.992683],[6.571911,46.982119],[6.537667,46.973714],[6.515439,46.970039],[6.504881,46.965822],[6.496058,46.97435],[6.476458,46.960739],[6.460403,46.944058],[6.444428,46.933422],[6.432658,46.928706],[6.435886,46.921761],[6.440914,46.918308],[6.458056,46.900642],[6.464647,46.890425],[6.459794,46.851378],[6.442661,46.832617],[6.439583,46.823989],[6.440811,46.815867],[6.430964,46.812586],[6.434967,46.801675],[6.458272,46.788769],[6.451561,46.778475],[6.452306,46.774217],[6.448942,46.773394],[6.438331,46.766692],[6.437833,46.76315],[6.439397,46.762761],[6.430372,46.756833],[6.424486,46.75445],[6.403378,46.750042],[6.4009,46.750972],[6.3998,46.749711],[6.394967,46.748472],[6.38835,46.743453],[6.392061,46.739097],[6.389383,46.734881],[6.383972,46.73115],[6.370089,46.730589],[6.367825,46.729336],[6.371581,46.729236],[6.371731,46.724317],[6.364275,46.72235],[6.360097,46.723128],[6.357406,46.719811],[6.353967,46.7184],[6.352167,46.714903],[6.349464,46.714606],[6.341364,46.710272],[6.327308,46.706367],[6.325,46.706686],[6.297508,46.694431],[6.292436,46.693122],[6.282419,46.690725],[6.279336,46.687572],[6.269467,46.682667],[6.269,46.680108],[6.270836,46.679867],[6.270822,46.678661],[6.268336,46.678203],[6.267864,46.676408],[6.233114,46.654525],[6.227781,46.648233],[6.217186,46.643614],[6.217264,46.641967],[6.212969,46.641219],[6.212825,46.640075],[6.205597,46.635147],[6.204072,46.636175],[6.199522,46.634703],[6.200719,46.633728],[6.196575,46.628789],[6.179592,46.620108],[6.178817,46.615772],[6.165253,46.61015],[6.161169,46.610042],[6.153711,46.603697],[6.148417,46.602322],[6.125547,46.588972],[6.12205,46.584072],[6.110875,46.576322],[6.156553,46.545483],[6.148469,46.539436],[6.153339,46.536928],[6.143653,46.527739],[6.137953,46.531156],[6.11255,46.509664],[6.096847,46.481356],[6.076889,46.467514],[6.072689,46.465692],[6.073525,46.459989],[6.076764,46.457492],[6.074375,46.453656],[6.084367,46.447614],[6.086322,46.443875],[6.085589,46.440881],[6.074811,46.43215],[6.074008,46.428361],[6.069897,46.42475],[6.06385,46.416408],[6.067625,46.414842],[6.098128,46.409008],[6.100736,46.404092],[6.106078,46.399447],[6.109289,46.399467],[6.114375,46.396739],[6.113447,46.400156],[6.134803,46.388717],[6.150153,46.377467],[6.156731,46.377956],[6.158508,46.379756],[6.169767,46.367458],[6.159225,46.357686],[6.157583,46.352917],[6.158378,46.351161],[6.153239,46.347603],[6.151828,46.347311],[6.152428,46.346211],[6.149261,46.342772],[6.145983,46.341836],[6.145425,46.340778],[6.144497,46.34145],[6.137958,46.338461],[6.139797,46.337661],[6.137778,46.33735],[6.1377,46.335731],[6.139447,46.334825],[6.135183,46.329603],[6.135928,46.328361],[6.134,46.328014],[6.133742,46.326903],[6.125197,46.319303],[6.126022,46.317422],[6.124244,46.317383],[6.12425,46.315575],[6.119803,46.312589],[6.119878,46.303611],[6.118669,46.303122],[6.122044,46.299931],[6.120272,46.298067],[6.121278,46.297258],[6.118939,46.295811],[6.119711,46.294442],[6.114133,46.294844],[6.1099,46.290108],[6.102392,46.285153],[6.104817,46.284119],[6.103439,46.278958],[6.113633,46.272761],[6.110314,46.270564],[6.115197,46.266669],[6.120053,46.264883],[6.118072,46.263636],[6.122967,46.257089],[6.121219,46.254722],[6.124544,46.251314],[6.108878,46.240136],[6.106856,46.241264],[6.101244,46.237939],[6.088953,46.245803],[6.088047,46.247292],[6.072703,46.243186],[6.073136,46.241428],[6.067317,46.241889],[6.063444,46.2458],[6.059944,46.244739],[6.057275,46.242108],[6.055922,46.241703],[6.050292,46.235292],[6.048889,46.2354],[6.046047,46.231344],[6.033681,46.238381],[6.025786,46.233289],[6.016533,46.231642],[6.015386,46.230422],[6.013128,46.231014],[6.012944,46.228575],[6.010078,46.229114],[6.009958,46.227772],[6.008397,46.226464],[6.006922,46.226447],[6.007467,46.223872],[6.003472,46.223003],[6.002131,46.220833],[6.000225,46.220306],[5.998236,46.222008],[5.993042,46.222806],[5.990425,46.221864],[5.993786,46.21775],[5.993164,46.215375],[5.986928,46.216878],[5.979064,46.217217],[5.974186,46.214492],[5.969506,46.206864],[5.973694,46.202869],[5.966028,46.199847],[5.9638,46.196939],[5.991286,46.187469],[5.995256,46.182903],[5.989931,46.175656],[5.987644,46.170525],[5.9841,46.173844],[5.982089,46.173478],[5.980169,46.166283],[5.964264,46.144472],[5.965694,46.13705],[5.956136,46.132569],[5.957178,46.128436],[5.96115,46.130828],[5.965619,46.130231],[5.977297,46.133458],[5.982147,46.137425],[5.983311,46.143181],[5.994047,46.144497],[6.003586,46.142028],[6.013133,46.142311],[6.014892,46.143297],[6.031403,46.139447],[6.032589,46.138706],[6.035667,46.134264],[6.036428,46.136864],[6.043161,46.141258],[6.045103,46.140292],[6.050219,46.15125],[6.060656,46.151189],[6.075181,46.149072],[6.092108,46.151858],[6.099344,46.143944],[6.120817,46.142992],[6.130583,46.140525],[6.135964,46.141711],[6.141622,46.147075],[6.144425,46.145083],[6.146758,46.146683],[6.148478,46.150547],[6.168742,46.157578],[6.174444,46.158369],[6.188842,46.166286],[6.186208,46.178367],[6.187392,46.180394],[6.195203,46.184314],[6.198133,46.1836],[6.205589,46.191833],[6.216247,46.195358],[6.221678,46.200553],[6.235575,46.206558],[6.245017,46.205094],[6.244886,46.206928],[6.249422,46.205114],[6.254458,46.209494],[6.266517,46.213875],[6.276881,46.215889],[6.294811,46.225439],[6.309903,46.244014],[6.308933,46.250222],[6.305894,46.251567],[6.3103,46.256175],[6.306803,46.256517],[6.302622,46.254872],[6.295247,46.255978],[6.294092,46.258439],[6.296428,46.263322],[6.295025,46.264603],[6.291639,46.26275],[6.288483,46.258653],[6.283061,46.256231],[6.28505,46.254786],[6.278431,46.252675],[6.279364,46.251497],[6.266917,46.247672],[6.263628,46.250525],[6.260156,46.25155],[6.261714,46.254464],[6.249236,46.262817],[6.242828,46.272789],[6.239156,46.275153],[6.238089,46.281808],[6.241928,46.284764],[6.246961,46.285472],[6.252975,46.290531],[6.249261,46.294836],[6.247472,46.300053],[6.249083,46.301808],[6.219322,46.312033],[6.252658,46.360378],[6.334961,46.403358],[6.425289,46.415492],[6.518981,46.456847],[6.681911,46.454317],[6.821025,46.4273],[6.801689,46.386875],[6.803878,46.384017],[6.805981,46.383336],[6.806522,46.380253],[6.791675,46.367439],[6.779539,46.366389],[6.771481,46.361169],[6.770617,46.35735],[6.772094,46.350289],[6.774403,46.347333],[6.779358,46.344808],[6.784239,46.336369],[6.784986,46.332633],[6.796347,46.332975],[6.798617,46.328742],[6.797197,46.326892],[6.800386,46.319711],[6.80775,46.320464],[6.81525,46.316358],[6.819128,46.315678],[6.821825,46.312661],[6.824817,46.312111],[6.830014,46.305906],[6.827717,46.302383],[6.82995,46.299914],[6.8346,46.299758],[6.836475,46.296753],[6.843536,46.294256],[6.847167,46.289775],[6.85085,46.290156],[6.851892,46.292114],[6.854342,46.292394],[6.858839,46.290458],[6.85905,46.287911],[6.864158,46.283233],[6.864825,46.280439],[6.858847,46.273958],[6.860331,46.266175],[6.854536,46.258769],[6.855403,46.255114],[6.852233,46.252144],[6.843011,46.248797],[6.839917,46.248339],[6.837322,46.2413],[6.834136,46.237603],[6.829692,46.233944],[6.827017,46.234417],[6.821203,46.232594],[6.8218,46.223411],[6.816822,46.220083],[6.813133,46.21515],[6.809994,46.214253],[6.808908,46.211744],[6.803525,46.203528],[6.812661,46.181775],[6.807272,46.178711],[6.805436,46.172711],[6.791736,46.163097],[6.792889,46.159711],[6.790469,46.155172],[6.7944,46.148008],[6.797714,46.136889],[6.799669,46.135733],[6.807839,46.136364],[6.815233,46.129289],[6.819092,46.131136],[6.838467,46.132922],[6.841817,46.131997],[6.843014,46.128961],[6.852953,46.126314],[6.877936,46.125156],[6.881542,46.122961],[6.890833,46.1253],[6.895194,46.123864],[6.899942,46.123967],[6.892947,46.113086],[6.895542,46.108428],[6.888081,46.100675],[6.886706,46.097186],[6.882656,46.094917],[6.8916,46.084967],[6.8909,46.081319],[6.888275,46.078789],[6.89135,46.073928],[6.887747,46.073442],[6.879969,46.069356],[6.872808,46.055853],[6.872486,46.051975],[6.875819,46.049481],[6.875503,46.047725],[6.890631,46.042447],[6.891358,46.045933],[6.894617,46.048342],[6.909411,46.050786],[6.910397,46.054408],[6.913631,46.055411],[6.924572,46.065078],[6.927633,46.064006],[6.932997,46.0667],[6.937308,46.064578],[6.936142,46.059131],[6.9347,46.058503],[6.935778,46.055056],[6.936939,46.055347],[6.943661,46.050728],[6.950153,46.051583],[6.954072,46.042369],[6.962636,46.030542],[6.966453,46.031286],[6.970864,46.025917],[6.981192,46.02005],[6.980769,46.018131],[6.985036,46.008028],[6.984242,46.005803],[6.995622,46.000128],[7.000808,45.999033],[7.005214,46.001622],[7.010436,45.997442],[7.010278,45.994436],[7.013078,45.991289],[7.01205,45.987389],[7.015653,45.987214],[7.023281,45.978553],[7.020678,45.976286],[7.010061,45.972989],[7.009108,45.969333],[7.017767,45.960561],[7.037311,45.954828],[7.038508,45.944928],[7.035744,45.938378],[7.042508,45.9302],[7.043878,45.924483],[7.044686,45.922331],[7.044686,45.922331],[7.039364,45.921817],[7.0367,45.920739],[7.032017,45.920439],[7.023078,45.916428],[7.019853,45.915172],[7.015814,45.910714],[7.013408,45.906317],[7.007261,45.903083],[7.002878,45.896111],[7.006186,45.886628],[7.002275,45.881511],[6.999053,45.877711],[6.999311,45.873819],[6.990372,45.868133],[6.981433,45.869033],[6.969358,45.865981],[6.966692,45.864394],[6.956292,45.860983],[6.951136,45.860833],[6.948386,45.856375],[6.942711,45.851708],[6.941722,45.850242],[6.941636,45.847189],[6.935364,45.845633],[6.932611,45.845333],[6.926639,45.847367],[6.921225,45.846978],[6.915767,45.843269],[6.913186,45.840875],[6.906797,45.843614],[6.901842,45.842461],[6.893247,45.843328],[6.881514,45.849492],[6.875497,45.847158],[6.874078,45.844914],[6.873197,45.840258],[6.869997,45.838333],[6.872103,45.835764],[6.869136,45.832617],[6.871972,45.830433],[6.868364,45.824658],[6.865828,45.825494],[6.859597,45.833186],[6.850828,45.838183],[6.841117,45.840547],[6.833253,45.837494],[6.822378,45.837525],[6.818167,45.835131],[6.816664,45.830311],[6.810861,45.823011],[6.805017,45.815472],[6.810989,45.810889],[6.812708,45.806106],[6.811033,45.802306],[6.812108,45.795133],[6.805231,45.792131],[6.801236,45.781269],[6.803083,45.773369],[6.805875,45.769211],[6.805253,45.764667],[6.806047,45.7538],[6.806564,45.7499],[6.806178,45.746992],[6.816964,45.740006],[6.811206,45.730111],[6.808153,45.727233],[6.809614,45.724592],[6.8195,45.718086],[6.821519,45.712361],[6.829728,45.702644],[6.837978,45.701594],[6.841717,45.699556],[6.847628,45.689428],[6.860392,45.684653],[6.867139,45.683875],[6.869803,45.680483],[6.878139,45.678711],[6.884114,45.680303],[6.892731,45.675797],[6.901089,45.680964],[6.903667,45.679822],[6.906869,45.675078],[6.905603,45.671158],[6.906289,45.668622],[6.902831,45.663578],[6.916044,45.6602],[6.915917,45.651283],[6.924639,45.648986],[6.931044,45.645681],[6.941358,45.648881],[6.962158,45.654708],[6.970583,45.653403],[6.974428,45.646792],[6.990158,45.643294],[6.992306,45.639628],[7.000922,45.639733],[7.00075,45.634761],[6.993681,45.628228],[6.987019,45.623811],[6.983667,45.616483],[6.986011,45.612247],[6.980658,45.598286],[6.979478,45.59265],[6.978058,45.587958],[6.982208,45.582547],[6.993575,45.576686],[6.99525,45.574506],[6.994411,45.571153],[6.996733,45.5684],[6.989878,45.562778],[6.990642,45.555797],[6.993789,45.547422],[6.995722,45.544297],[6.991706,45.532453],[6.992114,45.529939],[7.003717,45.521119],[7.004919,45.516558],[7.000881,45.509242],[7.000708,45.504242],[7.005994,45.502164],[7.015019,45.498492],[7.025006,45.496528],[7.038108,45.4964],[7.047369,45.497131],[7.054803,45.494781],[7.055836,45.487942],[7.049433,45.484597],[7.046381,45.477942],[7.049389,45.472458],[7.060778,45.471464],[7.065117,45.473903],[7.086264,45.4727],[7.091378,45.470681],[7.103969,45.467939],[7.103067,45.465983],[7.100444,45.464203],[7.099197,45.458753],[7.10225,45.453328],[7.111575,45.445617],[7.1151,45.439622],[7.114197,45.433658],[7.120986,45.4317],[7.136331,45.426158],[7.143378,45.425403],[7.152747,45.422483],[7.157431,45.416728],[7.169336,45.411397],[7.185064,45.406692],[7.185108,45.402469],[7.178575,45.396192],[7.178919,45.389978],[7.172944,45.385389],[7.16985,45.384967],[7.165081,45.382764],[7.163147,45.380139],[7.161642,45.375522],[7.158719,45.369122],[7.159622,45.367131],[7.161042,45.363058],[7.163661,45.36025],[7.157861,45.358078],[7.152789,45.354153],[7.151458,45.352978],[7.137619,45.350381],[7.133622,45.345853],[7.132097,45.338769],[7.134353,45.334086],[7.133967,45.330856],[7.125328,45.326958],[7.113725,45.328772],[7.111147,45.325992],[7.111661,45.322819],[7.110114,45.317925],[7.118086,45.310597],[7.118236,45.306033],[7.120342,45.302378],[7.123394,45.294111],[7.129111,45.288958],[7.136436,45.280797],[7.133772,45.275433],[7.128786,45.271519],[7.131925,45.268858],[7.133236,45.265142],[7.132161,45.261664],[7.136436,45.259292],[7.137275,45.255347],[7.130508,45.249653],[7.128122,45.246614],[7.124039,45.244089],[7.116539,45.245783],[7.1102,45.245797],[7.106869,45.240611],[7.10515,45.236572],[7.0975,45.233378],[7.094492,45.230278],[7.090172,45.227947],[7.087939,45.225919],[7.083597,45.225633],[7.081428,45.223756],[7.083447,45.220033],[7.082072,45.217433],[7.079472,45.21545],[7.078978,45.212531],[7.072231,45.210836],[7.070447,45.210139],[7.067633,45.210153],[7.057728,45.220111],[7.049389,45.225678],[7.041117,45.224497],[7.030039,45.217517],[7.025236,45.215464],[7.023044,45.218536],[7.018683,45.214889],[7.011614,45.21645],[7.005383,45.217719],[7.003297,45.219778],[6.996658,45.215117],[6.994272,45.214708],[6.992853,45.210019],[6.987008,45.211033],[6.982797,45.210261],[6.972764,45.207886],[6.965114,45.207372],[6.961139,45.202378],[6.963997,45.200153],[6.967025,45.195675],[6.953294,45.190706],[6.952392,45.186375],[6.954542,45.180558],[6.949447,45.178956],[6.943303,45.175517],[6.946364,45.170464],[6.929358,45.170747],[6.925617,45.169808],[6.922783,45.167614],[6.913564,45.168217],[6.909867,45.165583],[6.902775,45.167614],[6.893086,45.168114],[6.891281,45.164858],[6.891108,45.161678],[6.884403,45.157181],[6.890742,45.147792],[6.891389,45.14555],[6.898114,45.142008],[6.893428,45.137056],[6.877378,45.135058],[6.872692,45.135467],[6.865603,45.131317],[6.857103,45.129428],[6.847853,45.127261],[6.845447,45.131939],[6.846586,45.135617],[6.835153,45.135875],[6.827397,45.141764],[6.822733,45.143689],[6.820519,45.144886],[6.818028,45.144764],[6.811303,45.148458],[6.798647,45.151275],[6.794628,45.153167],[6.786267,45.153986],[6.778061,45.1583],[6.769164,45.159678],[6.756981,45.150867],[6.753672,45.148383],[6.7509,45.143356],[6.740347,45.136844],[6.732117,45.138722],[6.724792,45.139147],[6.710867,45.144689],[6.690228,45.139278],[6.679753,45.139617],[6.673972,45.129517],[6.672081,45.124411],[6.664539,45.122425],[6.661875,45.1205],[6.657814,45.121031],[6.653172,45.116739],[6.649992,45.115253],[6.634111,45.115467],[6.631897,45.110236],[6.629106,45.107536],[6.626828,45.102656],[6.631833,45.097833],[6.632542,45.095408],[6.639764,45.091042],[6.641267,45.087494],[6.647047,45.084008],[6.645931,45.075275],[6.654139,45.071408],[6.662089,45.071389],[6.6631,45.055725],[6.658911,45.05205],[6.666717,45.047578],[6.67,45.042311],[6.665042,45.039272],[6.664872,45.036325],[6.665,45.033078],[6.668825,45.028886],[6.671017,45.027886],[6.672564,45.021172],[6.675272,45.019472],[6.684597,45.022206],[6.690958,45.020808],[6.709222,45.021414],[6.719022,45.021111],[6.72375,45.021842],[6.743517,45.015675],[6.745539,45.012911],[6.745667,45.010175],[6.750008,45.002156],[6.751167,44.995867],[6.7372,44.993317],[6.737844,44.990125],[6.749364,44.984658],[6.750394,44.977183],[6.755722,44.975239],[6.763589,44.970561],[6.764792,44.95935],[6.756197,44.945892],[6.753489,44.9451],[6.751511,44.941578],[6.743603,44.936231],[6.746053,44.935561],[6.754133,44.937597],[6.758344,44.936447],[6.7609,44.931211],[6.754153,44.93135],[6.752522,44.926481],[6.748975,44.922586],[6.750739,44.920017],[6.751811,44.918464],[6.750414,44.906525],[6.753208,44.905078],[6.764339,44.902403],[6.772461,44.902933],[6.778758,44.897261],[6.780414,44.893731],[6.783658,44.893183],[6.785742,44.888758],[6.800417,44.890811],[6.800333,44.884042],[6.804672,44.877958],[6.808864,44.875508],[6.827836,44.868008],[6.831061,44.866853],[6.835208,44.863111],[6.842061,44.859581],[6.855406,44.857056],[6.864194,44.850394],[6.8718,44.850044],[6.878225,44.850653],[6.88695,44.847231],[6.899219,44.848219],[6.904722,44.847153],[6.907386,44.8444],[6.913939,44.845633],[6.917314,44.848478],[6.922664,44.852022],[6.926811,44.857375],[6.927519,44.859808],[6.932011,44.862883],[6.955819,44.854439],[6.964908,44.849375],[6.969742,44.847611],[6.972172,44.846256],[6.982528,44.846347],[6.996883,44.841936],[7.002256,44.841769],[7.005822,44.839883],[7.010333,44.825828],[7.02125,44.823956],[7.023786,44.822233],[7.020283,44.821167],[7.019294,44.812756],[7.014139,44.808139],[7.009453,44.79985],[7.008444,44.797958],[6.999439,44.789608],[7.008228,44.784503],[7.012269,44.78295],[7.019897,44.774203],[7.021531,44.771244],[7.024258,44.768839],[7.022025,44.765469],[7.024925,44.761172],[7.024217,44.755428],[7.021939,44.753994],[7.022433,44.749819],[7.026019,44.743542],[7.023764,44.739778],[7.030447,44.732553],[7.030747,44.729247],[7.043297,44.718275],[7.057028,44.714603],[7.065989,44.713386],[7.066033,44.707472],[7.068997,44.70185],[7.070953,44.699686],[7.075358,44.689033],[7.076497,44.680789],[7.069856,44.679767],[7.058167,44.680606],[7.05215,44.682678],[7.046672,44.683761],[7.033692,44.690342],[7.027483,44.691242],[7.020497,44.690297],[7.016953,44.689064],[7.006275,44.688181],[7.00245,44.687175],[6.998131,44.69045],[6.987214,44.689033],[6.978467,44.683578],[6.970325,44.677039],[6.962503,44.677589],[6.957903,44.671858],[6.958397,44.666311],[6.958719,44.662442],[6.950147,44.657292],[6.947997,44.652614],[6.953047,44.644842],[6.954036,44.63675],[6.963814,44.625869],[6.968283,44.624697],[6.967572,44.619256],[6.963103,44.619272],[6.957689,44.621175],[6.948964,44.618708],[6.950447,44.610894],[6.945161,44.605814],[6.937533,44.602875],[6.937425,44.598439],[6.933386,44.595925],[6.933622,44.585044],[6.931817,44.582608],[6.933064,44.573983],[6.929711,44.572092],[6.918453,44.569578],[6.9125,44.568528],[6.915464,44.562475],[6.91555,44.559094],[6.904569,44.556228],[6.901025,44.554003],[6.8972,44.555406],[6.891569,44.554247],[6.889186,44.552297],[6.882028,44.552419],[6.878636,44.554369],[6.876056,44.550225],[6.876636,44.546278],[6.87335,44.546094],[6.8689,44.536708],[6.857492,44.533522],[6.853514,44.528022],[6.857769,44.520967],[6.856825,44.514672],[6.859189,44.509278],[6.858886,44.506339],[6.862928,44.499525],[6.865117,44.496875],[6.868233,44.492836],[6.877108,44.487883],[6.876592,44.481422],[6.884822,44.475769],[6.892944,44.471944],[6.902958,44.469353],[6.906353,44.466747],[6.909297,44.458581],[6.911533,44.452667],[6.914047,44.44965],[6.922858,44.445503],[6.937103,44.438875],[6.939403,44.434225],[6.948083,44.429717],[6.945786,44.427339],[6.933472,44.429853],[6.932375,44.424639],[6.923803,44.422936],[6.917142,44.4272],[6.902958,44.421003],[6.898425,44.421692],[6.895503,44.420772],[6.892686,44.420036],[6.895094,44.408914],[6.897631,44.405217],[6.894514,44.400522],[6.895417,44.396808],[6.896447,44.394003],[6.895308,44.387789],[6.895825,44.377111],[6.896383,44.373628],[6.893783,44.369181],[6.887703,44.366497],[6.887744,44.360989],[6.901239,44.357828],[6.906397,44.357872],[6.913058,44.353256],[6.919719,44.352119],[6.922364,44.350294],[6.921483,44.345661],[6.922169,44.341858],[6.924103,44.339956],[6.927714,44.332208],[6.937039,44.328172],[6.939253,44.324536],[6.943272,44.323417],[6.947225,44.320258],[6.953133,44.318522],[6.954894,44.314642],[6.960567,44.310808],[6.959514,44.306894],[6.957989,44.30375],[6.957733,44.300236],[6.956336,44.296617],[6.960375,44.294053],[6.963856,44.294008],[6.967981,44.295114],[6.971333,44.292964],[6.969464,44.285953],[6.972708,44.283953],[6.980575,44.286783],[6.995219,44.280172],[6.995528,44.275722],[6.997142,44.272361],[6.995808,44.267789],[6.996367,44.264278],[6.998,44.257542],[6.997314,44.251375],[7.00075,44.246022],[7.001933,44.243353],[7.004403,44.241236],[7.008208,44.236142],[7.014225,44.233994],[7.01805,44.232214],[7.0234,44.234117],[7.0266,44.230772],[7.030642,44.230878],[7.032275,44.226217],[7.03885,44.223714],[7.053053,44.228669],[7.057867,44.228856],[7.062422,44.226892],[7.065172,44.2289],[7.068783,44.232522],[7.079592,44.231403],[7.086853,44.228442],[7.090419,44.224053],[7.092828,44.220247],[7.0959,44.220878],[7.10325,44.220494],[7.107611,44.218056],[7.114594,44.217089],[7.142336,44.200658],[7.148481,44.200653],[7.152692,44.203303],[7.157722,44.204847],[7.163672,44.207817],[7.168122,44.202286],[7.175514,44.199989],[7.178564,44.197589],[7.187094,44.201131],[7.188986,44.199081],[7.190706,44.194014],[7.194508,44.186942],[7.201469,44.18625],[7.204714,44.181736],[7.205725,44.178731],[7.21445,44.174017],[7.217242,44.170475],[7.220875,44.168317],[7.226289,44.168564],[7.228911,44.16875],[7.235958,44.175128],[7.243631,44.171322],[7.244361,44.166672],[7.249711,44.157822],[7.254117,44.155433],[7.257725,44.154508],[7.263356,44.148019],[7.273047,44.146939],[7.281942,44.140833],[7.288992,44.145303],[7.294942,44.144383],[7.304225,44.145689],[7.307278,44.144508],[7.311081,44.147308],[7.318775,44.143039],[7.329903,44.144303],[7.333578,44.144333],[7.342517,44.145522],[7.345461,44.143564],[7.346817,44.136122],[7.353111,44.125617],[7.358203,44.116044],[7.366133,44.117156],[7.369078,44.116769],[7.389642,44.124708],[7.394025,44.124322],[7.405006,44.11825],[7.411839,44.119267],[7.41575,44.117433],[7.422111,44.112453],[7.426408,44.112483],[7.427075,44.117247],[7.426708,44.121239],[7.429264,44.124108],[7.430706,44.130289],[7.444092,44.128192],[7.448689,44.128686],[7.461153,44.126003],[7.474283,44.133481],[7.480492,44.133264],[7.484167,44.134406],[7.492097,44.138506],[7.494589,44.140897],[7.507825,44.144011],[7.516142,44.138306],[7.518656,44.138614],[7.522178,44.137811],[7.527272,44.140619],[7.531697,44.1468],[7.534986,44.147247],[7.541067,44.14515],[7.54775,44.145644],[7.558881,44.147942],[7.565597,44.151417],[7.564311,44.155508],[7.571453,44.151811],[7.576889,44.153061],[7.588147,44.150422],[7.595947,44.15275],[7.60145,44.150672],[7.619047,44.149406],[7.626847,44.158269],[7.62775,44.164158],[7.630672,44.166147],[7.630975,44.171189],[7.635658,44.176414],[7.645156,44.177925],[7.670919,44.175722],[7.673992,44.177125],[7.683233,44.175042],[7.684219,44.172161],[7.6793,44.162756],[7.672014,44.158872],[7.671542,44.152614],[7.679108,44.146414],[7.676378,44.14125],[7.669092,44.135039],[7.666728,44.131614],[7.669394,44.128703],[7.672939,44.119761],[7.69015,44.108122],[7.696083,44.099194],[7.700036,44.095203],[7.707256,44.091656],[7.713725,44.085797],[7.717528,44.082944],[7.715678,44.079414],[7.713789,44.075653],[7.7134,44.073003],[7.713594,44.061842],[7.708072,44.057908],[7.703258,44.050447],[7.703575,44.046853],[7.700594,44.040811],[7.68985,44.039517],[7.677689,44.032964],[7.675347,44.029775],[7.666642,44.031161],[7.663183,44.029111],[7.661786,44.023208],[7.662539,44.021403],[7.662261,44.019028],[7.66415,44.012369],[7.666986,44.006836],[7.670136,43.998528],[7.663358,43.99175],[7.663386,43.986614],[7.656564,43.985531],[7.655597,43.977728],[7.653558,43.975833],[7.652911,43.974244],[7.644317,43.973906],[7.637764,43.969297],[7.629083,43.963236],[7.619986,43.960158],[7.611269,43.954697],[7.6016,43.957658],[7.597539,43.956408],[7.589694,43.955189],[7.584947,43.953078],[7.581744,43.948669],[7.579339,43.949472],[7.575061,43.948192],[7.575394,43.946008],[7.56965,43.947286],[7.569753,43.945353],[7.566833,43.943089],[7.573622,43.936858],[7.570483,43.932467],[7.571108,43.928983],[7.568186,43.927225],[7.56825,43.923325],[7.558322,43.917989],[7.559097,43.915461],[7.562061,43.908692],[7.562664,43.903358],[7.561094,43.898719],[7.550758,43.894294],[7.539758,43.893356],[7.5352,43.891211],[7.532214,43.890517],[7.527617,43.886786],[7.521106,43.886464],[7.517322,43.882425],[7.512897,43.885231],[7.512208,43.883472],[7.510383,43.882147],[7.510017,43.880311],[7.507247,43.877508],[7.502539,43.874917],[7.497639,43.871172],[7.499639,43.867717],[7.499167,43.865036],[7.496114,43.864325],[7.495017,43.857464],[7.498628,43.846103],[7.507031,43.841894],[7.507031,43.840044],[7.508814,43.834942],[7.510233,43.828867],[7.514228,43.817969],[7.517775,43.80585],[7.520289,43.801011],[7.529167,43.789936],[7.529828,43.784008],[7.529825,43.784],[9.75,43.166667],[9.75,41.333333],[8.333333,41.333333],[8.0,41.0],[8.0,39.0],[4.666667,39.0],[4.666667,42.0],[3.1731950859558484,42.431705581392],[3.166667,42.433333],[3.158889,42.442222],[3.155,42.443333],[3.154722,42.443333],[3.144722,42.443611],[3.143611,42.443611],[3.129722,42.443889],[3.119167,42.445],[3.114167,42.444722],[3.108333,42.444722],[3.103056,42.441944],[3.098333,42.438611],[3.097222,42.436944],[3.092778,42.435278],[3.088333,42.436111],[3.083333,42.436667],[3.077778,42.438056],[3.068056,42.443889],[3.065,42.445],[3.058056,42.454167],[3.054444,42.455833],[3.0475,42.46],[3.045,42.461667],[3.040278,42.470278],[3.037222,42.476667],[3.034167,42.483333],[3.031944,42.484167],[3.0275,42.484167],[3.020833,42.481111],[3.010833,42.476667],[3.006667,42.476944],[3.003611,42.477222],[3.0,42.479444],[2.965,42.471667],[2.956389,42.474444],[2.942778,42.475],[2.919444,42.464444],[2.9125,42.463056],[2.901944,42.461944],[2.875833,42.465],[2.866389,42.466111],[2.858611,42.465278],[2.854722,42.463611],[2.849722,42.460833],[2.813333,42.435],[2.804167,42.420556],[2.797222,42.417222],[2.776667,42.416944],[2.744167,42.423056],[2.734722,42.422778],[2.715278,42.416667],[2.703333,42.416944],[2.685556,42.408056],[2.666389,42.393889],[2.658333,42.389722],[2.654167,42.384722],[2.659444,42.371667],[2.674722,42.359444],[2.678889,42.354167],[2.68,42.35],[2.678056,42.347222],[2.671389,42.344167],[2.659167,42.342778],[2.647222,42.343889],[2.638333,42.345],[2.604167,42.353611],[2.575556,42.357222],[2.5625,42.357222],[2.535833,42.344444],[2.521944,42.343056],[2.510833,42.345],[2.4975,42.345278],[2.4875,42.349722],[2.455833,42.363611],[2.449167,42.366389],[2.446667,42.37],[2.440556,42.373611],[2.417222,42.394167],[2.348611,42.412222],[2.346111,42.413333],[2.333889,42.418056],[2.31,42.430278],[2.259722,42.435],[2.239722,42.4325],[2.228333,42.428889],[2.219167,42.4225],[2.205278,42.418889],[2.196667,42.418611],[2.189444,42.420833],[2.176111,42.424722],[2.150556,42.426111],[2.1325,42.411667],[2.110833,42.385556],[2.092778,42.373333],[2.07,42.363611],[2.058889,42.361667],[2.047222,42.359444],[2.033056,42.358611],[2.016667,42.359722],[2.006389,42.362222],[1.999722,42.367222],[1.972222,42.378056],[1.965556,42.382778],[1.96,42.3925],[1.961111,42.404444],[1.9575,42.413333],[1.952778,42.424722],[1.949167,42.429444],[1.947222,42.432222],[1.947222,42.433056],[1.946111,42.436667],[1.945556,42.438611],[1.941944,42.442222],[1.935556,42.448056],[1.923889,42.455],[1.912222,42.455833],[1.907778,42.453889],[1.9025,42.451667],[1.893889,42.452222],[1.855833,42.47],[1.841111,42.481667],[1.823889,42.49],[1.764167,42.489722],[1.761111,42.490556],[1.731667,42.497778],[1.723611,42.503889],[1.723611,42.503889],[1.701667,42.4925],[1.692778,42.493611],[1.674722,42.503056],[1.670833,42.503333],[1.668333,42.501111],[1.663333,42.488333],[1.664444,42.485],[1.646389,42.47],[1.628611,42.468333],[1.603611,42.460278],[1.589444,42.453333],[1.571944,42.454722],[1.548333,42.440278],[1.5175,42.435556],[1.515278,42.435],[1.475833,42.438611],[1.473611,42.438889],[1.471944,42.439167],[1.470833,42.439444],[1.464722,42.441111],[1.4525,42.448333],[1.448333,42.467778],[1.431111,42.482778],[1.430278,42.485278],[1.432222,42.490833],[1.46,42.508056],[1.462778,42.511389],[1.464444,42.516944],[1.463611,42.521389],[1.448056,42.540833],[1.441667,42.542222],[1.428889,42.540278],[1.423889,42.542222],[1.422222,42.555],[1.429444,42.565],[1.432778,42.576389],[1.426944,42.588333],[1.426667,42.592222],[1.435556,42.597222],[1.44,42.606389],[1.44,42.606389],[1.415278,42.653056],[1.386389,42.690278],[1.365,42.701944],[1.359444,42.706389],[1.359722,42.713333],[1.355833,42.717222],[1.348056,42.720833],[1.335278,42.721111],[1.286111,42.721389],[1.254167,42.718889],[1.235,42.724167],[1.226389,42.724444],[1.205556,42.720278],[1.195833,42.717222],[1.178056,42.711389],[1.171944,42.710833],[1.160278,42.712778],[1.141111,42.725],[1.1325,42.7375],[1.127222,42.751667],[1.121389,42.756389],[1.120556,42.756944],[1.096667,42.7775],[1.086111,42.783889],[1.048611,42.785278],[1.038611,42.788056],[1.010556,42.786389],[0.994722,42.787222],[0.976389,42.7925],[0.975278,42.792778],[0.972778,42.797778],[0.970278,42.803333],[0.962222,42.806111],[0.956944,42.805556],[0.941111,42.795278],[0.935556,42.793611],[0.908889,42.801111],[0.884444,42.813889],[0.846944,42.828611],[0.827222,42.833333],[0.793056,42.841111],[0.771944,42.842778],[0.741111,42.853611],[0.736389,42.855556],[0.703056,42.8675],[0.688611,42.864444],[0.678056,42.849722],[0.676944,42.848333],[0.666667,42.843056],[0.667778,42.8175],[0.665833,42.808611],[0.647222,42.791389],[0.646944,42.786389],[0.6625,42.778889],[0.658611,42.768611],[0.655833,42.765833],[0.655,42.759722],[0.663333,42.748056],[0.664444,42.741667],[0.665556,42.735556],[0.672778,42.724444],[0.6725,42.705556],[0.679167,42.694722],[0.678333,42.687222],[0.675833,42.687222],[0.672222,42.687222],[0.647778,42.694444],[0.645833,42.694722],[0.607778,42.701111],[0.5875,42.699722],[0.580278,42.699444],[0.523889,42.701667],[0.511944,42.698333],[0.501667,42.6975],[0.478889,42.699167],[0.44,42.696389],[0.418333,42.696944],[0.414722,42.697222],[0.404722,42.700278],[0.383056,42.717778],[0.369722,42.723056],[0.360833,42.724167],[0.353889,42.721389],[0.330556,42.696667],[0.313611,42.684167],[0.304167,42.679722],[0.288611,42.676667],[0.282222,42.679444],[0.272778,42.692222],[0.270278,42.701111],[0.259722,42.711667],[0.249444,42.717222],[0.243056,42.718056],[0.227222,42.72],[0.201389,42.733889],[0.191389,42.737222],[0.181944,42.737222],[0.1675,42.731111],[0.133889,42.708056],[0.131111,42.7075],[0.125,42.706389],[0.108056,42.706111],[0.085556,42.711111],[0.0725,42.7125],[0.044722,42.703333],[0.039444,42.704444],[0.031667,42.706111],[0.026111,42.705833],[0.007778,42.696944],[-0.0,42.695833],[-0.002778,42.695556],[-0.013889,42.693889],[-0.030556,42.696944],[-0.053611,42.700556],[-0.066667,42.7],[-0.0775,42.728333],[-0.095278,42.730278],[-0.098333,42.730556],[-0.103611,42.731944],[-0.107222,42.735556],[-0.113611,42.756944],[-0.133056,42.779722],[-0.135278,42.782222],[-0.14,42.796944],[-0.141944,42.802778],[-0.146111,42.808889],[-0.148889,42.808889],[-0.158611,42.801111],[-0.17,42.795833],[-0.183056,42.794167],[-0.189167,42.795278],[-0.210278,42.804167],[-0.216944,42.809444],[-0.217778,42.810556],[-0.234167,42.829722],[-0.246111,42.828889],[-0.247222,42.828889],[-0.263056,42.831944],[-0.290278,42.846667],[-0.305278,42.844444],[-0.3075,42.843889],[-0.343333,42.834722],[-0.350278,42.834722],[-0.356389,42.832778],[-0.387222,42.814444],[-0.3975,42.811389],[-0.404167,42.809444],[-0.416111,42.809167],[-0.422222,42.807778],[-0.436667,42.805],[-0.451111,42.805556],[-0.456111,42.808056],[-0.466111,42.821944],[-0.483889,42.821944],[-0.496667,42.829444],[-0.503333,42.83],[-0.511111,42.828333],[-0.521944,42.816944],[-0.529444,42.8025],[-0.530556,42.8],[-0.5325,42.798611],[-0.536111,42.795833],[-0.543889,42.793889],[-0.545,42.793889],[-0.561111,42.791111],[-0.569167,42.794167],[-0.573889,42.799167],[-0.577778,42.808611],[-0.580278,42.814722],[-0.599444,42.815833],[-0.603889,42.818333],[-0.608333,42.828333],[-0.615278,42.836667],[-0.620833,42.838611],[-0.656389,42.870278],[-0.671944,42.883889],[-0.686944,42.890278],[-0.703056,42.890278],[-0.715556,42.894444],[-0.732222,42.9175],[-0.7325,42.919167],[-0.736111,42.935833],[-0.746111,42.955833],[-0.751944,42.961944],[-0.756944,42.967222],[-0.767222,42.972222],[-0.775,42.9725],[-0.781667,42.971389],[-0.801667,42.963333],[-0.815278,42.960833],[-0.855556,42.959167],[-0.874444,42.959722],[-0.898333,42.9625],[-0.900278,42.961944],[-0.913056,42.959444],[-0.916111,42.958611],[-0.931944,42.9575],[-0.969167,42.969167],[-0.979167,42.977778],[-1.01,42.994444],[-1.051944,42.995],[-1.066667,43.0],[-1.075556,43.003333],[-1.087778,43.011667],[-1.108056,43.025278],[-1.118611,43.025556],[-1.124167,43.0175],[-1.133056,43.010278],[-1.139722,43.013333],[-1.148611,43.029167],[-1.156944,43.033611],[-1.172778,43.035278],[-1.185278,43.038889],[-1.195,43.041389],[-1.2,43.043056],[-1.203889,43.046111],[-1.21,43.055556],[-1.215833,43.058333],[-1.220556,43.058611],[-1.238333,43.053611],[-1.253889,43.055],[-1.270556,43.063333],[-1.297222,43.071944],[-1.305833,43.077778],[-1.300278,43.091389],[-1.291667,43.104444],[-1.293889,43.106389],[-1.293611,43.108333],[-1.293056,43.113611],[-1.285278,43.118889],[-1.284722,43.122778],[-1.29,43.124444],[-1.321389,43.114167],[-1.329167,43.109167],[-1.334722,43.094722],[-1.341111,43.0525],[-1.348333,43.043889],[-1.351667,43.039722],[-1.356667,43.036389],[-1.386111,43.040278],[-1.394167,43.041667],[-1.418333,43.046389],[-1.436389,43.054722],[-1.459444,43.068889],[-1.470833,43.085],[-1.474444,43.098056],[-1.456111,43.105278],[-1.434444,43.118611],[-1.427778,43.123056],[-1.418333,43.135],[-1.410556,43.156111],[-1.411944,43.166389],[-1.409722,43.178611],[-1.407778,43.180833],[-1.391944,43.196111],[-1.390556,43.199722],[-1.386944,43.21],[-1.388889,43.23],[-1.386389,43.2375],[-1.387778,43.248056],[-1.3925,43.258056],[-1.393333,43.258889],[-1.398611,43.263611],[-1.409444,43.270556],[-1.417778,43.271667],[-1.440556,43.270556],[-1.4575,43.266944],[-1.466111,43.268056],[-1.473333,43.271111],[-1.500833,43.290278],[-1.501389,43.290556],[-1.510278,43.291389],[-1.511389,43.291667],[-1.546389,43.289722],[-1.5525,43.2875],[-1.558889,43.273056],[-1.566944,43.262778],[-1.583333,43.255833],[-1.603056,43.255278],[-1.608889,43.256667],[-1.6175,43.258889],[-1.624444,43.262222],[-1.628889,43.277222],[-1.629444,43.295],[-1.627778,43.3],[-1.629444,43.306111],[-1.630833,43.31],[-1.637778,43.313056],[-1.671667,43.313333],[-1.692778,43.311667],[-1.700556,43.310833],[-1.716111,43.305],[-1.726389,43.301389],[-1.726944,43.301111],[-1.73,43.304167],[-1.7325,43.306667],[-1.733056,43.3075],[-1.734722,43.312222],[-1.735278,43.313333],[-1.736389,43.319167],[-1.736667,43.320556],[-1.735,43.331389],[-1.735,43.331667],[-1.7375,43.335556],[-1.738889,43.3375],[-1.738889,43.337778],[-1.748611,43.338611],[-1.749167,43.338889],[-1.750278,43.3425],[-1.750278,43.343056],[-1.750556,43.343056],[-1.750556,43.343333],[-1.754722,43.346667],[-1.762778,43.344722],[-1.764167,43.344444],[-1.768889,43.345],[-1.769444,43.345],[-1.769722,43.345],[-1.770278,43.345278],[-1.779722,43.348889],[-1.783333,43.35],[-1.7859810474402427,43.35045423435492],[-1.785978,43.350472],[-1.783333,43.583333],[-4.0,44.333333],[-8.0,45.0],[-8.0,48.833333],[-2.0,50.0],[-0.25,50.0],[1.466667,50.666667],[1.466667,51.0],[2.0,51.116667]]]}}]}